STRONG GROUND MOTION RECORDS OF TURKIYE
PLACE                   : MUðLA GULLUK ITFAIYE
EARTHQUAKE DATE         : 2017/07/20 22:31:09 (GMT)
EPICENTER COORDINATES   : 36.91980N-27.44350E
EARTHQUAKE DEPTH (km)   : 19.44
EARTHQUAKE MAGNITUDE    : 6.5 Mw
STATION ID              : 4817
STATION COORDINATES     : 37.24010N-27.60310E
STATION ALTITUDE (m)    : 10
RECORDER TYPE           : GeoSig gmsplus
RECORDER SERIAL NO      : 101911
RECORD TIME             : 20/07/2017 22:30:59.000000 (GMT)
NUMBER OF DATA          : 9156
SAMPLING INTERVAL (sec) : 0.01
RAW PGA VALUES (gal)    : (N-S) 79.043928 (E-W) 57.980898 (U-D) 31.728123
Copyright EARTHQUAKE DEPARTMENT
DISASTER AND EMERGENCY MANAGEMENT PRESIDENCY
       N-S          E-W          U-D
[...]
   -2.655683     -0.093036    10.830894
    0.140074      3.237808     2.592273
    2.791599      6.679878     6.431176
    5.171292      4.507826    18.982975
    5.586316      0.655670    20.969215
    5.915320     -3.085000     2.467012
    8.575421     -6.982895   -10.797629
    9.172359     -6.496405   -13.641983
    4.787974     -1.129425   -14.092610
   -2.863325      2.661920   -12.586883
   -7.345943      1.670229    -2.475588
   -8.538519     -0.324586     6.552279
   -8.266947      4.078770     3.841762
   -6.187671      8.955881     0.135656
   -4.066815      9.261497    -2.456357
    0.167621      8.778645    -0.378901
    4.606060      1.707652     4.943640
    7.011222     -4.087865    12.486050
    8.680931     -4.010162    13.631848
   10.643782     -4.193375    -3.979756
    9.707186     -5.082414   -19.053142
    1.282493    -10.260724   -16.466067
   -6.801241     -8.987326    -5.147384
   -9.588682     -2.718833    -2.481825
   -8.602189     -0.559255   -11.561408
   -5.060325     -0.121103   -15.728536
   -5.460276     -2.744821    -9.610511
   -9.599077     -1.132024     2.655423
  -12.068688      4.107096     7.378948
   -8.061125      5.483405     3.114366
    1.727662      4.694418     2.421014
    7.726923      5.855289     2.262749
    6.541624      4.188957     4.308761
    2.833439     -4.291349     6.046558
    1.573295     -8.936910     3.835005
    3.477414     -9.957967    -1.549906
    4.345143     -8.282020   -16.358737
    1.345643     -3.457663   -16.172665
   -2.980529     -3.663486     0.264555
   -4.098260     -1.790553    -1.095641
   -1.128126      4.408034   -10.795810
    4.929347      7.774220    -9.443930
   11.285159      7.232377     4.036150
   12.003199      5.618541    13.353000
   10.531256      7.390122    11.963178
   13.269060      5.600349    10.700955
   14.868343      0.690753     3.432975
   12.697590      1.056920     1.493513
    6.884142     -0.481812    11.002672
    0.439972     -6.782530    17.013627
   -0.357851     -8.438726    10.746174
    2.893211     -2.671536    -4.470924
    7.589448      3.838123   -14.103005
    7.183260      5.937930   -17.926575
   -0.598237      4.926488   -10.571017
   -7.147917      2.930633     5.024462
  -10.289050      0.563413    19.219463
  -12.377942      1.416330    23.045632
  -12.837404      4.761726     2.079016
  -11.429390      0.970900   -16.981663
   -9.658589     -7.141940   -13.808305
   -9.521374     -9.090757    -3.489888
   -7.053582     -7.260704    -1.546788
    1.996115     -6.045259    -9.750845
   11.391448     -7.000827   -11.293475
   15.733213     -7.527077    -2.842015
   12.173938     -3.784589     4.538492
    4.523939      1.402036     2.418415
    2.543416      7.785915    -7.753690
    2.626837     11.911462    -8.790859
   -2.394767     10.165089     1.884368
   -9.421581      7.700935    11.733966
  -13.178103      3.140873    19.019098
  -10.345184     -4.059539    15.599637
   -2.902046     -7.732640    -0.033524
   -0.182174     -7.316317    -9.900794
   -1.825896     -3.518475   -13.927328
   -2.897109     -0.633580   -17.230105
   -3.798882     -3.033024   -10.270079
   -0.726356     -2.659321     5.149463
    5.345930      2.445962    14.684090
    9.606093      7.471204    12.560895
   11.086873     13.049724     3.190510
   10.006564     14.812469   -11.321801
    6.579046     11.450700   -16.663053
    0.381759      6.240426    -4.198573
   -3.417902     -0.177496     8.233943
   -3.300958     -8.913781    15.853796
   -4.096701    -15.550520    13.476182
   -2.834738    -12.562714     2.162177
   -1.488575     -7.489135    -3.023669
   -1.010402     -2.384371    -9.676000
    1.816280      2.654903   -11.310887
    3.221175      1.285352     1.958433
    5.757835      2.633074    12.541664
    7.405975      7.036949    11.764372
    4.211827      8.244858    -0.145011
   -1.113313      7.261223   -16.403176
   -7.535913      7.421048   -18.388897
  -12.382619     11.068161    -5.863085
  -15.203064      8.397925     0.930879
  -12.329085     -0.083421     2.932972
   -1.587069     -6.598537     1.003905
    8.040335     -9.118044   -15.881863
    8.825163     -6.164802   -21.307575
    6.050456     -3.800961    -7.668191
    6.545262     -4.443637     1.349541
    7.494073     -7.529676     6.201965
   10.538792    -10.723565    11.153401
   14.145625     -9.451726    20.267807
   12.672902     -2.742482    17.734266
    8.775267      7.115172    -2.016386
    5.677273      9.753444   -13.696298
    5.390369      4.081108   -12.089998
    3.647634      1.095122    -3.028087
   -2.200638      2.864884     2.459476
   -7.526038      1.542370     4.655177
  -10.757608     -5.042913     4.691040
  -12.016972     -8.378175     0.502602
  -13.008923     -5.834499     2.386710
  -11.658342     -2.943627     2.308487
   -7.567358     -2.866963     3.576167
   -3.028087     -4.772641    12.847539
    4.103458     -3.839943    13.977225
    6.427018      1.037169     4.817340
    3.796543      5.992764    -6.753683
    3.144252      9.953289   -13.346243
    0.369545      9.497985    -6.794484
   -2.669457      6.972240     1.149176
   -1.912695      5.586576     0.308474
    2.580579      3.371124    -2.826682
    7.696517      4.968848    -5.970414
    7.341785      4.699096    -3.709224
    2.259111     -1.091224     5.048111
   -0.656969     -4.321235    13.290370
    1.975585     -2.224547     5.308507
    7.083987      6.070467   -11.299192
    9.665345     10.397419   -12.044259
    7.270319      6.543183    -4.805905
    1.622932      2.480526     4.123988
   -1.935044     -3.521593     1.679845
    0.499484     -6.919485   -10.534634
    2.527044     -5.720413   -11.002932
   -2.357604     -4.258085    -5.917139
   -7.775780     -2.138528     0.914767
   -8.568664     -3.604754     3.251581
   -6.394533     -5.124255     0.811596
   -3.476894     -3.470397     3.676220
   -3.069667     -2.616702    13.701495
   -4.313179     -2.104484    15.032325
   -3.534587     -1.186079     0.193348
    1.840189      0.297819    -4.173884
   10.505528      3.928561    -2.166595
   15.651872      7.549947    -5.016666
   14.501656      6.061891    -8.615442
    9.714202      1.005204   -14.781024
    1.369812     -4.745094    -8.955361
   -7.700935     -7.089964     8.458736
  -10.826996     -1.399698    14.132111
   -8.687428      5.002632     1.082128
   -3.605274      3.349295    -7.146098
    2.233903     -1.903859     0.339139
    3.473256     -4.218843     5.537199
    2.933751     -4.968328    -0.124221
    6.215998     -6.240426    -5.913241
   10.853243     -8.450940    -8.797616
   12.842861     -8.734206   -18.071067
    8.522926     -5.669737   -17.482705
   -0.282486     -5.589694     2.855009
   -6.621146     -7.459509    12.824930
   -9.808797     -4.167388     3.365667
  -10.987080      0.132537    -1.066015
  -10.353760      0.040281     9.287484
  -10.368313     -2.722731    23.639711
  -11.555951     -1.350841    22.214286
   -6.434814      6.308514     9.129739
    3.828508     10.700435     2.957400
    8.342052     11.345190    -2.143725
    7.785655     10.556464    -4.279914
    4.984181      5.364901    -3.064729
    3.891918     -0.058992    -3.557716
    5.508613     -1.328231    -3.892178
    5.764332      1.974545    -7.766944
    3.235469      4.010162    -9.208482
   -2.614363      0.843301    -8.333216
   -5.820985     -4.101119    -8.167934
   -5.735745     -6.890639    -5.887513
   -7.137782     -5.720932    -2.634633
   -9.863632     -6.217297     1.854742
  -10.231877     -7.598024     2.558489
   -7.660914     -2.958700    -4.594625
   -5.397126      2.361242   -13.531795
   -2.913741      7.079829   -12.435114
   -1.685822     10.644822    -2.475588
   -1.684523      7.478221    -1.432182
   -2.076677      4.697537    -7.208728
   -2.827722      3.861252    -3.601895
   -2.258851      2.388010     5.827482
   -4.422847      0.233370     5.174671
   -7.711330     -5.578780    -7.092563
   -7.820738     -9.766957   -11.298412
   -6.731334    -12.099093    -0.314971
   -5.886734    -15.834565    10.874813
   -7.988879    -18.822111     3.838903
   -7.482638    -21.290423   -13.511265
   -1.367473    -20.312766   -14.855609
    1.791852     -9.967063    -4.189737
   -0.470897      5.143226     1.067835
   -3.312912     17.808071    -1.914514
    0.612270     26.996802    -5.162197
    6.376082     31.153535    -5.705600
    6.732893     31.896523     1.539251
    3.617748     30.111168    11.362602
    1.109415     24.193249     9.806978
    4.687921     13.979823     1.791072
   10.277356      1.954535    -6.670523
   11.810630    -10.626371    -5.910123
    7.289030    -20.380074    -2.141646
    1.536393    -24.754844    -5.154400
   -1.024435    -28.042807    -9.900794
   -2.736245    -26.220810   -12.602215
   -6.345677    -15.428378   -11.897429
  -13.843388      2.445443    -8.591534
  -21.321089     20.223368     1.495332
  -26.965357     29.077378     5.473529
  -26.654804     28.918593     1.577453
  -20.505075     22.074732     0.983894
  -13.242033     13.028933    -1.316537
   -6.496405      3.189990    -3.215198
   -1.776779     -7.491994     3.346176
    4.724304    -18.424500    19.025075
    7.455611    -28.240574    28.040468
    4.908037    -30.153268    20.166455
    3.610471    -22.333050     6.950670
    1.140860    -10.348042    -0.962325
   -5.613083      1.668670    -1.429583
  -15.860813     10.875593     5.210794
  -20.345510     17.192683    12.654970
  -17.236602     25.502770    14.045572
  -14.399265     32.200060     9.693412
  -11.361563     33.207343     3.335521
   -7.473803     28.196395    -3.405168
   -0.246104     14.101706   -18.046119
   12.430956     -0.465959   -31.728123
   23.275104    -10.438739   -22.739237
   27.877785    -15.973340     2.219350
   25.968989    -13.278155    15.739970
   18.934638     -8.384672     5.808771
   11.595972     -5.444163    -9.191070
    6.147131     -0.350574   -16.114973
    2.032498      7.876612   -14.461895
   -1.445956     15.351974    -7.031752
   -2.252354     19.218684    -2.974292
    3.716761     17.554431    -1.556663
   14.719693     13.151595    -7.523699
   22.343965      4.281733   -19.658136
   21.827849    -15.179156   -24.683897
   16.940602    -32.987227   -17.468412
    9.194448    -41.723512    -5.757315
   -1.376049    -39.327966    -6.930920
  -13.722805    -23.686489   -11.962918
  -28.385325     -9.119344    -4.344624
  -41.140868      1.554844     6.326186
  -52.032833     12.535687    11.219930
  -59.329659     17.598611    12.599357
  -52.869637     18.862912    11.093629
  -36.102373     22.601243     6.118024
  -22.160232     22.447136    -0.851097
  -15.739970     13.491514    -8.975892
  -12.930700      0.594079   -12.392754
   -8.305669    -10.753710    -4.779918
   -0.861232    -14.736845     5.366720
    8.039035    -10.917953     0.411905
   18.310414     -2.368259   -12.624565
   28.369213      6.524732   -10.323614
   30.375723     11.650286     0.495066
   19.997275     14.050510     6.551239
    7.329051     10.045805    12.930440
    2.647367     -2.063683    21.550300
    2.501056    -14.856648    27.464841
   -2.909843    -24.923504    20.841876
  -12.218117    -30.671983     2.089151
  -17.739984    -29.796457    -9.836085
  -20.056267    -24.093197    -3.755483
  -19.231158    -14.204877     6.317870
  -14.165895     -2.236242     3.668164
   -3.893737      6.683517    -7.258624
   12.856115     12.009696   -13.013601
   27.609073     14.200979    -8.395846
   32.654844     12.740730     1.983641
   32.983069      8.356605     9.387537
   32.330778     -1.262223     9.713423
   22.830714    -19.258445    11.935631
   -1.418409    -37.470105    14.955921
  -31.310761    -42.766399     5.105284
  -53.936692    -36.457884    -6.606593
  -65.998623    -24.773815    -4.811363
  -70.642365    -10.026834     7.386744
  -69.894179      3.428817    13.688761
  -61.787316     15.325986     7.986800
  -43.734440     24.344498     6.613350
  -16.941901     28.522800     4.581632
   14.732167     30.413405    -3.739630
   42.155688     25.795651    -5.717554
   57.484792     16.996995    -6.273951
   60.974941     13.126127    -2.559788
   50.247478     12.670303     8.513830
   30.205244     12.760480     7.115692
    9.063210     10.821538     0.158525
   -9.698350      7.874273     2.474289
  -18.413065      8.897929     3.260157
  -23.862686     11.230065     4.119830
  -32.366641     14.187465     4.367493
  -35.608866     16.507387    -2.437646
  -34.512705      8.756815    -4.169207
  -29.540219     -6.788767    -6.028367
  -15.150049    -22.995216   -15.870948
    8.136489    -38.155661   -14.253994
   35.754657    -45.034085    -8.213153
   59.932834    -47.078538   -15.244645
   74.025444    -50.869883   -14.166935
   77.207897    -47.672617     0.851617
   68.837259    -33.114827     6.159345
   42.155428    -10.957454     3.549400
   -0.253380      8.757855     7.113353
  -37.821979     20.807052     9.466020
  -61.302126     31.958894     5.065003
  -75.499726     41.002613    -3.724037
  -79.043928     44.605288   -11.890932
  -67.527219     43.684024    -8.717834
  -42.773935     35.060526    -0.753903
  -13.387564     10.039308     3.916606
   13.459550    -25.291490    11.262549
   35.378875    -50.372739    14.447862
   49.160672    -56.903967     5.626337
   51.577268    -42.840723    -4.435841
   48.308795    -17.970235    -3.305116
   41.573563      5.484704     7.496672
   27.374404     27.695872    18.763379
    9.663006     42.114887    26.084374
   -7.710291     47.354267    25.266801
  -25.427665     49.862340    19.088745
  -43.393222     44.884916    14.260750
  -56.544038     31.730202     4.443897
  -60.543285     14.353267    -6.000560
  -54.632642     -4.487036    -8.592053
  -35.663700    -16.539092    -9.749546
   -6.920525    -22.773022   -11.717854
   22.217664    -23.930254   -12.448888
   47.009670    -19.812763   -12.500344
   63.970283    -17.016746    -7.892984
   72.776735    -16.301305     2.048351
   74.488545    -11.858188     2.526264
   66.210163      4.063697    -6.500303
   48.164304     25.849445   -11.358444
   21.621247     40.057701    -4.385424
  -11.929134     37.860700    12.252421
  -42.724039     21.371245    13.807785
  -59.057048     -1.423346     3.745607
  -60.561736    -28.075812     4.833972
  -49.210569    -47.279682     6.334502
  -29.180809    -53.719435    -4.506787
  -11.746181    -54.185134   -18.587443
    2.647627    -45.802542   -15.029986
   12.936157    -27.435475     2.988326
    9.383899     -5.253414    17.503755
   -7.093343     17.928654    19.357198
  -25.476782     40.724545     5.646607
  -37.918133     55.391483    -3.510419
  -45.376343     57.980898     0.119024
  -48.220957     53.993085     8.644029
  -45.129460     40.115653    21.085900
  -35.367181     15.522453    24.484571
  -20.656583     -7.579053    16.336648
  -10.679645    -22.639185    13.434601
   -8.756556    -28.703675    16.384465
   -6.089178    -26.629856    10.677566
    5.083194    -18.720500    -0.288983
   23.555511     -5.816047    -4.524978
   42.376063      4.967289    -2.343051
   54.546103      7.111014    -1.892944
   57.866032      8.550993    -8.267207
   53.849373     13.317397    -7.229258
   42.101373     13.523999     5.777585
   23.355666      7.926768    15.138875
    1.022876     -2.095128    15.787528
  -17.885255    -12.477734     8.110501
  -31.438100    -15.609252     1.010142
  -42.037444    -16.952816     2.027820
  -43.124769    -19.990259    -2.739883
  -29.327899    -21.262357   -18.350435
   -6.688714    -26.396227   -31.077131
   14.243079    -33.068569   -25.698977
   27.719520    -32.299073    -7.635706
   32.695125    -22.503009    -4.253667
   33.265296     -6.558776    -9.024229
   33.235929      4.054861    -0.821211
   28.814902      6.811116     8.750059
   16.140441     11.293995     8.326459
   -0.742209     16.029213     4.162190
  -12.586883     17.652145     7.021097
  -17.653185     16.401357    14.848072
  -16.082228      7.874273    19.411513
   -8.202238     -3.590461    15.869649
   -2.795497     -5.537459     6.725617
   -4.136722      2.541857     6.422860
   -9.175217     15.122762    10.937183
  -15.485551     26.449761     6.056953
  -18.610052     31.732541    -0.774433
  -12.161204     35.034278    -0.086279
    0.351614     36.178257     1.848245
   10.936924     34.351841     3.033804
   18.259998     29.228366     3.713642
   20.724671     14.588195    -0.325626
   18.296900     -0.635399    -2.187645
   14.076238     -3.506520     0.410606
    8.917939     -0.442830     5.323061
    2.612284     -5.174671     5.961059
   -3.661927    -18.505062     1.416590
  -10.393261    -33.313893     7.348542
  -17.781044    -43.725345     9.230831
  -22.708572    -42.615150    -1.757808
  -24.160505    -34.616916    -3.651272
  -21.047178    -27.374923     1.416330
  -16.856922    -21.826549    -0.822511
  -16.746474    -17.809111   -12.879764
  -13.560122    -10.068155   -16.207229
   -5.382832     -1.948298    -4.711050
    1.875532      3.929600    -1.701934
    9.501883     10.469405    -5.759914
   18.216078     10.478241    -6.982375
   24.713003      6.571770    -0.761699
   25.068775      8.937950    12.939536
   20.625918     16.652139    17.771429
   14.756076     18.922944    13.166928
    7.622192     12.253460     4.005744
   -1.803287      5.231064    -2.924916
  -14.383932     -1.437640     2.424133
  -23.418296     -3.720919     6.729775
  -22.509766     -2.510672     3.286924
  -12.625344     -7.763306     1.882549
    1.781457    -12.473056     1.104997
   12.677060    -12.937717     0.870588
   18.368886     -9.463421    -0.435814
   19.867337     -1.564460    -6.218597
   14.395107      2.371638    -6.609192
    4.373730     10.569977    -2.330577
   -7.344124     25.781877     0.004678
  -19.176064     32.107803     3.289523
  -28.931847     28.647281     8.841275
  -36.297021     18.575228    12.440572
  -37.823538      6.667664     5.804613
  -30.084921     -2.244298    -6.134397
  -14.283879    -12.698370    -8.054108
    2.102145    -22.379308    -1.680884
   11.943427    -25.208849    -0.479473
   18.163063    -23.337214    -4.772901
   23.179989    -20.803154    -8.086852
   26.578400    -15.858734    -9.564253
   27.727317     -7.938723   -10.497731
   25.159472      1.862019   -12.122742
   24.547202     11.528663   -11.082715
   27.933919     17.554431    -5.571763
   27.516816     20.759495     1.984681
   18.487390     19.218164     5.085793
    3.151528      9.472777    -0.789506
  -12.871708     -6.710544    -5.451440
  -23.571624    -21.346817    -4.223261
  -24.730155    -25.240814    -6.230031
