STRONG GROUND MOTION RECORDS OF TURKIYE
PLACE                   : AYDýN SARIKEMER BELEDIYE SU DEPOSU
EARTHQUAKE DATE         : 2017/07/20 22:31:09 (GMT)
EPICENTER COORDINATES   : 36.91980N-27.44350E
EARTHQUAKE DEPTH (km)   : 19.44
EARTHQUAKE MAGNITUDE    : 6.5 Mw
STATION ID              : 0920
STATION COORDINATES     : 37.56040N-27.37490E
STATION ALTITUDE (m)    : 58
RECORDER TYPE           : GeoSig gmsplus
RECORDER SERIAL NO      : 101901
RECORD TIME             : 20/07/2017 22:30:59.000000 (GMT)
NUMBER OF DATA          : 15014
SAMPLING INTERVAL (sec) : 0.01
RAW PGA VALUES (gal)    : (N-S) 10.894044 (E-W) 9.973819 (U-D) 6.469638
Copyright EARTHQUAKE DEPARTMENT
DISASTER AND EMERGENCY MANAGEMENT PRESIDENCY
       N-S          E-W          U-D
[...]
   -6.968082     -0.114606    -1.695957
   -6.265115      0.167621    -2.676473
   -4.529916      0.712843    -2.798615
   -2.098767      1.192056    -2.314465
    0.258837      1.426725    -1.723504
    2.014567      1.427764    -1.222721
    2.993783      1.029633    -0.696210
    3.384638      0.299378    -0.121882
    3.523152     -0.601096     0.434254
    3.522113     -1.494033     0.806138
    3.230271     -2.140867     0.688934
    2.650745     -2.261190    -0.224534
    2.041334     -1.883848    -1.627350
    1.686342     -1.402816    -2.656463
    1.890605     -0.849278    -2.916859
    2.605267     -0.214399    -2.598510
    3.434534      0.465180    -1.975065
    4.134383      1.339146    -1.176463
    4.717287      2.185566    -0.296000
    5.263289      2.576421     0.503642
    5.626857      2.357084     1.315497
    5.485744      1.646061     2.192322
    4.722745      0.578746     2.750018
    3.375023     -0.739610     2.755996
    1.443097     -2.120856     2.323560
   -0.608112     -3.235729     1.585769
   -2.273664     -3.778092     0.716221
   -3.666864     -3.835005    -0.100053
   -4.723524     -3.397372    -0.629942
   -5.267187     -2.359683    -0.754423
   -5.301491     -1.222981    -0.621366
   -4.793171     -0.412425    -0.144232
   -4.018218      0.082381     0.858374
   -3.435574     -0.008576     1.989618
   -3.099553     -0.693092     2.663999
   -2.705839     -1.212326     2.863325
   -2.026261     -1.045485     2.914001
   -1.009102     -0.540284     2.981309
    0.087838     -0.261436     2.995602
    0.871887     -0.081601     2.732087
    1.005464      0.322767     2.183227
    0.419701      0.674901     1.502349
   -0.327445      0.755982     0.584203
   -0.713622      0.660607    -0.613310
   -0.658528      0.375003    -1.893724
   -0.268713      0.045998    -2.865924
    0.546002     -0.081601    -3.067068
    2.033797     -0.000260    -2.586816
    3.927261      0.231810    -1.785095
    5.588135      0.771315    -0.728955
    6.560075      1.722985     0.581085
    6.907011      2.761973     2.031459
    6.833726      3.474036     3.446749
    6.337620      3.585263     4.730281
    5.504715      3.220916     5.702741
    4.487296      2.897369     6.114646
    3.255479      2.657502     5.821245
    1.697517      2.120856     4.976904
    0.193868      1.366433     3.905172
   -0.878904      0.466739     2.550693
   -1.533014     -0.687115     0.994809
   -1.734419     -1.657236    -0.307434
   -1.505987     -2.156979    -0.938416
   -0.898395     -2.433748    -0.597197
    0.099793     -2.545495     0.645275
    1.251048     -2.295753     2.245337
    1.898401     -1.805625     3.568891
    1.654377     -1.528337     4.282513
    0.712063     -1.632547     4.134643
   -0.481552     -1.916853     3.317070
   -1.508846     -2.125014     2.514050
   -2.191283     -2.082135     1.990918
   -2.591753     -1.647620     1.733899
   -3.038222     -1.000526     1.601882
   -3.766137     -0.589921     1.410093
   -4.877372     -0.307434     1.171006
   -6.257838      0.286384     0.857334
   -7.468865      1.301204     0.648653
   -8.119337      2.625797     0.876565
   -7.777599      3.946232     1.488316
   -6.359970      4.821758     2.186605
   -4.382046      4.992237     2.896849
   -2.322521      4.601382     3.537446
   -0.569131      3.793684     3.730794
    0.435554      2.342791     3.291082
    0.586802      0.326146     2.319662
    0.188931     -1.565499     1.030152
   -0.506500     -2.626577    -0.216478
   -1.390602     -2.695964    -1.170746
   -2.326159     -2.172832    -1.772881
   -3.090457     -1.498971    -2.082135
   -3.482092     -0.766377    -2.108642
   -3.305635      0.057433    -1.728182
   -2.524185      0.687635    -1.047564
   -1.526517      0.931139    -0.366427
   -0.759101      0.853696     0.092516
   -0.349794      0.278068     0.232850
   -0.102911     -0.782230     0.114346
    0.089658     -1.949857    -0.153068
    0.344077     -2.837597    -0.389036
    0.870848     -2.938169    -0.366946
    1.699596     -1.975845     0.091477
    2.851630     -0.395273     0.937896
    4.136202      1.150475     1.857081
    5.253933      2.360983     2.572003
    5.885954      3.116445     2.862285
    5.710277      3.259637     2.648666
    4.661674      2.620860     2.060825
    3.065509      1.359936     1.191796
    1.690240      0.154627     0.226353
    1.108116     -0.379940    -0.372664
    1.512224     -0.312112    -0.209981
    2.711297     -0.060811     0.662167
    4.028093      0.120843     1.912955
    4.795510      0.189710     3.226113
    4.626850      0.063150     4.194675
    3.370085     -0.456604     4.359697
    1.168147     -1.204530     3.634900
   -1.501309     -1.948038     2.439465
   -3.982875     -2.796277     1.257285
   -5.560848     -3.760160     0.223234
   -6.088918     -4.704034    -0.766637
   -5.997961     -5.437666    -1.759887
   -5.517449     -5.724571    -2.399964
   -4.592546     -5.596451    -2.080575
   -3.150229     -5.246397    -0.872147
   -1.551206     -4.610998     0.586802
   -0.331343     -3.526791     2.002872
    0.316530     -1.921011     3.297579
    0.345896     -0.128119     4.263542
   -0.333682      1.078749     4.591767
   -1.529636      1.437640     4.097741
   -2.776786      1.251568     3.142173
   -3.833446      0.637218     2.144505
   -4.450654     -0.444390     1.097201
   -4.397898     -1.737538    -0.035603
   -3.888280     -2.602668    -1.110195
   -3.114366     -2.453239    -1.865137
   -1.899441     -1.349801    -2.133330
   -0.232850     -0.001040    -1.759367
    1.623711      1.259364    -0.517935
    3.440771      2.752097     1.348762
    4.907517      4.323574     3.123981
    5.660901      5.251075     4.366453
    5.452999      4.910896     4.995875
    4.307201      3.465460     4.823577
    2.708698      1.861499     3.727156
    1.460509      0.638258     1.975845
    0.911389     -0.104471     0.267933
    0.882542     -0.500783    -0.765858
    1.102918     -0.910609    -1.190756
    1.357338     -1.429583    -1.398658
    1.495072     -1.931406    -1.603441
    1.165548     -2.264308    -1.776779
    0.386697     -2.429330    -1.766124
   -0.344597     -2.532241    -1.446216
   -0.564453     -2.624238    -0.781970
   -0.160084     -2.636452     0.103691
    0.599276     -2.589674     0.968562
    1.318356     -2.582658     1.518721
    1.528077     -2.514310     1.654377
    1.173085     -2.280161     1.581352
    0.361489     -1.914514     1.472723
   -0.597197     -1.526258     1.252607
   -1.287431     -1.090704     0.600836
   -1.903599     -0.542623    -0.628383
   -2.711816      0.003638    -2.021323
   -3.627623      0.338100    -3.124761
   -4.217544      0.482072    -3.693112
   -4.351121      0.611231    -3.538225
   -4.170506      0.760400    -2.669457
   -3.795504      1.136442    -1.382546
   -3.513537      1.842008    -0.181134
   -3.353193      2.654644     0.804059
   -3.234429      3.540824     1.711030
   -3.045499      4.583451     2.456098
   -2.846433      5.560328     3.068887
   -2.532501      6.179875     3.642696
   -2.063943      6.188711     4.177003
   -1.887227      5.347229     4.529396
   -2.167114      3.973519     4.454812
   -3.141133      2.559788     3.921284
   -4.647640      1.084727     2.933232
   -6.046038     -0.528850     1.639564
   -6.979776     -1.944400     0.312632
   -7.337367     -2.721432    -0.883322
   -7.250568     -2.691286    -1.654377
   -6.728995     -2.118257    -1.819139
   -5.794218     -1.489615    -1.523399
   -4.759128     -1.151255    -1.187898
   -4.049403     -1.323034    -1.205569
   -3.732613     -2.021323    -1.668150
   -3.485990     -2.973773    -2.436867
   -2.771328     -3.557456    -3.092796
   -1.164249     -3.365927    -3.335521
    1.033271     -2.928814    -3.223514
    3.226113     -2.713376    -3.085000
    4.899981     -2.619300    -3.238327
    5.860746     -2.508593    -3.520814
    6.379720     -2.120596    -3.615929
    6.811116     -1.448814    -3.399451
    7.315018     -0.778851    -2.823044
    7.816840     -0.165022    -1.895543
    8.110761      0.423340    -0.671522
    8.026561      0.821991     0.740390
    7.614916      0.926462     2.042633
    6.886741      0.952449     2.891132
    5.888033      1.125527     3.168940
    4.757048      1.317576     2.957660
    3.601635      1.241432     2.365400
    2.463114      0.873706     1.513524
    1.345643      0.457384     0.673341
    0.360190      0.333682     0.091217
   -0.518195      0.555617    -0.100053
   -1.214145      0.773654     0.044439
   -1.710251      0.575108     0.246623
   -2.199599     -0.161124     0.321728
   -2.738584     -1.092783     0.143972
   -3.084220     -1.812382    -0.194908
   -2.728189     -2.050689    -0.285085
   -1.396839     -1.741436     0.132277
    0.674641     -1.037949     1.090964
    2.766391     -0.243765     2.455578
    4.215725      0.396572     3.843841
    4.519781      0.915547     4.751591
    3.465460      1.318616     4.942341
    1.437380      1.660094     4.580332
   -0.935037      2.104224     3.864891
   -3.029386      2.705060     2.903346
   -4.584230      3.446749     1.868516
   -5.719633      4.266141     1.055360
   -6.649473      4.929867     0.673861
   -7.352180      5.203517     0.662167
   -7.810343      5.408560     0.850837
   -8.344650      5.943387     1.176203
   -9.185872      6.577747     1.648660
  -10.132344      7.130505     2.117478
  -10.772941      7.475882     2.352666
  -10.835831      7.392981     2.403862
  -10.534894      7.213406     2.317843
  -10.058279      6.832686     2.074598
   -9.155986      6.131798     1.726883
   -8.293455      5.557730     1.316017
   -7.496152      5.014327     1.090444
   -6.473796      4.401277     1.000526
   -6.076704      3.409326     0.883842
   -6.131278      2.091230     0.835245
   -5.662200      0.959986     0.679059
   -4.732880      0.081601     0.387477
   -3.748206     -0.515856     0.176976
   -2.764831     -1.132804    -0.003638
   -1.793411     -1.696737    -0.320168
   -0.852916     -1.948818    -0.710244
   -0.163463     -1.995855    -0.952969
    0.228692     -1.635406    -0.878904
    0.596418     -0.903332    -0.655410
    0.985713     -0.344597    -0.596418
    1.773661     -0.048597    -0.680358
    2.922057      0.454265    -0.844860
    3.879964      1.161650    -1.109675
    4.642962      1.706352    -1.458430
    5.330337      1.834991    -1.845387
    6.010435      1.478960    -2.300951
    6.610751      0.891638    -2.968835
    6.952230      0.194648    -3.699349
    6.999007     -0.767677    -4.177523
    6.945473     -1.943620    -4.323574
    6.918445     -3.151528    -4.228199
    6.772914     -4.225340    -4.033811
    6.462101     -4.859960    -3.822531
    5.945986     -4.951696    -3.712863
    5.346450     -4.702734    -3.707405
    5.053568     -4.325393    -3.523932
    5.307728     -4.016659    -3.075125
    5.889073     -4.008083    -2.569404
    6.477694     -4.437660    -2.307968
    6.830867     -5.303310    -2.434788
    6.635180     -6.465220    -2.703500
    6.107629     -7.680665    -2.834478
    5.754456     -8.647147    -2.759374
    5.829041     -9.068148    -2.489102
    6.073585     -8.902866    -2.053288
    5.919478     -8.209774    -1.654377
    5.162457     -7.100100    -1.595905
    3.896336     -5.887254    -1.885927
    2.381253     -4.923110    -2.255732
    0.767157     -4.202731    -2.375536
   -0.776253     -3.582145    -2.114359
   -1.628389     -3.147630    -1.666591
   -1.435820     -2.904385    -1.248709
   -0.860453     -2.867223    -1.017159
   -0.361229     -2.938429    -1.058479
    0.070427     -2.936610    -1.235195
    0.150989     -2.665039    -1.191796
    0.097974     -1.911395    -0.606553
    0.225573     -0.736751     0.566532
    0.474016      0.628902     2.067581
    0.682957      1.655936     3.327985
    0.511178      1.921531     3.872167
   -0.282486      1.413211     3.648933
   -1.603441      0.421001     2.877878
   -3.031205     -0.658788     1.869815
   -4.203251     -1.665292     0.817313
   -4.915833     -2.438946    -0.158525
   -5.207415     -2.730528    -0.913468
   -5.220669     -2.321481    -1.330830
   -5.007830     -1.422827    -1.352140
   -4.670769     -0.503902    -1.142419
   -4.409853      0.224534    -0.845900
   -4.665832      0.617468    -0.418662
   -5.436887      0.656189     0.080822
   -6.182734      0.637738     0.694651
   -6.615949      0.962065     1.509885
   -6.689234      1.699855     2.361502
   -6.589961      2.737804     3.069927
   -6.583724      3.930640     3.495865
   -6.727436      4.940522     3.577467
   -7.017719      5.467032     3.348775
   -7.607899      5.444943     2.810830
   -8.508373      5.167394     2.068101
   -9.407807      5.063184     1.380467
  -10.098041      5.239380     1.025994
  -10.558803      5.343851     1.086546
  -10.766184      5.076177     1.390342
  -10.705893      4.586569     1.758588
  -10.683024      4.138801     2.151002
  -10.836611      4.046025     2.478447
  -10.894044      4.358137     2.543936
  -10.706413      4.627630     2.381253
  -10.224601      4.640104     2.093049
   -9.546062      4.493013     1.608119
   -8.757855      4.142699     0.883842
   -7.934824      3.669983    -0.038722
   -7.008363      3.366707    -0.837324
   -5.797596      3.154907    -1.240133
   -4.335008      2.883335    -1.400737
   -2.562647      2.692326    -1.535873
   -0.739870      2.630735    -1.679585
    0.865910      2.702721    -1.704013
    2.332916      2.665039    -1.573815
    3.649713      2.432449    -1.324073
    5.073059      2.036396    -1.064716
    6.464180      1.600582    -0.822511
    7.578793      1.394760    -0.530409
    8.189504      1.051462    -0.419182
    8.032798      0.640597    -0.503902
    7.747713      0.451146    -0.728955
    7.151035      0.526251    -1.198553
    6.174158      0.867989    -1.670749
    5.217551      1.224540    -2.092270
    3.934538      1.531455    -2.588375
    2.583437      1.714149    -3.061611
    1.206869      1.702714    -3.519514
   -0.272091      1.136182    -4.033291
   -1.751831      0.231031    -4.582931
   -2.972733     -0.488049    -4.991977
   -3.436873     -1.146577    -5.087092
   -3.244045     -1.605780    -4.918172
   -2.639571     -1.980782    -4.709751
   -2.034837     -2.366700    -4.705853
   -1.482598     -2.278082    -4.906218
   -0.670483     -1.634366    -5.155440
    0.274430     -1.041067    -5.345930
    1.224540     -0.932958    -5.461315
    2.069660     -1.029113    -5.487563
    2.684010     -0.993250    -5.252634
    3.179335     -0.728955    -4.711830
    3.798362     -0.395533    -3.982615
    4.456891     -0.423340    -3.160624
    4.897122     -0.802500    -2.391648
    4.997954     -1.161650    -1.776259
    4.668171     -1.337327    -1.359676
    4.208188     -1.252347    -1.196734
    4.043686     -0.965443    -1.289510
    4.248729     -0.633320    -1.434781
    4.535114     -0.347196    -1.434781
    4.556423     -0.300158    -1.459469
    4.282513     -0.661647    -1.796010
    3.927781     -1.254166    -2.375276
    3.766397     -1.778858    -2.743002
    4.057719     -2.196480    -2.629435
    5.039015     -2.592533    -2.187645
    6.508619     -2.965716    -1.583171
    7.973546     -3.239367    -0.903073
    8.923137     -3.573049    -0.273391
    8.791899     -4.301484     0.036123
    7.564240     -5.302790    -0.284046
    5.708198     -6.120883    -1.212586
    3.649453     -6.408307    -2.441804
    1.670229     -5.974832    -3.593839
   -0.078223     -4.966249    -4.415570
   -1.550946     -3.872427    -4.897902
   -2.725330     -3.087859    -5.039275
   -3.672842     -2.471170    -4.762766
   -4.405695     -1.589408    -4.072013
   -4.697277     -0.467779    -3.175957
   -4.443897      0.501303    -2.419715
   -3.800441      1.265081    -1.991957
   -3.258858      1.995855    -1.843827
   -3.066549      2.746120    -1.844087
   -2.919458      3.541084    -1.935564
   -2.624498      4.260164    -2.091230
   -2.186605      4.733919    -2.277042
   -1.673868      5.027840    -2.573042
   -1.232077      5.276802    -3.064729
   -1.110714      5.419215    -3.748986
   -1.396059      5.323061    -4.492754
   -1.854482      4.964690    -5.030959
   -2.167894      4.324613    -5.132831
   -2.284579      3.522633    -4.806425
   -2.183227      2.787960    -4.240153
   -1.819659      1.996375    -3.673621
   -1.401777      0.916846    -3.397892
   -0.888000     -0.342778    -3.437913
   -0.188931     -1.439459    -3.590461
    0.809777     -2.040034    -3.656729
    2.191543     -2.162956    -3.484171
    3.831886     -1.995076    -3.041081
    5.567865     -1.756509    -2.351627
    7.051243     -1.617994    -1.576154
    8.126094     -1.522619    -0.937116
    8.555671     -1.712589    -0.566272
    8.300731     -2.498457    -0.471157
    7.795790     -3.812655    -0.519754
    7.326712     -5.553052    -0.541844
    6.963404     -7.445736    -0.437113
    6.671302     -8.925735    -0.245584
    6.361789     -9.732134    -0.123961
    5.790060     -9.973819    -0.198546
    4.956374     -9.594919    -0.412425
    3.911928     -8.629995    -0.559775
    2.765871     -7.333209    -0.537945
    1.691799     -5.857887    -0.459982
    0.422820     -4.443117    -0.300678
   -1.204790     -3.381520    -0.003898
   -3.008336     -2.729488     0.187111
   -4.598783     -2.238840     0.097454
   -5.789540     -1.622152    -0.220116
   -6.525771     -0.811596    -0.571729
   -6.734712      0.054574    -0.776512
   -6.516156      0.682177    -0.850577
   -6.027847      0.924902    -0.888519
   -5.512771      1.015599    -1.031452
   -5.123995      1.239094    -1.370851
   -5.053048      1.521320    -1.786135
   -5.202478      1.647100    -2.109681
   -5.151542      1.668150    -2.327978
   -4.687921      1.646061    -2.595132
   -3.853196      1.401257    -3.006777
   -2.793938      0.926462    -3.373983
   -1.545748      0.398132    -3.568371
   -0.212579     -0.121882    -3.648413
    1.144498     -0.629162    -3.556417
    2.427251     -1.061338    -3.289523
    3.433755     -1.240393    -2.894770
    4.198053     -1.259364    -2.313425
    4.701435     -1.396059    -1.537432
    4.875293     -1.748193    -0.634620
    4.922330     -2.137228     0.378381
    4.888286     -2.263789     1.421787
    4.635426     -1.905418     2.327978
    4.141400     -0.962584     3.063170
    3.450127      0.063930     3.624505
    2.881776      0.926981     4.030692
    2.390349      1.525478     4.223001
    2.081615      1.589668     4.138021
    2.215451      1.351360     3.912708
    2.356305      0.770535     3.602415
