STRONG GROUND MOTION RECORDS OF TURKIYE
PLACE                   : MUðLA KAVAKLIDERE ILCE HASTANESI
EARTHQUAKE DATE         : 2017/07/20 22:31:09 (GMT)
EPICENTER COORDINATES   : 36.91980N-27.44350E
EARTHQUAKE DEPTH (km)   : 19.44
EARTHQUAKE MAGNITUDE    : 6.5 Mw
STATION ID              : 4818
STATION COORDINATES     : 37.44400N-28.35750E
STATION ALTITUDE (m)    : 897
RECORDER TYPE           : GeoSig gmsplus
RECORDER SERIAL NO      : 101912
RECORD TIME             : 20/07/2017 22:30:56.000000 (GMT)
NUMBER OF DATA          : 15450
SAMPLING INTERVAL (sec) : 0.01
RAW PGA VALUES (gal)    : (N-S) 12.158345 (E-W) 13.207209 (U-D) 8.063983
Copyright EARTHQUAKE DEPARTMENT
DISASTER AND EMERGENCY MANAGEMENT PRESIDENCY
       N-S          E-W          U-D
[...]
    1.884368      1.261183     2.866703
    2.670496     -0.371364     2.548094
    3.726116     -1.768203     1.921271
    4.896343     -2.723251     1.390342
    5.699362     -3.393734     1.027294
    5.535380     -3.917126     0.546781
    4.283553     -4.095142    -0.084200
    2.732087     -3.686355    -0.480253
    1.591487     -2.836557    -0.131758
    0.723498     -2.114099     1.012221
   -0.195687     -1.731041     2.235462
   -1.456351     -1.399438     2.614103
   -3.131518     -0.712843     2.069401
   -5.151802      0.165282     1.280674
   -7.447295      1.120850     0.702707
   -9.552819      2.437127     0.263255
  -10.697057      3.724817    -0.167621
  -10.422887      4.474562    -0.598237
   -8.797096      4.471704    -1.096941
   -6.261996      3.752624    -1.564979
   -3.483651      2.841755    -1.818879
   -0.914507      2.256772    -1.896322
    1.076930      2.271065    -1.858640
    2.546795      2.677513    -1.510405
    3.905951      2.597990    -0.508319
    5.112300      1.410872     0.937636
    6.002899     -0.813675     2.088112
    6.409346     -3.364887     2.618781
    6.231331     -5.089171     2.576940
    5.308248     -5.273164     2.005471
    3.739890     -3.681677     1.237534
    2.182187     -0.633320     0.816014
    0.878124      2.772108     0.968302
   -0.544702      5.059805     1.421527
   -2.345390      5.384651     1.855522
   -3.893737      4.233136     1.926208
   -4.363595      2.401004     1.267160
   -3.557196      0.301977     0.069387
   -1.773661     -1.632287    -1.252347
    0.349535     -2.895290    -2.373976
    2.225587     -3.490928    -3.008856
    3.294721     -3.855795    -3.230791
    3.263535     -4.076431    -3.321748
    2.178029     -3.787967    -3.455325
    0.478693     -2.739104    -3.605014
   -1.062117     -1.039768    -3.668164
   -1.867996      0.999747    -3.647893
   -1.677766      2.737025    -3.513797
   -0.822251      3.864631    -3.169720
    0.087838      4.654397    -2.728189
    0.602915      5.116718    -2.353966
    0.647613      5.194162    -1.841229
    0.594599      5.137508    -1.051462
    0.657489      4.809804    -0.208941
    0.788467      3.617488     0.493506
    0.863311      1.678286     0.964404
    0.809777     -0.214658     1.262223
    0.852137     -1.532235     1.565239
    1.112793     -2.469611     2.059005
    1.397359     -3.344617     2.813948
    1.424386     -4.010162     3.453765
    0.916066     -4.168427     3.452986
    0.088098     -3.594619     2.892171
   -0.586542     -2.560048     2.331097
   -0.994289     -1.555104     1.973766
   -1.337067     -1.055360     1.711550
   -1.586549     -1.386964     1.556143
   -1.261703     -2.355525     1.396319
   -0.162943     -3.315771     0.957647
    1.377348     -3.535367    -0.032225
    2.649446     -2.721172    -1.613576
    3.199866     -0.788987    -3.269253
    2.906204      1.711290    -4.339946
    1.763785      3.419721    -4.581632
    0.174897      3.456624    -4.156473
   -1.557183      2.307708    -3.460782
   -3.054854      1.025215    -2.875539
   -3.908290      0.198546    -2.563167
   -3.958446     -0.016112    -2.428551
   -2.946485      0.299638    -2.146324
   -0.769496      1.032231    -1.402556
    2.072519      1.563160    -0.264555
    4.611257      1.166328     0.915027
    6.443130     -0.112267     1.847466
    7.621413     -1.632287     2.184266
    7.917413     -2.675953     1.653857
    7.335808     -2.943367     0.579266
    6.358411     -2.503395    -0.346156
    5.372177     -1.619294    -0.643975
    4.389842     -0.668144    -0.382279
    3.215718     -0.168140     0.061591
    1.922570     -0.101872     0.538205
    0.896056      0.014033     1.201151
    0.373443      0.561074     2.145804
    0.476614      1.688941     2.937390
    0.800421      2.871641     3.098773
    0.640597      3.695451     2.698823
   -0.325886      4.036150     1.961552
   -2.151782      3.741449     1.187378
   -4.400757      2.906464     0.733373
   -6.166881      1.843827     0.690233
   -6.731074      0.952709     0.863571
   -6.115166      0.464920     1.010922
   -4.754969      0.401250     0.965963
   -3.214678      0.549380     0.717520
   -1.917632      0.691273     0.429057
   -0.925162      0.606033     0.252341
   -0.324067      0.310553     0.273910
   -0.080562     -0.030146     0.416323
    0.078223     -0.448548     0.447248
    0.118764     -0.695951     0.316530
   -0.434774     -0.260657     0.175677
   -1.885408      1.145018     0.162683
   -4.081888      3.073825     0.469858
   -6.159605      4.805126     1.198293
   -7.080349      5.687668     1.994296
   -6.606333      5.159598     2.362022
   -5.195981      3.305895     2.116438
   -3.650492      0.803800     1.393980
   -2.474809     -1.524179     0.391635
   -1.754690     -3.253920    -0.704527
   -1.273917     -4.160371    -1.523139
   -0.859153     -4.406994    -1.716488
   -0.541844     -4.649979    -1.324853
   -0.164242     -5.100346    -0.790806
    0.621106     -5.419475    -0.492987
    2.117218     -5.249515    -0.523392
    3.867490     -4.496912    -0.873966
    5.219889     -3.080062    -1.273397
    5.960539     -1.239613    -1.354479
    6.001859      0.296260    -1.079529
    5.470151      1.148396    -0.641376
    4.874513      1.639824    -0.277029
    4.656736      2.084214    -0.217777
    4.280954      2.410619    -0.432435
    3.175957      2.589674    -0.665805
    1.565499      2.715455    -0.735972
   -0.077703      3.004438    -0.429577
   -1.324593      3.406468     0.207122
   -1.916073      3.673102     0.895536
   -1.728702      3.529649     1.733899
   -0.928281      2.515349     2.818366
   -0.055614      0.454525     3.684796
    0.155666     -2.327978     3.620346
   -0.473236     -4.776020     2.520807
   -1.468825     -5.636732     1.022356
   -2.334215     -4.600083    -0.213099
   -2.789520     -2.306668    -0.802500
   -3.010935      0.459982    -0.803020
   -3.248982      2.751058    -0.629942
   -3.607613      3.540824    -0.592260
   -4.014580      2.804073    -0.772614
   -3.790046      1.473243    -1.134363
   -2.219090      0.575628    -1.472983
    0.701928      0.402549    -1.594865
    4.318116      0.267933    -1.660614
    7.433782     -0.769496    -1.913474
    9.113107     -2.941548    -2.259371
    9.402870     -5.508093    -2.352926
    9.057493     -7.543190    -1.964670
    8.754736     -8.681971    -1.122149
    8.513830     -8.879217     0.046258
    8.071780     -7.940542     1.158272
    6.928321     -6.006537     1.609938
    4.881789     -3.666864     1.358897
    2.456357     -1.409833     1.014040
    0.108369      0.714662     0.802500
   -2.087592      2.822004     0.540804
   -4.286931      4.588908     0.143972
   -6.341778      5.621659    -0.407487
   -8.108422      6.028627    -0.939195
   -9.540085      6.092037    -1.346423
  -10.337647      5.834239    -1.694398
  -10.411192      5.353726    -1.956354
   -9.820232      4.932465    -1.969868
   -8.600889      4.689480    -1.542630
   -6.672862      4.393221    -0.685036
   -4.138021      3.577467     0.429317
   -1.323294      2.049910     1.525218
    1.375269     -0.045478     2.313425
    3.402829     -2.452719     2.586816
    4.375809     -4.800448     2.298092
    4.236255     -6.350614     1.839409
    3.512238     -6.342818     1.660874
    2.791859     -4.768483     1.760927
    1.911135     -2.635413     1.934524
    0.457124     -1.214665     1.815501
   -1.305102     -0.928281     1.080569
   -2.567845     -1.578493    -0.114606
   -2.894510     -2.805632    -1.278595
   -2.480266     -4.203770    -1.965450
   -1.869555     -5.023942    -2.071999
   -1.360196     -4.719366    -1.758588
   -1.053541     -3.697270    -1.201931
   -1.322254     -2.568364    -0.402290
   -2.037955     -1.664772     0.624484
   -2.251834     -0.778591     1.517682
   -1.269759      0.014293     1.897622
    0.935297      0.203744     1.725843
    3.642436     -0.354992     1.231037
    5.938709     -1.548867     0.608112
    7.502389     -2.693105    -0.057433
    8.312686     -3.131258    -0.656449
    8.723291     -2.898408    -1.079009
    8.982649     -2.239880    -1.246630
    8.989145     -1.261963    -1.214405
    8.359983     -0.200105    -1.150995
    6.440272      0.556397    -1.127866
    3.115665      1.224021    -1.014300
   -0.862272      2.526004    -0.722978
   -4.159331      4.554604    -0.263255
   -5.988086      6.641936     0.539245
   -6.288244      8.206396     1.621892
   -5.523426      8.864924     2.360463
   -4.642703      8.362322     2.302250
   -4.109435      6.665845     1.660094
   -4.000806      4.430383     0.821211
   -4.433242      2.762493     0.093556
   -5.250815      2.069920    -0.224014
   -5.921557      1.987279    -0.178016
   -6.240426      1.843048    -0.150209
   -6.144012      1.451933    -0.328744
   -5.029659      0.849018    -0.581085
   -2.655943     -0.066009    -0.797043
    0.233110     -0.929840    -0.892677
    2.738064     -1.373710    -0.726356
    4.515883     -1.388523    -0.429837
    5.453519     -1.263002    -0.266634
    5.442344     -1.392421    -0.199845
    4.582671     -1.996375    -0.125001
    3.276529     -2.665039    -0.058992
    1.978963     -2.862025     0.049637
    1.185559     -2.985207     0.219076
    1.162170     -3.438433     0.363828
    1.640344     -3.704027     0.528590
    2.611764     -3.116445     0.795483
    3.868789     -1.988579     1.086806
    4.646601     -1.129166     1.324333
    4.564220     -0.877345     1.353180
    3.787967     -1.232077     0.892158
    2.763272     -2.024702    -0.045478
    1.889306     -2.979750    -0.951929
    1.573295     -3.809277    -1.261183
    2.058486     -4.387244    -0.912168
    2.996902     -4.849305    -0.291322
    3.925702     -5.486003     0.164502
    4.617235     -6.243545     0.321988
    4.798889     -6.682217     0.522093
    4.531995     -6.351134     1.125008
    4.344104     -5.160118     2.080575
    4.332409     -3.641397     3.128399
    4.068374     -2.535880     4.031732
    2.968575     -2.585516     4.402576
    0.786128     -3.749765     3.815774
   -1.891905     -4.881789     2.523146
   -4.141920     -5.040834     1.252607
   -5.391928     -4.130225     0.414504
   -5.774727     -2.530682    -0.104730
   -5.994323     -0.752864    -0.813415
   -6.735752      1.115652    -1.922830
   -7.944180      3.185572    -3.044459
   -9.114146      5.156220    -3.636719
  -10.071793      6.760180    -3.411146
  -10.838950      7.665592    -2.536659
  -11.279441      7.517982    -1.524958
  -10.913015      6.317350    -1.082907
   -9.193669      4.587609    -1.462068
   -5.888553      3.278868    -2.108382
   -1.526777      2.992484    -2.281200
    2.772888      3.543683    -1.595125
    6.081122      3.966243    -0.454005
    7.929887      3.589941     0.338880
    8.069701      2.671276     0.360449
    6.269793      2.024962    -0.389036
    2.919198      2.302250    -1.650219
   -0.985973      3.416343    -3.039781
   -4.352940      4.990678    -4.147637
   -6.505241      6.236008    -4.763286
   -7.394540      6.398691    -4.956894
   -7.181441      5.565526    -4.783036
   -6.115945      4.473263    -4.197014
   -4.567338      3.811616    -3.299139
   -3.092276      3.590721    -2.258851
   -1.963631      3.475335    -1.167108
   -1.054841      3.060052    -0.150469
   -0.198286      1.974805     0.642936
    0.711803      0.170479     1.001826
    1.490135     -1.998454     0.872927
    1.909056     -4.113333     0.470377
    1.962591     -5.841255    -0.001040
    1.836031     -6.923643    -0.256239
    2.062124     -7.008103     0.089658
    2.888533     -5.606586     1.186079
    3.532508     -3.072786     2.712856
    3.040041     -0.530929     4.104237
    1.167367      1.037169     4.927788
   -1.167887      1.314718     5.039535
   -2.401004      0.404628     4.600603
   -1.606040     -1.482338     3.881003
    1.188937     -3.545242     3.149449
    4.951956     -4.752631     2.569924
    8.396106     -4.480279     2.041074
   10.482399     -2.872420     1.539251
   10.806985     -0.552499     1.306662
    9.811396      1.765344     1.570956
    7.911955      3.316810     2.280940
    5.744581      3.801741     2.978970
    4.032771      3.462861     3.207142
    2.986506      2.877618     2.956361
    2.318882      2.494299     2.645808
    1.335248      2.449081     2.715195
   -0.491168      2.684270     3.020550
   -2.988326      3.048097     3.128399
   -5.343851      3.553038     2.997161
   -7.011222      4.085266     2.755216
   -8.052549      4.081628     2.415297
   -8.625578      3.007816     2.041334
   -8.901827      1.031972     1.797049
   -8.974852     -1.173605     1.824337
   -8.741223     -2.890092     2.336034
   -8.070740     -3.886720     3.575648
   -6.775513     -4.364374     5.349828
   -4.887767     -4.737818     7.066835
   -2.801474     -5.711577     8.063983
   -0.855515     -7.601922     7.845427
    0.854995    -10.020597     6.457424
    2.534840    -12.141453     4.353200
    4.055121    -13.207209     2.000533
    4.825916    -12.758921    -0.278848
    4.624511    -10.824397    -2.282500
    3.876845     -7.854782    -3.981316
    3.141133     -4.550966    -5.582418
    2.798875     -1.651518    -7.016679
    3.161144      0.597197    -7.864658
    3.908030      2.202198    -7.915594
    4.424926      3.462081    -7.245631
    4.440518      4.600862    -6.025768
    3.978977      5.607886    -4.417129
    3.034324      6.465480    -2.653864
    1.395539      6.943654    -1.088365
   -0.676200      6.888300    -0.109408
   -2.627616      6.272911     0.038722
   -3.973519      5.208975    -0.381499
   -4.456891      3.897115    -0.789766
   -4.247949      2.673615    -0.840442
   -3.720919      1.747673    -0.567311
   -3.186352      1.107076    -0.143972
   -2.730008      0.802240     0.292622
   -2.289256      0.821731     0.538725
   -1.727662      0.949331     0.501303
   -0.886181      0.785608     0.371104
    0.391635      0.250781     0.253380
    1.808744     -0.292881     0.027807
    2.777825     -0.321468    -0.449327
    2.939469      0.286384    -1.170746
    2.222468      1.339926    -1.769502
    1.079009      2.845913    -1.802767
    0.271052      4.594625    -1.173085
    0.342778      5.769269    -0.122922
    1.091743      5.372697     0.863571
    1.711290      3.172319     1.378647
    1.741696     -0.171779     1.277295
    1.425945     -3.519514     0.826929
    1.183740     -5.945726     0.579266
    1.101619     -7.085546     0.781190
    0.863052     -7.111794     1.293668
    0.232070     -6.681178     1.619294
   -0.737791     -6.290583     1.142679
   -1.794970     -5.890372    -0.300158
   -2.179329     -4.855542    -2.248196
   -1.188937     -2.731567    -3.834485
    0.970641      0.071466    -4.359177
    3.176736      2.616182    -3.806159
    4.552006      4.198573    -2.768730
    5.113080      4.736778    -1.787434
    5.070980      4.458450    -0.962325
    4.948578      3.626064    -0.284565
    4.999774      2.596951     0.132537
    4.770042      1.778598     0.279108
    3.928561      1.239873     0.234669
    2.591493      0.967002     0.249222
    1.110454      0.940495     0.865390
   -0.411905      0.996628     2.257551
   -2.159838      1.120590     3.941035
   -4.252367      1.311599     5.097227
   -6.403369      1.279374     4.966509
   -8.289037      0.583684     3.481312
   -9.733433     -0.631761     1.199592
  -10.596745     -1.641123    -1.320435
  -10.681205     -1.768463    -3.529649
   -9.471997     -0.916586    -4.932985
   -7.005764      0.503122    -5.331896
   -3.921024      2.048610    -4.757828
   -0.742988      3.196487    -3.498724
    2.081875      3.588382    -2.103444
    3.982615      3.000540    -1.131504
    4.507567      1.444136    -0.649173
    3.933238     -0.601355    -0.268713
    2.826682     -2.632814     0.347975
    1.536913     -4.310580     1.464927
    0.310813     -5.428831     3.110988
   -0.857854     -5.783043     4.952996
   -2.214412     -5.327219     6.472497
   -3.770815     -4.437140     7.174424
   -5.237041     -3.568891     6.990431
   -6.117764     -2.843314     6.218857
   -6.002379     -2.166854     5.221709
   -4.819419     -1.466226     4.111514
   -2.692326     -0.699329     2.697783
   -0.289763      0.267673     0.997148
    1.734159      1.644242    -0.878124
    3.204803      3.416863    -2.663999
    4.055900      5.354766    -3.816294
    4.357358      6.960546    -4.117231
    4.102678      7.758628    -3.832146
    3.242745      7.780198    -3.386977
    1.919971      7.449374    -2.903606
    0.527031      7.384665    -2.091750
   -0.792365      7.792152    -0.654630
   -2.200898      8.190284     1.095901
   -3.758341      7.758628     2.273144
   -5.322801      6.099573     2.350068
   -6.267194      3.672582     1.443357
   -5.981069      1.135922     0.023129
   -4.430123     -1.261443    -1.315497
   -2.193362     -3.626064    -2.146064
   -0.029366     -5.707679    -2.457137
    1.621632     -7.164809    -2.454538
    2.801474     -8.028120    -1.982342
    3.904652     -8.170013    -0.905931
    5.025761     -7.384925     0.347975
    5.994063     -5.739903     1.394240
    6.752384     -3.661407     2.088891
    7.190277     -1.919452     2.340452
    7.007064     -1.149696     2.230264
    6.135956     -1.108635     1.894763
    4.866976     -0.904112     1.387223
    3.623205      0.002339     0.785868
    2.614622      1.353439     0.129679
    1.603701      2.573822    -0.689454
    0.322507      3.156206    -1.653857
   -1.151515      2.867743    -2.588375
   -2.429330      2.149183    -3.204024
   -3.348775      1.549906    -3.098773
   -3.828248      1.314718    -2.084473
   -3.922583      1.500790    -0.340439
   -3.965463      1.887227     1.642942
   -3.991971      2.244558     3.315511
   -3.853716      2.574861     4.276276
   -3.518215      2.934531     4.357618
   -3.046278      3.227932     3.816813
   -2.313945      3.465980     3.076424
   -1.306921      3.637498     2.288997
   -0.329784      3.406468     1.545489
    0.362788      2.646847     1.077450
    0.822251      1.558742     0.910609
    1.095122      0.158265     0.800161
    1.071733     -1.420748     0.535606
    0.796523     -2.674654     0.094855
    0.110448     -3.204543    -0.403589
   -0.996109     -3.030686    -0.886960
   -2.375016     -2.500536    -1.246370
   -3.800961     -1.723764    -1.384885
   -4.636466     -0.791325    -1.394760
   -4.610478     -0.006497    -1.278335
   -3.895036      0.370065    -0.984674
   -2.800954      0.286904    -0.661387
   -1.570697      0.214658    -0.471937
