STRONG GROUND MOTION RECORDS OF TURKIYE
PLACE                   : MUðLA ULA HUKUMET KONAGI
EARTHQUAKE DATE         : 2017/07/20 22:31:09 (GMT)
EPICENTER COORDINATES   : 36.91980N-27.44350E
EARTHQUAKE DEPTH (km)   : 19.44
EARTHQUAKE MAGNITUDE    : 6.5 Mw
STATION ID              : 4821
STATION COORDINATES     : 37.10550N-28.41390E
STATION ALTITUDE (m)    : 615
RECORDER TYPE           : GeoSig gmsplus
RECORDER SERIAL NO      : 101915
RECORD TIME             : 20/07/2017 22:30:59.000000 (GMT)
NUMBER OF DATA          : 15196
SAMPLING INTERVAL (sec) : 0.01
RAW PGA VALUES (gal)    : (N-S) 45.834506 (E-W) 46.493295 (U-D) 25.018879
Copyright EARTHQUAKE DEPARTMENT
DISASTER AND EMERGENCY MANAGEMENT PRESIDENCY
       N-S          E-W          U-D
[...]
   20.998321    -14.581179     6.099573
   19.772742    -12.575188     4.838910
   17.103545    -11.441865     4.198573
   13.118591    -11.756835     3.494046
    8.235242    -13.309081     2.502356
    2.844094    -15.862892     1.407234
   -2.789780    -18.728296     0.410086
   -8.355565    -21.215579    -0.488829
  -13.425766    -22.702855    -1.438679
  -17.214512    -22.460389    -2.207915
  -19.307822    -21.073426    -3.238327
  -19.427885    -18.684117    -4.383085
  -17.723352    -15.012834    -5.211054
  -14.895630    -11.097528    -6.095935
  -10.597004     -7.093603    -6.782790
   -4.606580     -3.143472    -7.170006
    1.781717     -0.060811    -7.181701
    6.753683      1.942061    -6.074625
    9.972520      2.924136    -3.919465
   11.667698      3.389576    -2.051989
   11.479547      3.621646    -0.795743
   10.173145      3.578766     0.526511
    8.750059      3.426998     1.359157
    7.492254      3.395813     1.802247
    6.161684      3.739890     2.540817
    4.167647      4.664013     3.118784
    1.145018      6.035643     3.439472
   -2.825123      7.831653     3.707145
   -7.159092      9.894817     3.902053
  -11.154700     11.449141     3.952729
  -14.192403     12.043480     3.277569
  -15.990492     11.529703     1.400477
  -16.425786     10.213946    -1.311079
  -15.717361      8.730568    -4.461049
  -14.468912      7.547348    -7.751611
  -12.720979      7.125048   -10.784636
  -10.533594      7.416370   -13.218384
   -8.589974      7.776040   -14.693705
   -7.031232      7.815021   -15.101193
   -5.634913      7.491474   -14.473590
   -4.561361      6.756022   -13.062458
   -3.765878      5.929873   -11.028400
   -3.329024      4.914014    -8.868303
   -3.204283      3.650232    -7.079309
   -3.385937      2.094868    -5.356325
   -3.888799     -0.347456    -3.937137
   -4.306682     -3.202464    -2.951163
   -4.273937     -6.045519    -2.220649
   -2.983128     -8.852190    -2.000793
   -0.328225    -11.104544    -1.885668
    3.367746    -12.632621    -1.371371
    7.852184    -13.057520    -0.525991
   12.418742    -11.757615     0.805619
   16.609259     -9.080622     2.499237
   19.543790     -5.613083     3.766137
   20.454659     -1.655157     4.503668
   19.611098      1.935304     4.999514
   17.412539      4.332409     4.955075
   13.658096      5.293435     4.614896
    8.616742      5.027321     4.388543
    3.109948      3.864891     4.303823
   -2.605267      2.104744     4.464687
   -7.830874      0.226093     4.704813
  -12.007877     -1.987279     5.073839
  -15.112107     -4.903619     5.448841
  -16.669290     -8.078536     5.940788
  -17.040915    -11.265408     6.634660
  -16.656556    -14.093909     6.901294
  -15.576768    -15.806239     6.961325
  -14.537000    -16.231398     6.866470
  -13.993337    -15.447609     6.440272
  -14.053628    -13.314798     6.139334
  -14.456958    -10.377148     6.140634
  -14.985807     -7.362575     6.393494
  -15.833266     -4.432462     6.926762
  -16.539092     -1.760667     7.508106
  -16.903180      0.580825     7.681704
  -16.886548      2.345650     7.286951
  -15.928641      3.307455     6.365167
  -14.100146      3.018471     5.064483
  -11.035417      1.361236     3.135416
   -6.889339     -1.033791     0.217257
   -2.323820     -3.801221    -3.159325
    2.578500     -6.639857    -6.409606
    6.731594     -9.161704    -9.430417
    9.936917    -10.787494   -11.587915
   12.057253    -11.914841   -13.082468
   12.386777    -12.660428   -14.409140
   11.422114    -12.619887   -14.829621
    9.677040    -12.415884   -14.650046
    7.397139    -11.509692   -13.846247
    4.534854     -9.560875   -11.744361
    1.438939     -7.071513    -8.781244
   -1.689720     -4.404395    -5.799155
   -4.739117     -1.998194    -3.419721
   -6.892978      0.313152    -1.559002
   -8.093869      1.745074    -0.542103
   -7.985500      2.363581    -0.141633
   -6.265634      2.838636     0.172039
   -3.509639      2.572782    -0.100832
    0.062111      2.304589    -0.557436
    3.934798      2.728449    -1.096941
    7.941581      4.393481    -2.032238
   12.158605      7.816321    -2.715715
   16.340286     12.094156    -3.528870
   20.361103     17.133691    -4.750811
   23.741063     22.696098    -5.625038
   26.406362     27.877006    -6.268753
   28.160012     32.251255    -6.735232
   28.562042     35.564947    -6.646354
   27.733034     37.514544    -5.844374
   25.792272     37.511426    -4.680645
   22.834872     35.957881    -3.566032
   19.147218     33.249703    -2.308487
   14.956441     29.724991    -1.110714
   10.375329     26.521227     0.170999
    6.036683     23.982749     1.927508
    2.089671     21.892558     3.667124
   -1.538992     20.237661     4.900760
   -4.319416     19.216865     5.552532
   -6.135696     18.493627     5.535380
   -6.993030     17.923977     5.299152
   -6.899994     17.865244     5.553831
   -5.987046     17.789620     5.954822
   -4.649200     17.335615     6.338920
   -3.046798     16.548188     6.837104
   -1.334728     14.965277     7.255766
   -0.231550     12.461362     7.485497
    0.042620      9.016952     7.170266
   -0.252860      4.557723     6.399211
   -0.876305     -0.973759     5.267447
   -1.784315     -7.709771     3.652571
   -2.651525    -14.636792     2.118517
   -3.118784    -21.244425     0.679318
   -3.175177    -27.404030    -0.709464
   -3.353193    -32.333896    -1.301724
   -3.998727    -35.754138    -1.580052
   -4.776539    -37.240634    -1.627090
   -6.459503    -37.716989    -0.775473
   -9.110508    -37.835492     0.103951
  -11.855329    -36.673322     1.096421
  -14.001653    -34.766865     2.271065
  -14.647447    -32.291277     2.254953
  -14.663560    -28.734340     1.572256
  -14.359764    -24.517316     0.925162
  -13.220463    -19.925809    -0.096934
  -12.125081    -15.719180    -1.057180
  -10.969928    -12.269833    -1.543929
   -9.905732     -9.030206    -1.180361
   -9.213159     -6.403889     0.528590
   -8.682231     -4.164529     3.341758
   -9.323607     -1.706093     6.374003
  -10.956674      0.666065     9.230831
  -13.152635      2.926995    12.081682
  -15.397192      4.655956    14.078317
  -16.783117      6.212879    14.633414
  -17.888633      8.210294    14.701762
  -18.272212      9.861553    14.681751
  -17.873560     11.118318    13.924210
  -16.905778     12.434855    12.606373
  -14.617561     13.544010    10.761247
  -11.406261     14.844694     8.258111
   -6.851137     16.860560     5.893750
   -0.812635     18.409167     2.904905
    5.857108     19.659175    -0.812895
   12.698110     21.267554    -3.908550
   19.291449     22.485078    -6.929620
   25.124389     24.108270    -9.446009
   29.308148     25.877512   -10.674708
   31.765026     27.397273   -11.299192
   32.421735     29.206796   -11.172892
   31.496833     30.572970   -10.737338
   29.534241     31.275417   -10.136762
   26.546436     30.471618    -9.328545
   23.526145     27.670144    -9.193149
   20.890213     23.197401    -9.216538
   18.289883     16.570017    -9.628183
   15.798702      8.507593   -10.531256
   13.146398      0.202964   -11.077517
   10.142220     -8.520067   -11.758914
    6.964963    -17.227506   -11.894830
    3.776792    -24.428958   -11.074139
    0.861492    -30.176917   -10.632088
   -1.690240    -33.835466   -10.183280
   -3.465720    -34.222682    -9.267734
   -3.962604    -32.876520    -9.307235
   -4.235995    -29.886635   -10.111814
   -4.491714    -24.922204   -10.317117
   -4.439739    -19.834592    -9.834265
   -4.396599    -14.982689    -8.933012
   -3.496125    -10.618314    -7.545529
   -1.916853     -6.952489    -5.954302
   -0.222974     -4.397119    -5.035637
    1.438939     -4.254706    -4.968848
    2.235462     -6.182994    -5.656483
    2.114099    -10.232917    -6.639078
    1.383325    -16.377449    -7.563980
    0.391375    -22.953896    -8.399744
   -0.249482    -28.936264    -8.655723
   -0.672302    -34.455272    -8.771628
   -0.957647    -37.972188    -7.997195
   -0.795483    -38.430871    -5.767450
   -0.629162    -37.562881    -3.454285
   -1.184519    -34.288431    -0.529369
   -2.716494    -27.553459     2.923356
   -4.802267    -19.383446     5.604767
   -6.839703    -11.057506     8.162477
   -8.473290     -3.476635    10.737078
   -9.502662      3.442331    12.768017
  -10.349342     10.425486    14.339753
  -11.621440     17.177870    15.349115
  -13.221242     23.279262    15.761800
  -14.994383     28.327373    15.466060
  -16.998035     31.597665    14.549993
  -18.959846     32.852611    13.830654
  -20.770149     32.245538    13.108976
  -22.175304     30.197188    12.035424
  -23.157120     27.110109    11.324400
  -23.997302     22.750152    10.331410
  -24.163363     18.320289     9.109209
  -23.861906     14.435907     8.324120
  -22.967929     10.486557     7.207169
  -21.421921      7.533574     5.705600
  -20.287818      6.015633     3.850338
  -18.378242      5.814228     2.210254
  -15.241526      6.359450     1.063936
  -11.786981      7.535913     0.071466
   -8.065023      9.743568    -0.300158
   -4.312659     11.940828    -0.526511
   -0.398911     14.118078    -0.475055
    3.122422     15.626664     0.118764
    6.574368     16.438260     0.559775
   10.256046     17.764152     1.299385
   13.390162     18.578347     2.568364
   16.271679     18.602256     4.183760
   18.732714     17.751678     5.663759
   20.840056     16.477501     6.943134
   22.439339     15.531289     8.655203
   23.509773     13.844947     9.512798
   24.681038     12.182774     9.156506
   25.497312     10.385465     7.953536
   26.277723      7.667671     5.659601
   26.857248      4.863598     3.387757
   27.044620      1.687641     1.385144
   27.339320     -1.126307     0.028067
   27.086200     -3.729755    -0.604474
   26.250955     -6.706386    -1.427504
   24.490808     -9.538266    -2.313165
   21.859814    -12.390935    -3.466759
   19.508966    -14.432529    -4.354759
   17.458797    -16.100160    -4.930906
   15.309094    -17.651625    -5.835798
   12.894317    -18.335622    -6.157786
   10.336608    -18.814575    -6.464700
    6.971201    -18.930220    -6.897136
    2.819925    -18.976738    -6.725357
   -1.221682    -19.054442    -6.789547
   -5.572283    -18.277409    -6.878944
   -9.788787    -16.784416    -6.671302
  -13.612357    -14.674475    -6.750825
  -17.051569    -11.950704    -7.311120
  -19.136043     -8.931193    -7.975885
  -19.606160     -6.009916    -8.635973
  -18.773255     -3.779911    -9.587122
  -16.845487     -2.892691   -10.074652
  -13.855342     -2.848772    -9.495906
  -10.624292     -3.242225    -8.444703
   -7.001086     -4.430903    -7.059559
   -3.449867     -6.051236    -5.256792
   -1.227659     -7.763306    -3.844880
    0.808997     -9.415084    -2.852670
    2.530162    -11.196541    -1.666591
    3.119044    -12.670303    -0.557176
    2.299652    -13.612097     0.586542
    0.369805    -14.430710     1.892684
   -1.890345    -15.045579     3.079023
   -4.793431    -15.654211     4.129186
   -7.657276    -15.424739     4.869055
  -10.168987    -14.363402     5.064483
  -11.957720    -13.066356     4.732880
  -12.439532    -10.788274     4.325133
  -11.903926     -7.741476     3.737031
   -9.933279     -3.913228     3.096694
   -7.243292      0.614609     2.994823
   -4.346703      4.820458     3.001579
   -0.978437      8.337894     2.850331
    2.996382     11.000074     2.409580
    7.999794     13.107936     2.109422
   13.008923     14.934871     2.627097
   17.402923     16.379268     3.557196
   20.837198     17.546635     4.541351
   22.927648     18.430737     5.665059
   24.113987     18.669044     6.945473
   23.869702     18.017532     8.122975
   22.300825     16.723085     9.020591
   20.016766     14.593653     9.432496
   17.010769     11.757875     9.395073
   13.374310      8.652605     9.133897
    9.820492      5.512251     8.716794
    7.500310      2.914001     8.354526
    6.281747      1.422827     8.271105
    5.603988      1.515343     8.408840
    5.203257      3.399191     8.556450
    4.259384      6.668964     8.437686
    2.615142     10.394040     7.712370
    0.810296     14.151862     6.625564
   -0.909310     17.292995     4.954815
   -2.058746     19.415151     2.624238
   -2.619040     20.987147     0.461801
   -2.489362     22.135543    -1.403596
   -1.730781     23.392828    -2.733646
   -1.342005     24.810197    -3.445969
   -1.439719     26.026422    -3.952469
   -2.021063     27.210681    -4.535114
   -3.004958     27.972121    -5.490421
   -4.239114     27.389477    -6.945473
   -6.112047     25.119711    -9.060871
   -8.803853     20.835379   -11.164056
  -11.747480     14.906805   -12.977218
  -14.483205      7.804106   -14.221249
  -18.066649     -1.218823   -14.047131
  -21.721819    -10.427565   -13.430183
  -23.822925    -18.499604   -12.725917
  -24.819813    -25.509007   -11.562707
  -25.350482    -31.092984   -10.347263
  -26.284999    -36.876027    -9.417683
  -27.170660    -42.119045    -9.012274
  -26.908964    -45.156747    -8.499017
  -25.619714    -46.493295    -7.442877
  -23.710658    -46.254468    -6.145311
  -21.966883    -44.324621    -4.162190
  -19.704134    -40.142940    -1.505208
  -16.116532    -34.206570     1.040807
  -12.664846    -27.291763     3.878404
   -9.979537    -20.512611     6.461062
   -7.184040    -15.530769     7.550206
   -3.801481    -10.567119     7.927028
    0.187111     -5.655703     8.304889
    3.898935     -3.027567     8.439506
    6.076964     -1.271578     8.792678
    7.367253      0.064190     9.407547
    8.359463      0.511698     9.186652
    8.265908      0.644235     8.560608
    7.684303      0.168920     8.251355
    6.884921     -0.560815     7.796310
    5.373737     -0.653071     7.730561
    3.515356     -0.479473     7.958993
    1.382026     -0.567571     7.334509
   -0.818353     -0.570170     6.062411
   -2.934531     -0.880723     4.425445
   -4.960012     -1.681404     2.397105
   -7.092563     -2.488062     0.433475
   -9.328025     -3.375802    -1.409833
  -11.000074     -4.246650    -2.954282
  -12.493067     -4.664272    -3.900494
  -13.796350     -3.967542    -4.573056
  -14.397965     -1.918152    -5.309027
  -14.476708      1.449594    -6.142713
  -13.774521      5.764332    -6.645055
  -12.372484     10.407034    -6.416883
  -10.541911     14.944487    -5.772388
   -8.323341     18.958287    -4.929867
   -6.113606     22.349682    -3.740410
   -4.178302     24.804220    -2.099546
   -2.490921     26.204957    -0.425679
   -1.043926     26.330218     1.238054
    0.176716     26.066962     3.006257
    0.742469     25.187019     4.137762
    0.320948     22.322135     4.664013
   -0.173078     19.806006     4.139581
   -0.853176     17.949445     2.403602
   -3.412705     15.810397     1.024175
   -7.706652     14.201498    -0.320428
  -11.881576     12.630282    -2.328758
  -14.929154     11.432509    -4.104757
  -16.405775     10.684843    -5.429350
  -16.142260     10.115712    -6.306695
  -14.328838      9.505781    -7.197294
  -11.074918      8.767210    -8.340233
   -6.374003      8.783323    -8.807751
   -0.072246      8.897929    -8.778905
    6.611271      8.398445    -8.662740
   12.469678      7.787474    -7.954315
   18.119924      6.535647    -6.669483
   23.721053      4.128406    -5.290836
   28.931327      1.184519    -3.285105
   33.503863     -2.206616    -0.389556
   36.690474     -6.260697     2.923616
   38.489343    -10.651838     6.816574
   39.259618    -15.200206    10.460569
   39.153329    -19.838750    13.074412
   38.681392    -24.317730    14.776606
   37.811844    -28.214586    15.579106
   36.594840    -30.854936    15.621466
   35.438387    -31.868197    15.052855
   34.366654    -31.497612    14.449421
   33.082342    -29.570364    14.110801
   31.084927    -26.050070    13.748273
   28.407935    -21.570311    13.194995
   25.513684    -16.547148    12.495406
   22.731701    -11.557770    11.577260
   20.368120     -6.756802    10.765405
   18.389416     -2.205316    10.268780
   16.655257      1.837590     9.624285
   15.160964      5.606846     8.994343
   13.891465      8.607906     8.381813
   12.696811     10.420548     7.586589
   11.094149     11.124815     6.667664
    9.220436     11.070240     5.481326
    7.425985     10.681984     3.909590
    5.919218     10.145598     2.226626
    4.990418      9.962905     0.584723
    4.616455     10.031772    -1.294187
    4.481319     10.630009    -2.854489
    4.403096     11.719933    -3.904132
    4.658815     12.574149    -4.792392
    4.774460     13.314538    -5.484704
    4.567598     13.489955    -5.946765
    4.028873     12.691093    -5.959499
    2.711037     11.126374    -5.524985
    1.028073      8.757855    -4.534854
   -1.001046      5.853210    -3.115146
   -3.595918      2.710777    -1.463108
   -6.424679     -0.602135     0.273910
   -9.112847     -3.822791     1.266900
  -11.496958     -6.560075     1.309780
  -13.358198     -8.548394     0.877865
  -14.395367    -10.165609    -0.155406
  -14.575461    -11.156520    -1.848505
  -13.975146    -10.858441    -3.677000
  -12.699409     -9.543723    -5.491981
  -11.198360     -7.062417    -7.374010
   -9.689774     -3.235469    -8.974073
   -8.005251      1.458949   -10.115972
   -6.636479      6.270312   -10.950957
   -5.751598     10.810363   -11.282820
   -5.334235     14.486064   -11.173671
   -5.536679     16.366274   -11.014627
   -5.980030     16.406815   -10.782557
   -6.345677     14.422394   -10.441338
   -6.688974     10.376629   -10.196014
   -7.215745      5.121656   -10.042687
   -8.062944     -0.264815    -9.890659
   -9.665865     -5.158558   -10.008123
  -11.594412     -9.175217   -10.395600
  -13.467086    -11.998521   -10.705893
  -15.389916    -13.972807   -10.806985
  -17.074439    -15.563774   -10.921071
  -18.510519    -16.491535   -10.964990
  -19.048464    -16.340546   -10.445496
  -19.137342    -15.794804    -9.486550
  -19.146698    -14.841056    -8.432229
  -18.663846    -13.145098    -7.427545
  -18.222315    -11.266707    -6.548381
  -17.871222     -9.535147    -5.817866
  -17.685929     -8.393507    -5.260430
  -17.244398     -7.540591    -4.457930
  -16.319756     -6.792665    -3.026787
  -15.023229     -6.433255    -1.156193
  -13.020098     -6.147390     1.198033
  -10.626371     -5.924156     4.039008
   -7.745114     -5.593073     6.977957
   -4.909077     -4.675967     9.906771
   -3.127360     -3.149709    12.590781
   -2.420235     -1.166848    14.836638
   -2.964677      1.435561    16.801828
   -4.325653      4.553045    18.295081
   -5.748999      7.556963    19.359797
   -6.887520     10.324134    20.342652
