STRONG GROUND MOTION RECORDS OF TURKIYE
PLACE                   : MUðLA MILAS_3 DERINCE BARAJI &#40;ANAKAYA-BEDROCK&#41;
EARTHQUAKE DATE         : 2017/07/20 22:31:09 (GMT)
EPICENTER COORDINATES   : 36.91980N-27.44350E
EARTHQUAKE DEPTH (km)   : 19.44
EARTHQUAKE MAGNITUDE    : 6.5 Mw
STATION ID              : 4823
STATION COORDINATES     : 37.44180N-27.64403E
STATION ALTITUDE (m)    : 129
RECORDER TYPE           : GeoSig gmsplus
RECORDER SERIAL NO      : 101485
RECORD TIME             : 20/07/2017 22:30:59.000000 (GMT)
NUMBER OF DATA          : 15158
SAMPLING INTERVAL (sec) : 0.01
RAW PGA VALUES (gal)    : (N-S) 44.896091 (E-W) 48.938737 (U-D) 34.373151
Copyright EARTHQUAKE DEPARTMENT
DISASTER AND EMERGENCY MANAGEMENT PRESIDENCY
       N-S          E-W          U-D
[...]
   -8.667418      4.159591     0.089138
   -3.983135      8.869082     6.347236
    6.330864      4.505747     7.084767
    9.613630     -4.105537     2.591753
    3.559275     -6.117764    -0.056913
   -2.542637     -2.623458    -1.358897
   -5.792918      1.016639    -3.941035
   -7.762786      1.595125    -6.884661
   -5.228725     -0.839143    -5.684809
    2.660361     -5.409080    -0.613829
   10.879491     -7.599323     3.588641
   15.645635     -4.927528     6.171039
   13.137042     -3.848259     7.030712
    4.114373     -5.773427    10.000587
   -2.090970     -4.187658    12.004498
   -1.021576      0.715182     7.575934
    4.067335      0.979476    -1.241952
    6.375562     -2.374236    -7.839190
   -2.463894      0.104990    -7.236275
  -15.299998      8.800215    -6.391155
  -14.394847     14.670576    -6.951450
   -0.407227     14.151342    -4.480279
   14.423953      9.137795    -2.158019
   19.396180      1.292108     1.033011
   12.490208     -6.257838     3.726896
    0.184253    -12.663806     4.219363
  -12.165362    -13.712930     7.058259
  -12.156786     -8.720692     4.859440
   -0.015852     -6.635180    -0.722978
    5.509392     -3.499244    -0.189190
    0.430096      4.433761    -0.529889
   -5.018485      6.475355    -2.609165
   -6.253680     -0.570170    -3.672062
   -7.108156     -5.569164    -1.928547
  -10.932506      2.082914     3.438433
  -11.374297     13.462408     3.065249
   -3.480273     14.666938     0.565492
    4.431163      5.714955     1.560042
    7.634667     -5.134130     0.608892
    4.661934     -6.957167    -1.074332
   -0.701408      1.683483    -0.791066
   -0.617728      8.624798     0.574848
   -0.641896      5.427791     0.198546
    2.673095     -4.423366    -1.585769
   11.407041    -12.173418    -2.372157
   13.170047     -9.500323    -1.977404
    7.237315     -2.021323    -0.548081
   -1.647360      3.240406     0.299638
   -5.814228      4.580852    -1.180361
   -2.747939     -2.262229    -1.952456
   -2.137228     -2.645288     0.704527
   -5.838657      6.461062     1.980003
   -7.065016      5.379454     1.020017
   -3.962085     -2.791859     2.228445
   -1.890605     -6.785129     4.897642
   -2.045492     -5.106843     2.931153
   -1.077970     -1.068354    -2.803553
   -2.404642     -0.562374    -4.293948
   -8.353226     -0.014033    -5.930653
   -8.111541      4.346443    -9.624545
    3.599816      7.006544    -7.769023
   14.816367      5.638291    -4.948838
   15.560135     -0.092516    -2.555371
    6.323327     -8.432489     1.934005
   -4.835271    -10.049703     5.348529
   -8.728749     -2.580838     7.284092
   -4.007043      5.112300     5.104764
    3.364108      5.255493     3.228192
    8.568664     -0.181394     2.707658
    9.173658     -7.088145     0.183473
    3.818373    -10.361556    -0.439452
   -1.867736     -3.245344    -2.081875
   -3.772634      5.457417    -1.609938
   -6.189231      6.904672     2.369039
   -8.322561      3.023149     3.611511
   -3.279388     -2.651785     4.629969
    5.304609     -4.378148     6.507580
    8.784102     -2.025481     9.453026
    8.183527     -2.704800     9.687955
    6.122182    -10.614676     5.550973
    3.747686    -14.271405     4.101379
    0.894237     -5.470151     1.916593
   -5.091770      4.972746    -3.604754
  -11.088952      8.692886    -8.252134
  -10.850904      9.785668    -9.818413
   -4.715988     10.415610   -10.766704
    2.056667      7.954835   -14.119897
    4.372950      8.483945   -11.538019
   -0.783009     11.980590    -4.409853
   -6.819432     13.051803     1.101619
   -5.249256     12.274770     5.108142
    2.455578      4.184280     2.602928
    9.047358     -8.444703     0.112787
    6.379461    -14.095469     4.221442
   -2.253653    -13.087666     7.111274
  -10.750852    -10.359997     6.035643
  -16.189298     -9.569191     5.482365
  -10.709011    -10.208228     6.517715
    3.681418     -5.984967     2.728189
   16.414611     -0.832646    -5.549933
   15.726976     -0.265854    -6.023949
    1.709471      0.642416    -0.069387
   -8.191323      1.383325     4.805645
   -5.185326     -1.921531     7.896363
    6.410906     -6.436893     7.662993
   15.060392     -6.965223     7.229258
   12.778152     -1.169706     7.178322
    4.898941      6.459503     6.032785
   -2.655163     10.243052     5.411419
   -7.283053      7.564760     5.981069
   -8.072039      1.164249     8.116738
   -4.953775      2.066542     7.171566
    2.418155      7.596465    -0.107849
    7.973286      6.461062    -6.068128
    3.292642      3.115925    -5.815268
   -5.609445      3.056154    -4.765624
  -10.391442      2.932712    -4.366713
  -12.859753     -0.262736    -2.475848
   -8.069441     -3.768476    -1.271058
    4.703514     -6.332683    -1.152814
   15.064030     -7.007323    -0.472716
   15.907331     -3.793944     0.396572
    6.155966     -0.464140    -0.500263
   -5.884395     -1.225060    -4.135423
  -11.090511     -5.864125    -6.986793
   -8.918459     -4.425186    -6.679359
   -2.212593      3.028607    -6.704827
    6.614649      4.289530    -7.945479
   11.096488      2.124235    -5.994583
    8.210034      1.177763    -0.844600
    5.318383      2.590194     1.804326
    3.147630      6.009916     1.612537
    0.862272      6.467039     2.166075
    3.143472      5.120357     1.655416
    4.286671      5.234702    -0.749225
   -0.627083      6.855036    -1.733899
   -9.022670      6.454825    -1.104477
  -15.973600      3.383599    -1.297306
  -13.673168      1.078230    -1.728182
   -6.014074      2.652045     0.154107
   -0.898395      8.720173     2.485724
    5.047591      8.549174     2.080315
   11.015666     -2.559269     1.235455
    8.721212    -10.698876     1.831873
    0.947512     -7.751871     3.730534
   -2.598770     -3.404389     5.483924
   -1.479740     -4.366453     4.852423
   -1.727143     -4.963911     5.037196
   -3.581365     -3.527311     2.094609
   -2.344350     -0.398651    -3.031985
    0.242985      5.353726    -2.495599
    0.172039     11.442124    -2.209474
   -2.971434     13.532315    -1.707392
   -4.301744      6.412985    -0.525211
   -0.262736     -3.506520     0.756502
    0.421261     -5.499257     4.146078
   -2.598510     -3.155427     5.391408
   -1.426985     -6.111527     6.503162
    2.556930    -13.718387     6.277329
    8.682750    -16.343145     4.502109
   10.488376    -10.523719     2.833959
    3.419981     -1.361755    -0.975318
   -4.147377      4.606840    -4.629969
   -8.518248      4.849825    -6.066829
   -8.760194      4.456631    -6.793445
   -1.817840      5.459236    -8.089451
    9.464980      0.409046    -7.749792
   17.160718     -7.523179    -5.654404
   18.626164     -8.026301    -1.152295
   15.171359     -6.540844     3.068108
    8.948085     -7.482898     3.021590
    1.341225     -7.009662     3.391395
   -8.661700     -2.620080     5.335275
  -13.311420      9.568931     5.504974
   -8.707699     19.249609     2.473509
   -3.392174     12.167181    -0.932179
   -1.785355     -0.416583    -0.359150
   -2.262749     -5.078776     3.563174
   -3.824610     -2.926735     5.050450
  -10.972267      5.191563     6.224574
  -17.297673     10.889886    10.554385
   -7.211327      4.032771     9.139874
   10.576214     -9.029426     4.883868
   17.405002    -13.141720     5.574102
   10.395080     -2.499757     9.323347
   -0.656969      9.008896     9.835565
   -2.580319      6.067348     4.409593
    0.413984     -5.872441     3.221695
   -3.660108     -9.498504     5.567865
   -8.591534     -1.760667     4.634127
   -5.099047      4.585790     0.134616
   -0.249222      5.470151    -5.065782
   -1.807185      5.324880    -3.664785
   -1.784056      4.471184    -1.978963
    4.011981      2.518988    -4.332929
    8.252654      0.357331    -6.668444
    8.584517     -3.208441   -11.112341
    5.860746     -5.221449   -11.922117
    3.241966     -0.636439   -10.119351
    0.524692      5.355545   -11.315304
   -4.742755      9.537486   -10.515923
   -6.407527     13.546608    -7.813462
   -4.738857     13.949418    -3.714682
   -4.852163      9.029426    -0.043659
   -3.454805      0.747146     2.152301
   -1.471683     -6.289803     5.204297
   -2.740403     -7.722245     5.772908
   -1.057699     -2.614882     2.626317
    4.360216      4.803826    -0.946212
    7.395060      7.808004    -1.391122
   11.474349      7.413511    -0.000780
   15.918246      3.472996    -0.423600
   14.507634     -4.002885    -3.107609
   10.290869     -2.443623    -4.979503
    8.187945      8.770329    -6.862832
    6.915587     15.480093   -11.610005
    3.925962     14.054668   -12.879504
    0.831087      9.427298    -9.706666
   -1.706352      7.915074    -6.277849
   -7.075151     11.793218    -2.154120
  -13.871455     15.704367     1.299385
  -19.103039     12.753984     2.666078
  -20.856169      2.398665     2.692586
  -12.326746     -9.201205     3.297579
    0.294181    -17.618881     3.056673
    1.562640    -21.846820     0.744548
   -3.452726    -19.598104     0.198546
   -3.175697    -14.311946     2.054068
    1.633587    -14.231904     4.138021
    8.170273    -16.440079     6.518755
   13.092084    -15.071826     9.575168
   14.582478     -8.305409    11.843375
   10.486817      2.498457    10.710051
   -4.453252      8.568145     8.083734
  -25.419869      7.915594     7.988099
  -40.281975      5.463914     8.448861
  -38.150723      6.072026     4.485997
  -20.062504     11.586356    -1.296786
    3.396852     13.217344    -6.914807
   19.573416      7.490435   -12.604554
   16.910456      0.285605   -10.809324
    4.637245     -4.508606    -3.983135
   -4.835531     -3.217277     2.784062
   -6.094895      2.307188     8.215751
    8.083474      3.854756     9.538785
   29.439906     -4.219883     8.830880
   39.496106    -18.187752     5.660901
   32.140028    -26.535001     5.481586
   16.590548    -21.460383     9.068148
    1.606819     -8.418196     8.439246
  -13.863398      0.995589     4.717547
  -25.967430      6.916626     1.128646
  -21.703108     11.013847    -2.911662
   -2.998201      8.644289    -8.134150
   15.571830      3.549140   -11.848572
   19.328352     -1.011701   -10.071793
    7.779938     -5.337614    -1.618254
   -2.196480     -8.767730     7.431962
   -8.656503    -10.054641    11.271645
  -14.475929     -5.149723    11.368059
  -15.646415      0.524692    11.799975
  -14.514650      2.236501    14.583777
  -12.479813      5.689227    13.724364
   -9.237328     10.862079     7.853483
   -3.838123     12.366507     3.666605
    2.375016     10.140660     1.742475
    7.172865      7.139601    -1.303543
   14.524785      4.320195    -6.111527
   23.654264      2.933751   -10.619614
   28.035791      4.986780   -11.883136
   26.436248     12.077264    -8.764872
   19.906318     18.625125    -4.721185
   12.378201     17.469712    -0.501822
   10.969148     11.988386     3.134896
   13.913815      6.978217     2.759374
   10.819979      1.617215     3.205843
   -2.405681     -3.240146     7.803587
  -20.663340     -5.117498    14.284919
  -31.754631     -7.456391    19.422687
  -22.533415    -11.509952    18.826270
    1.158012    -14.088972    13.148477
   18.373824    -15.273751     7.079309
   15.067409    -15.269853     6.358411
   -4.398418    -15.254260     9.287484
  -24.979117    -14.680971     9.861033
  -34.512965     -7.912215     9.442631
  -24.431816      2.965456     8.988626
    0.728435      7.003945     6.881803
   22.353580      4.590727     2.108382
   25.364255      6.354512    -4.733919
   12.809857     13.006584    -9.683017
   -0.049377     19.012341   -11.959540
   -7.167148     22.257685   -14.625098
  -12.465000     22.856442   -17.019085
  -18.468679     23.054468   -15.717101
  -24.904533     23.929214   -12.521394
  -27.259538     25.345544   -13.304403
  -21.460903     22.095002   -16.830934
  -13.311420      8.372457   -19.259225
   -8.423133     -5.980809   -21.566672
   -5.239120     -9.538785   -23.334356
   -2.934011     -5.159598   -25.859581
   -3.636719      1.451153   -28.635847
   -7.736798      5.648686   -27.262657
   -9.138315      3.109428   -23.114500
   -5.679092     -3.580845   -17.818467
   -3.577727     -9.043979   -10.111294
   -5.573062    -10.592587    -0.757022
   -5.110221     -7.594905     8.008630
    5.233923     -8.355046    14.969695
   18.607453    -18.627204    19.759228
   27.286825    -26.232244    23.899588
   31.131965    -23.271206    26.317224
   24.207283    -14.649007    21.072386
    8.149223     -4.224820    12.251901
   -5.451180      2.393727     6.364128
  -11.759694      3.873467    -0.296520
  -12.511518      9.173138    -8.430410
   -9.586343     20.947126   -15.101452
   -3.737811     33.267375   -21.044580
   -0.587322     41.719094   -25.219504
   -2.837597     40.764826   -21.138395
   -6.053835     28.967710    -9.725897
  -10.741236     10.725903     2.906204
  -14.816367    -10.311140    18.659948
  -10.002146    -29.707839    31.982803
    5.674414    -43.200913    34.369253
   24.352554    -48.938737    30.728896
   38.714656    -48.142474    25.698457
   44.896091    -43.538493    20.723631
   35.777526    -35.478148    15.962425
   18.322368    -21.857215    10.581152
    7.749272     -6.996668     6.442091
    1.656196      3.211300     0.866690
   -2.481306     11.904705    -7.140640
   -1.824596     18.173199   -12.265155
   -3.310573     16.232437   -15.190590
  -12.022950      9.634940   -15.965543
  -22.414911      5.649726   -11.475649
  -25.758488      5.917659    -7.083208
  -18.027927      7.993557    -3.581885
   -2.443623      6.967302     1.416330
   12.862092      2.391908     2.824603
   20.640211     -1.326932     3.585783
   19.961932     -4.787714     9.571010
   10.956154     -9.183274    15.314552
   -1.622412     -6.816054    15.746207
   -6.668704      7.160391    14.367820
   -4.442597     21.436474    10.155214
   -5.997961     23.330198     0.996628
  -14.657583     13.128206    -5.682211
  -19.728822      4.585010    -8.287218
  -14.682271      7.230558   -12.678879
   -5.619060     13.949937   -19.792492
    2.699342     17.073659   -24.625945
    5.072279     12.648993   -22.951817
   -1.996895      5.342032   -15.701249
  -10.562701      6.275770    -5.458976
   -9.922624     12.540884     3.375282
   -1.678286     11.424713     9.381560
    4.425186     -0.057433    14.681231
    2.981309    -13.823897    19.597844
   -5.088392    -20.895670    23.556031
   -9.421321    -17.755057    24.067729
   -1.309780    -10.089984    20.393588
   15.567152     -4.860999    15.049217
   29.194582     -6.691313    11.064003
   27.558656    -13.182521    10.875852
   14.249316    -11.929134    14.331177
    3.799921     -2.192842    17.296633
    7.147137      4.188957    17.433329
   20.715835      0.698289    17.523246
   26.049551     -8.327499    17.791959
   15.255040    -13.438240    17.793778
   -2.990665    -11.175751    16.981922
  -17.828602     -6.787208    14.072859
  -23.843715     -5.955601     9.685876
  -23.079936     -6.635439     4.651279
  -18.802101     -5.695984     0.509879
  -13.397699     -2.679072    -5.300971
   -7.582691      0.858634   -12.987093
   -1.663992      2.036136   -17.577041
    0.489348      1.538472   -20.116559
   -4.203770      0.393194   -21.386838
   -9.453026     -0.455045   -19.102519
   -4.093842      1.642942   -15.833786
   11.163276      6.759661   -15.843141
   24.172459     11.391189   -20.947645
   24.154528     15.838724   -27.244465
   12.829088     21.133977   -29.268647
    0.488569     22.638925   -29.792299
   -8.743042     20.636313   -30.174838
  -13.750872     20.075238   -25.500950
  -13.007364     18.717381   -16.742056
  -10.989159      9.966023   -10.500590
  -14.171353     -3.246643    -6.389596
  -21.213240    -10.916393     0.303017
  -24.689614    -12.891458     5.871921
  -19.550547    -15.942155     7.171306
   -9.785928    -19.899562     8.338154
   -3.307974    -19.541191     9.829588
   -1.420228    -13.015940     8.834778
   -0.113046     -5.862825     6.610751
    2.654124     -4.321495     5.242759
    2.716494     -4.224301     5.263809
    1.003645     -1.392681     5.978990
    1.310300     -0.440232     5.813708
   -1.140860     -1.529116     4.395300
   -6.153887      1.874753     1.624231
   -8.008630      7.855302     1.615395
   -3.848778      7.286951     5.595152
    4.526538      1.010402     9.061391
   13.871455     -4.032771    10.165868
   22.450254     -8.700682     8.961598
   22.257166    -13.935644     8.752657
   14.582738    -12.894317     8.046312
   10.162230     -5.578260     4.285891
    6.915587     -1.415290     2.306408
    2.566285     -3.412445     3.487289
    0.906451     -6.490168     4.510425
    2.253393     -7.620633     3.756522
    4.503149     -8.139088     1.779638
    4.631008     -5.887513     1.207389
    3.624505      0.161384     3.208961
    4.184539      2.390349     4.321235
    6.896096     -3.648673     5.514330
   11.874300     -8.700162     6.680138
   18.218157     -2.427771     4.286671
   23.453379     10.815561    -0.023389
   21.204924     19.778199    -4.161670
   11.079856     16.950997    -3.706106
    0.587842      3.245344     2.128653
   -7.243811    -11.433029     8.998761
  -14.012568    -15.884722    13.345723
  -16.982702     -6.736012    12.065050
  -11.058546      2.952982     8.798136
   -0.151768      1.554064     8.099327
    9.784889     -1.968049     8.024222
   14.894590      0.516116     5.344890
   12.402630      1.574075     0.017412
    2.084993     -3.537446    -3.773674
  -11.868323     -4.468585    -4.146597
  -19.103039      1.983381    -4.429084
  -16.686182      3.945453    -4.422067
   -8.423653      1.124748    -3.266394
    3.296020      0.813155    -3.436873
   17.647727      4.199872    -7.105557
   25.927409      8.558269   -14.669277
   12.805439     10.625851   -18.245964
  -15.256599     10.541131   -12.649513
  -30.983575     10.239674    -6.740430
  -22.222862     14.350148    -7.342045
   -1.866177     20.609026   -12.533348
   17.598091     22.459350   -18.671643
   28.303984     18.579386   -19.751172
   24.047718      9.884162   -13.223062
    6.533308      2.478447    -4.628149
  -16.429684      0.230771     2.917639
  -29.081276      0.806138    10.055421
  -21.826290      1.761446    15.413305
   -5.450660     -0.155926    16.665652
    1.873453     -6.001080    14.772968
   -2.405681    -10.878191    13.561421
   -8.558529    -12.544783    13.713449
  -11.083754    -13.320775    12.939016
   -7.297606    -14.054668    11.335315
   -0.604214    -18.032085     9.179375
    2.067322    -23.902967     6.006017
