STRONG GROUND MOTION RECORDS OF TURKIYE
PLACE                   : MUðLA YATAGAN METEOROLOJI MUD.
EARTHQUAKE DATE         : 2017/07/20 22:31:09 (GMT)
EPICENTER COORDINATES   : 36.91980N-27.44350E
EARTHQUAKE DEPTH (km)   : 19.44
EARTHQUAKE MAGNITUDE    : 6.5 Mw
STATION ID              : 4807
STATION COORDINATES     : 37.33967N-28.13692E
STATION ALTITUDE (m)    : 684
RECORDER TYPE           : GeoSig gmsplus
RECORDER SERIAL NO      : 101128
RECORD TIME             : 20/07/2017 22:30:59.000000 (GMT)
NUMBER OF DATA          : 15096
SAMPLING INTERVAL (sec) : 0.01
RAW PGA VALUES (gal)    : (N-S) 22.187779 (E-W) 22.788094 (U-D) 6.212879
Copyright EARTHQUAKE DEPARTMENT
DISASTER AND EMERGENCY MANAGEMENT PRESIDENCY
       N-S          E-W          U-D
[...]
    2.345910     -2.182187    -0.658009
    0.727136     -3.492747    -0.716481
   -0.009875     -5.693645    -0.616948
    0.672562     -7.448075     0.034044
    2.034577     -7.394280     0.452446
    2.914521     -6.391415     0.485970
    3.892178     -4.628149     0.335761
    5.379714     -0.965963     0.497924
    6.743808      3.622685     1.839409
    8.343351      7.801767     3.553818
    8.947045      9.678079     3.825130
    6.718080      7.667671     2.384631
    2.642949      3.008076     0.788987
   -3.322268     -2.418155     0.095375
  -10.296327     -6.485490     0.042360
  -14.181228     -8.243039     0.425159
  -13.149776     -9.409886     0.681397
   -7.879990    -10.821278     0.058472
   -0.394753    -12.225913    -0.904632
    5.973793    -12.875606    -0.947252
    8.950164    -10.283593    -0.366686
    8.685349     -4.387763    -0.147870
    7.385444      2.528863    -0.696730
    6.964184      8.812169    -1.572776
    7.274477     12.535947    -2.105264
    6.853996     13.270619    -2.045752
    5.201178     11.815828    -0.800681
    2.602148      8.653384    -0.011694
   -0.679578      4.182201    -0.325106
   -3.909070     -1.377088    -0.901773
   -6.356332     -6.835285    -1.992477
   -6.434295     -9.561914    -1.944660
   -3.915047     -9.167941    -0.854995
   -0.190490     -7.561901     0.897615
    4.396599     -4.277056     2.825643
    8.507074      0.368506     3.557196
   10.132344      4.556164     4.301224
    8.362842      7.672868     4.519001
    4.671809      8.626877     3.794204
    1.022356      7.506287     2.993263
   -3.416083      4.636985     2.070180
   -8.065543      0.622665     1.056660
  -10.610778     -2.539258    -0.075104
  -12.598057     -3.831626    -1.020017
  -15.264655     -3.113586    -1.608379
  -15.285965     -0.771835    -0.944393
  -12.356372      3.327465     0.389296
   -9.818933      7.014080     1.583690
   -9.366227      8.673135     3.367486
  -11.587656     10.493314     4.173625
  -14.850151     12.086879     2.604487
  -16.294548     12.114686    -0.552758
  -14.821825     10.199912    -2.935311
  -11.889633      7.683523    -3.321748
   -9.639098      6.932999    -2.510152
   -7.375049      7.136482    -1.522619
   -4.204290      6.180915    -1.116691
   -0.919965      3.477934    -0.042880
    1.890865     -0.656969     0.700888
    5.111781     -5.080335     0.625264
    9.922624     -6.921824     1.505208
   14.147964     -7.005244     2.159058
   16.282853     -8.054628     2.492480
   18.518835     -9.673142     2.872680
   21.211940    -11.080116     2.958180
   22.187779    -12.910170     2.727149
   21.731694    -15.258418     1.924389
   21.449208    -15.484251     1.140340
   20.289377    -14.162517     0.066009
   17.622259    -12.115985    -1.291849
   14.850411     -8.624278    -1.540551
   12.264635     -5.065522    -0.915807
    8.969395     -1.505727    -0.933478
    5.714435      0.607073    -1.065756
    3.795763     -0.230771    -0.606293
    2.046531     -2.620600    -0.574328
   -0.098234     -4.218064    -1.148137
   -1.650739     -4.384645    -1.727402
   -3.824870     -3.193628    -2.013527
   -7.391162      0.714662    -1.611757
   -9.973040      6.534347    -0.493506
  -10.698356     11.918219     0.333162
  -11.291656     16.213206     0.593039
  -12.601436     18.999088     0.615649
  -14.513091     19.430224    -0.020790
  -16.380827     17.987646    -0.878644
  -16.797150     14.751138    -1.572516
  -15.570011      9.244345    -1.753650
  -13.592087      2.536919    -0.817053
  -10.853243     -3.135416     0.283786
   -7.115692     -6.421561     1.409833
   -2.167894     -7.266941     2.660621
    2.615922     -5.250815     3.346696
    4.983401     -2.107862     3.910369
    5.667657     -0.382279     4.450654
    5.881796     -0.329784     4.501070
    5.362822     -1.994036     3.985734
    4.627370     -4.670250     3.269253
    4.666871     -6.876865     2.085513
    5.205336     -9.081142     0.191010
    5.417396    -12.160165    -1.709211
    4.910636    -14.046872    -3.329544
    3.962085    -12.119624    -4.210007
    3.970141     -7.123229    -3.988852
    5.434548     -1.997415    -2.632294
    7.685083      2.557969    -0.935557
   10.289830      6.962365    -0.107589
   12.039322      9.654171     0.229731
   11.183547     10.358957     0.548600
    7.449114     10.000327     0.981296
    2.112540      7.025515     1.381766
   -3.460002      1.359936     1.283273
   -8.656503     -3.081102     0.782750
  -13.334809     -5.301491     0.108369
  -15.712423     -6.162203    -0.705306
  -14.356905     -4.548887    -1.713889
  -11.025801     -1.358377    -1.717007
   -7.407534      1.468305    -0.430876
   -4.173884      3.254700     0.199066
   -0.832126      4.176483     0.283786
    3.133077      4.085266     0.567831
    5.459756      2.531202     0.808217
    5.708458      0.261696     1.040028
    5.613083     -1.453492     0.431396
    4.774460     -2.590194    -0.891378
    3.055894     -3.780691    -2.257032
    1.399957     -4.435061    -3.245864
    0.390335     -4.263542    -3.434275
    0.137215     -3.044199    -3.939735
    0.550419     -0.773914    -4.596704
    0.679838      1.537432    -4.471963
   -1.010662      4.833712    -3.740929
   -3.295240      9.627923    -1.812122
   -5.172592     13.612357     0.503122
   -7.873234     15.382899     1.354219
  -10.186659     14.563767     1.010142
  -10.625071     11.131312     0.311593
  -11.330897      6.607113    -0.309254
  -13.590787      3.563693    -0.736491
  -14.375616      3.543683    -0.783269
  -12.145871      4.560322    -0.188671
   -9.530469      3.543163     0.457903
   -6.772654      0.161124     1.128906
   -1.715448     -4.294208     1.915034
    3.469098     -9.089458     2.401004
    6.237308    -13.117292     3.110208
    8.150522    -14.962938     4.236775
    8.929634    -14.105344     4.603981
    8.407801    -10.542170     4.199352
    9.370385     -5.660901     4.202211
   10.958493     -1.779638     4.867496
   10.806205      0.014033     5.821765
    9.161184     -0.126300     6.212879
    5.752897     -1.199592     6.095675
    0.043659     -1.929327     6.005498
   -6.534867     -2.213113     5.606586
  -10.954335     -2.043413     5.025501
  -11.134950     -1.667371     4.349561
   -8.278122     -2.111241     3.387757
   -4.852683     -3.369565     2.171012
   -1.131245     -4.489635     0.875526
    2.074598     -4.096441    -0.444909
    3.427258     -1.664512    -1.441018
    4.674408      2.132811    -1.756509
    6.749006      6.068388    -1.871374
    9.028387      8.156240    -2.156199
   11.646388      7.291629    -2.960779
   13.766464      4.813962    -3.811356
   14.059865      2.238840    -3.996389
   12.645615     -0.471937    -4.053561
   10.269040     -3.475855    -4.096441
    7.138042     -7.083727    -4.147897
    4.204030    -10.529177    -4.189997
    2.669976    -12.153408    -3.377621
    2.730268    -11.707979    -2.130732
    3.125801    -10.003185    -1.239353
    2.747160     -7.514603    -0.523912
    3.172578     -4.206369    -0.143972
    4.881789     -1.260663    -0.383578
    6.082941      0.711543    -1.465706
    6.237568      0.991171    -2.729748
    5.272644     -0.704267    -3.780171
    3.650492     -1.824596    -4.497951
    3.882043     -1.173085    -4.490675
    6.426498      1.171006    -4.983401
    8.519288      3.926222    -5.715475
    9.716541      4.664792    -5.763032
    9.586083      3.497685    -5.317083
    6.370105      2.489882    -4.269779
    1.447255      2.062904    -3.179335
   -3.701688      1.086546    -1.569397
   -8.794238      0.594599     0.490648
  -12.504761      1.761446     2.042633
  -14.693705      3.945712     3.176217
  -16.732441      6.224314     4.073052
  -18.653711      7.474063     4.906998
  -20.208555      7.354259     5.255752
  -21.065370      5.863865     5.401284
  -19.877472      3.984954     5.284859
  -16.963471      3.027047     4.791352
  -13.557003      1.918152     3.949351
  -10.409633     -0.225053     2.133070
   -6.756282     -2.192582     1.000267
   -1.909056     -3.243265     0.628123
    2.553032     -4.136982    -0.098493
    6.001859     -4.729502    -0.916846
    7.729781     -4.305642    -1.778598
    7.534874     -3.041860    -1.653078
    7.075411     -2.020804    -0.738830
    7.121929     -2.613063     0.022090
    8.087632     -5.015366     0.481292
   10.091284     -9.239667     0.977917
   11.816867    -13.283353     1.901260
   11.951223    -13.967869     2.306928
   11.292435    -11.458757     1.892164
   10.497212     -7.084247     1.562640
    8.868563     -2.050689     1.284572
    6.918705      2.441025     0.482592
    6.079043      5.832679    -0.112267
    5.582938      6.896876    -0.365127
    3.870608      5.602688    -0.685815
    2.903086      4.050703    -0.435814
    2.899708      4.103718    -0.257538
    1.110195      6.083721    -0.492207
   -2.265088      8.781244    -0.855255
   -6.376342     11.053608    -1.375269
  -10.213426     11.705900    -1.449594
  -11.919259     10.608699    -1.497151
  -11.225127      9.442631    -1.368252
   -9.430417      8.632334    -0.681657
   -8.066062      8.875319    -0.341738
   -7.362575     10.153135    -0.413724
   -6.696770     10.738118    -0.522873
   -6.468079     10.093623    -0.566532
   -7.230038      7.588668    -0.353173
   -7.976925      4.899201    -0.208681
   -8.669237      4.130745    -0.645275
  -10.259684      4.298106    -0.957127
  -12.629243      4.822797    -0.662167
  -15.312213      5.381273     0.022090
  -16.985561      6.237048     1.004684
  -16.659935      7.475622     1.731560
  -14.519328      8.203537     2.252094
  -11.443944      7.753170     2.577980
   -8.450680      5.606586     2.455318
   -5.630495      3.833186     2.281200
   -3.775753      3.556157     1.759107
   -3.181154      2.211553     0.327445
   -2.109681     -1.492733    -1.198813
    0.119024     -6.548121    -2.063683
    2.807451    -10.793731    -2.322781
    5.931433    -12.864431    -1.750012
    8.815028    -13.402896    -1.376049
    9.523972    -13.057520    -2.220649
    8.323860    -11.798156    -3.294461
    6.510179    -10.035930    -3.981056
    3.659588     -8.386231    -4.445976
    1.353439     -6.126600    -4.678046
    1.827715     -3.427778    -4.570197
    3.869309     -2.265868    -3.969881
    6.249002     -2.344350    -2.931153
    7.977444     -2.234422    -2.179329
    7.729262     -2.547314    -1.761186
    6.521613     -3.299398    -1.031712
    4.970927     -4.217544    -0.767677
    3.793684     -5.914801    -0.976618
    4.536153     -6.638558    -1.044706
    5.921817     -5.017965    -1.274177
    7.144798     -2.042893    -1.233376
    8.127393      0.441271    -1.128126
    7.783836      0.660347    -1.467266
    7.459769     -0.495845    -1.801207
    8.343611     -2.784842    -1.655157
    9.100373     -6.226393    -0.971160
    8.840756     -8.752138    -0.284565
    7.944960     -9.438473     0.281187
    7.363355     -8.284099     0.898915
    7.185859     -6.151808     1.675687
    6.791106     -4.322014     2.656203
    7.088405     -2.698043     3.541604
    7.949637     -1.321734     4.085007
    7.760707     -0.814714     3.811876
    7.203531     -0.612270     2.904905
    7.156233     -0.632800     2.248196
    6.689234     -1.072772     1.758848
    4.506787     -0.938156     0.985973
    0.962844     -0.199326    -0.048857
   -2.353446      0.511178    -1.056400
   -5.038495      0.506240    -1.750272
   -6.698590     -0.016372    -2.172052
   -6.737051     -0.442311    -2.195701
   -5.425972     -1.686082    -1.525218
   -3.881003     -3.322008    -0.837843
   -3.488329     -4.366973    -1.212066
   -3.645295     -5.053048    -2.013787
   -3.318629     -4.838650    -2.087072
   -4.250028     -3.899454    -2.013007
   -7.372451     -2.819925    -2.281720
  -10.038009     -1.382806    -2.489882
  -11.220969      0.696210    -2.458177
  -12.109748      3.694152    -2.015606
  -12.045299      7.034091    -1.400477
  -11.142486     10.513324    -0.606813
  -11.000334     14.309607     0.541064
  -11.999041     17.427352     1.133064
  -13.619374     19.248310     0.602395
  -15.145891     19.814842    -0.840702
  -15.784669     19.338487    -2.090191
  -14.985547     18.635260    -2.132551
  -13.410693     18.045339    -1.991957
  -11.767750     17.309627    -2.125794
  -10.507867     16.050263    -2.320702
  -10.511765     13.916673    -3.040561
  -10.625071     11.315824    -3.625544
   -8.995902      8.547874    -3.476635
   -6.511998      5.828261    -2.847732
   -4.629969      3.475335    -1.745594
   -2.994303      1.853963    -0.829268
   -1.787174      2.229225    -0.782750
   -1.738317      4.140880    -0.731554
   -2.134630      4.844107     0.030406
   -2.458956      2.648666     1.165029
   -1.659575     -1.772621     2.181927
    1.591487     -7.161430     2.733646
    5.353466    -13.184340     3.127880
    7.061378    -18.837184     3.353973
    7.079309    -22.435441     3.065249
    6.805919    -22.788094     2.693885
    7.247710    -19.890466     3.100592
    9.044759    -15.095735     4.235215
   11.930693    -10.284892     5.073839
   15.047658     -7.327232     5.236002
   16.607440     -6.596978     4.776799
   15.039862     -7.079829     4.060318
   11.620400     -7.923650     3.055114
    8.878958     -8.893511     1.552245
    7.709251     -9.592580     0.335501
    7.431443     -9.025008    -0.546002
    7.642463     -6.986014    -1.238834
    7.503169     -4.567338    -2.057966
    5.452999     -2.882816    -3.414004
    2.483385     -2.154640    -4.280434
    0.554318     -1.990138    -4.672848
   -0.409046     -1.693878    -5.077477
   -0.260917     -0.730774    -4.758868
    0.875526      0.760140    -3.928301
    1.218563      2.495079    -3.425179
    0.330044      4.563180    -3.621126
   -0.834725      6.507840    -4.255746
   -1.950897      7.202491    -4.438439
   -3.388276      6.607373    -4.179602
   -5.192342      5.555131    -4.047065
   -6.631541      4.501849    -3.913748
   -7.977964      3.353713    -3.737811
   -9.491748      1.550686    -3.349035
  -10.282553      0.070687    -2.507293
  -10.474342      0.524172    -1.450374
  -10.510465      2.448041    -0.328225
  -10.121170      5.061364     0.690233
   -9.651052      7.160391     1.574855
   -9.730315      7.554105     2.366960
  -10.102718      6.929620     2.938169
  -10.277875      5.893491     2.875539
  -10.137802      4.139581     1.986240
   -9.385198      1.785355     1.013520
   -8.478747     -0.419961     0.477394
   -8.262789     -1.900221     0.458163
   -7.861279     -2.165815     0.476095
   -6.374263     -1.613316     0.287684
   -4.552006     -0.975578     0.502082
   -3.006517      0.020790     1.158792
   -1.256765      1.535873     2.367739
    1.075371      3.420761     3.516136
    4.191296      4.606840     3.743008
    8.418196      4.259904     3.565253
   13.038809      2.315504     3.371384
   16.360037     -0.727136     2.590454
   16.978544     -2.690247     0.815494
   15.224894     -2.896069    -0.957647
   12.265935     -2.441804    -2.093049
    9.387537     -1.942581    -2.757815
    9.123762     -1.390342    -3.223254
   11.796597     -0.392154    -3.595398
   13.894064      1.068094    -3.383079
   13.465007      3.021070    -2.575901
   11.821025      5.077217    -1.799128
    9.585823      6.136216    -1.583171
    6.510958      5.008609    -1.373190
    3.344877      1.636186    -1.188677
    0.782230     -3.108129    -1.345903
   -1.467525     -8.060865    -1.593566
   -4.288230    -11.374037    -1.891125
   -7.253427    -12.001380    -1.497931
   -8.960299     -9.371165    -0.882023
   -9.492787     -4.023935    -0.514297
   -9.594139      2.141386    -0.229471
   -9.684576      6.984194    -0.441271
  -10.043986      8.524225    -1.108895
  -10.528917      7.385704    -2.017945
  -10.599343      4.884128    -2.528863
  -10.077770      1.955574    -2.896329
   -9.586603     -0.064190    -3.327725
   -9.702768     -0.736232    -3.679079
  -10.585050     -0.526511    -4.142699
  -11.409380     -0.460762    -3.918166
  -10.959013     -0.092256    -3.130218
   -9.344137      1.062377    -2.352926
   -6.891158      2.151262    -1.696217
   -4.003925      2.231304    -1.430623
   -3.014573      1.255726    -1.444396
   -4.707412      0.380980    -1.354219
   -6.197547     -0.321728    -0.559255
   -6.192089     -0.535087     0.859933
   -5.035897      0.905931     2.269506
   -2.561867      3.937916     3.028607
    0.093556      6.692612     2.682970
    1.524179      7.745374     1.623971
    1.360456      7.104258     0.883842
    0.526251      4.890885     1.011181
    0.543663      2.612803     1.119030
    1.677246      1.079269     0.679838
    3.224814     -0.173338     0.295480
    4.355019     -1.361236     0.150469
    4.619054     -2.764312    -0.173598
    4.682464     -4.489895    -0.653331
    5.267187     -6.318390    -0.665545
    6.296040     -7.512784    -0.255979
    7.556963     -7.989918     0.253380
    8.255253     -7.581652     0.562894
    7.351920     -6.090217     0.565492
    4.681944     -4.099820     0.403589
    0.952449     -2.170233     0.062630
   -2.122935     -0.832906     0.025468
   -3.412445     -0.056133     0.179835
   -3.853196      0.444650     0.189190
   -4.483138      0.547821    -0.078223
   -5.024982      0.373703    -0.696990
   -4.475342      0.479733    -0.968562
   -2.852670      0.930879    -0.985713
   -1.005724      1.560302    -0.914507
    1.225580      2.335515    -0.419182
    3.060571      2.958700     0.290802
    2.919718      3.877625     0.998707
    1.500010      5.538239     1.814981
    0.813155      7.097501     2.679592
    1.441278      7.508106     3.028087
    2.093049      6.018232     3.063690
    1.788474      2.839936     2.888793
    0.410086     -1.356298     2.202717
   -1.908017     -5.847752     1.635666
   -4.389582     -9.091017     1.357597
   -6.423640    -10.000067     1.448814
   -7.161171     -8.414817     1.993257
   -5.680132     -5.209494     2.629176
   -2.615402     -1.686082     3.378921
    1.137482      1.313938     3.637238
    4.972746      2.681671     2.989885
    7.700415      1.913734     1.977404
    8.507074      0.109668     0.963104
    7.438979     -1.049643     0.143972
    5.296293     -1.088885    -0.530929
    3.438952     -0.576927    -1.254426
    2.534840     -0.002339    -1.951936
    1.958953      0.082381    -2.591493
    1.233376     -0.594079    -2.967276
    0.542363     -2.051989    -2.589414
   -0.095375     -3.510678    -1.898401
   -0.879944     -3.921024    -1.359676
