STRONG GROUND MOTION RECORDS OF TURKIYE
PLACE                   : MUðLA MILAS_2 DERINCE BARAJI&#40;KRET-CREST&#41;
EARTHQUAKE DATE         : 2017/07/20 22:31:09 (GMT)
EPICENTER COORDINATES   : 36.91980N-27.44350E
EARTHQUAKE DEPTH (km)   : 19.44
EARTHQUAKE MAGNITUDE    : 6.5 Mw
STATION ID              : 4822
STATION COORDINATES     : 37.44170N-27.64600E
STATION ALTITUDE (m)    : 128
RECORDER TYPE           : GeoSig gmsplus
RECORDER SERIAL NO      : 101468
RECORD TIME             : 20/07/2017 22:30:59.000000 (GMT)
NUMBER OF DATA          : 15142
SAMPLING INTERVAL (sec) : 0.01
RAW PGA VALUES (gal)    : (N-S) 76.656958 (E-W) 76.914496 (U-D) 61.345265
Copyright EARTHQUAKE DEPARTMENT
DISASTER AND EMERGENCY MANAGEMENT PRESIDENCY
       N-S          E-W          U-D
[...]
   -9.385198     -1.426465     2.727669
   -7.832693     -2.382812     5.609965
   -5.544476     -5.188184     7.776299
   -2.630735    -13.793232    10.874033
    0.950370    -18.091077    11.767490
    2.720912    -14.405242     4.138541
    1.227399    -11.003712    -6.851657
   -0.691533     -9.342058    -5.387510
   -0.746367     -4.127886     6.588921
    0.188151      0.730774    19.769363
    2.074858      2.603968    22.634767
    4.415050      3.224294     7.599323
    4.079029      0.692052    -6.124521
    1.449594     -0.987013    -4.864897
    0.147090      0.638518     0.350834
    1.095901      1.716228    -1.014820
    2.569404      1.411652    -7.798389
    3.891658      2.209734   -16.386804
    4.127626      1.732340   -25.221063
    2.485464     -1.988839   -29.563608
    0.856295     -1.147357   -25.451054
   -0.101092      7.525258   -14.151602
   -0.877085     17.274024    -2.865404
   -1.361755     21.664126     4.864378
   -1.539511     19.635007    13.164589
   -1.749752     16.240493    20.368120
   -1.862798     15.042201    23.646988
   -1.802247     12.597018    19.501690
   -1.267940      6.057993     6.917406
    0.352653     -1.187898    -1.502349
    1.237015     -5.236262    -0.583944
    2.212073     -5.172332     1.819399
    2.998981     -4.615675     1.409313
    0.019231     -6.985754    -1.083427
   -3.959226     -7.747973    -4.685842
   -6.684036     -9.226933    -5.303830
   -6.817613    -16.006864     1.141380
   -2.824343    -19.183860     9.045539
    1.434001    -16.617315    14.784143
    5.838397    -14.460076    17.893051
   11.296853    -14.672396    16.455672
   14.341832    -17.984788    12.758921
   13.671089    -21.571610     7.845427
   10.014620    -20.662560     4.698836
    5.330077    -15.909410     5.283819
    2.125274    -11.323361     4.311879
   -0.419441     -6.526551     0.475055
   -3.984694     -1.114612    -2.313165
   -6.232630      3.302517    -1.778598
   -5.804873      7.791632    -2.307708
   -5.580599     11.834279    -7.694178
   -7.771362     13.996455   -11.365201
  -11.819206     15.246204   -12.525292
  -14.584297     16.009982   -13.168227
  -13.847806     19.235056   -11.106103
  -10.676787     24.273811   -14.460336
   -7.156233     20.619421   -19.648780
   -4.409333     11.832720   -14.480087
   -0.605773     11.193682    -8.015906
    4.576694     13.544789    -4.711050
    7.744854     11.026321    -1.780937
    8.344391      9.284885    -4.915054
    7.980303     10.260204    -6.754463
    6.926502      5.654144    -0.145531
    6.131538     -0.521053     6.709504
    6.348795      1.853703     9.064250
    5.912981      4.803047     7.159351
    5.704560      2.089151     3.075125
    8.446522     -1.066795     2.136969
   13.725144     -1.399957     7.370372
   19.526378      0.915807    10.736558
   20.522747     -0.962844     5.199619
   14.777126     -7.155193    -1.783276
    7.540071     -8.915340    -0.448548
    0.571210     -8.293715     9.623765
   -6.439752     -8.292415    18.298459
  -11.834799     -7.068395    19.828875
  -14.975152     -4.337087    17.216072
  -15.897196     -1.910876    14.384192
  -14.860027     -5.353726     8.315284
  -12.781271    -12.456944    -5.679092
  -11.832460    -14.762053   -16.076771
  -11.080376     -8.441844   -16.955155
   -8.742002     -1.185819   -13.817140
   -7.834252     -1.235195    -8.880517
   -8.319442     -2.235202    -4.441558
   -9.661447     -2.515869    -1.628389
  -11.635993     -4.205849    -4.158552
  -10.770862    -10.268520    -5.419215
   -8.084773    -17.403443     0.975838
   -5.310067     -9.586083     4.139321
   -2.847212      2.205056    -1.456091
    0.216997      1.549387   -11.056467
    5.914541     -1.812122   -13.591827
   11.142746     -0.200625    -6.848798
   12.837924      5.934031    -3.222215
   11.275283     11.003452    -1.853963
    8.942108     12.604294     6.316051
    8.789040     14.436167    16.333789
   10.526058     13.627950    19.295347
   13.535953      8.033058    14.498798
   16.751931      1.707652     6.329304
   17.932553     -0.125001     0.833685
   17.394087     -0.313152    -1.862279
   15.382380     -7.635186    -4.838650
   12.568691    -12.707466    -5.462615
   11.494620     -6.591000    -4.333189
    9.879484     -0.615908    -2.264308
    8.418196      3.957927     3.213379
    9.307755     10.309321     7.130505
    8.900008     13.522960     8.544756
    7.852443     14.419015     8.229525
    5.339433     10.768783     0.652291
    0.354992      4.105277    -5.590474
   -7.923390      2.760154    -2.588895
  -18.873567      1.028333     2.139307
  -26.824244     -5.952483     6.165582
  -31.518922    -12.365208    10.631308
  -29.197961    -12.789327    14.496719
  -22.683364     -7.376349    16.729322
  -19.711151     -6.268233    17.413058
  -17.142007     -9.047098    16.496992
  -14.329618     -7.391422     9.949911
  -13.579093     -8.784102    -1.069394
  -14.282320    -13.965270    -8.637792
  -13.876652    -15.152388    -9.522933
  -12.562454    -13.150296    -4.873473
   -9.766957     -5.403882     3.535107
   -4.144259      3.884641     8.620380
    1.307181      7.833213     2.890872
    4.719106     10.468885    -8.342052
    7.712110      9.033584   -17.307548
   11.012548      0.956087   -25.573976
   12.074145     -4.273417   -30.461483
   13.239954     -2.417376   -26.255373
   17.828082      2.152821   -18.337961
   25.574496      8.781244   -15.541684
   34.661355     13.829614   -15.317150
   38.067822     13.548947   -13.189797
   35.727890     14.036477    -8.796836
   31.172766     19.172166     3.639318
   22.257166     27.054755    18.889420
   12.628463     32.874440    24.387118
    4.332409     29.128573    22.689081
   -3.943374     18.146431    20.580699
   -9.487590      8.746420    18.139934
  -12.523473      2.232603    11.505275
  -14.214492      1.053281    -3.773414
  -15.940076     -0.045998   -26.022783
  -19.855382     -8.599590   -38.322242
  -21.574729     -9.447568   -32.842476
  -17.516749     -0.579786   -21.817194
  -12.847019      4.086566    -7.697557
   -9.725637     10.776579     7.799169
   -8.076457     17.880837    15.448908
   -7.850364     14.552332    15.190330
   -6.120363      6.977957    10.321015
   -4.880490      2.165815     4.703514
   -4.506787      1.799128     5.279921
   -3.343058      4.492234     9.187172
   -2.873200      4.561621    10.651319
   -3.034844      0.208681    11.508913
   -3.624764     -5.979250     9.783330
   -4.253407    -11.894830     3.374503
   -2.586036    -18.512078    -3.645555
    2.329018    -25.334889    -5.478467
    7.654937    -28.973427     0.220895
   12.274510    -30.527231     8.483425
   15.413045    -32.972934    11.167434
   14.048691    -32.744242     5.913241
    9.009156    -30.074526    -0.602395
    0.791585    -36.469579    -0.731814
  -10.873773    -44.963659     1.360976
  -20.771449    -41.796018    -0.971680
  -25.624392    -35.364582    -2.711816
  -27.262916    -25.836192    -2.460515
  -25.647781    -11.821545    -3.795244
  -20.797437     -1.814981    -6.546821
  -14.974373      4.927788    -8.322821
   -7.752911      9.620647    -4.893484
    2.060305     13.031272     1.768983
   13.250868     19.693219     7.455611
   23.433889     31.377549    13.266461
   29.385592     41.185307    18.108749
   30.426139     43.212867    17.693206
   30.475776     44.812670    10.605580
   32.114560     46.328013     0.315231
   32.721113     39.624486    -6.570470
   32.904326     33.688375    -7.547088
   34.198774     34.563121    -5.232104
   31.947719     32.403803    -3.210261
   25.713530     26.571124    -3.285885
   17.445803     20.862406    -4.682204
    6.678839     13.786215    -4.691819
   -2.898928      4.456631     1.213626
  -10.370132     -5.061884    11.106883
  -16.581972    -13.319476    18.967643
  -19.854863    -23.132172    23.838777
  -23.832280    -32.860147    28.807885
  -29.381174    -36.689175    34.560263
  -35.754917    -36.857835    32.395747
  -41.979491    -38.404103    15.808058
  -46.317358    -39.031446    -8.200419
  -50.225388    -37.590688   -29.644949
  -51.663807    -35.587037   -42.272892
  -53.755817    -32.329738   -38.940489
  -45.477176    -20.670097   -27.045399
  -19.465567     -0.209461   -17.145905
    7.811643     16.498551    -1.985200
   27.564894     28.236935    15.623805
   42.119305     31.285293    25.975746
   63.508741     29.339334    23.698184
   76.656958     32.177710    17.864465
   70.968251     28.968749    22.220003
   61.427906     17.845234    28.007464
   55.517264     12.658089    30.690954
   59.807313     24.189091    27.303457
   51.372485     25.130886    18.486870
   29.900408      6.036163    14.997242
   18.907351      5.819686    14.491781
    8.204837     12.356112     9.426518
   -5.210274      4.540311    -4.131525
  -14.092350     -2.767170   -21.921664
  -20.659962     -8.734466   -37.403317
  -29.281381    -18.239987   -46.156234
  -37.720107    -27.415464   -40.450115
  -44.981070    -31.270740   -23.291476
  -51.714483    -29.342452   -12.365208
  -55.590809    -23.629836   -13.433562
  -56.951525    -20.408661   -17.677353
  -56.053910    -21.613970   -22.108516
  -57.398773    -19.521181   -23.594493
  -58.231939    -10.586090   -21.122023
  -53.359765      1.611757   -18.404229
  -45.727697     16.860300   -17.044813
  -35.553253     34.667592   -15.402390
  -24.169860     48.662488    -9.047358
  -13.396919     58.125389    -4.451433
   -5.682990     61.557845    -7.374010
    0.306135     60.450509   -10.067115
    6.376342     60.327067   -11.425492
   14.708518     58.969470   -17.706979
   25.635827     48.522414   -20.612924
   28.967190     26.108803    -9.289823
   29.700043     10.755270     8.237321
   33.248923      5.215731    19.734540
   34.088326     -7.536433    23.370219
   37.374731    -23.085913    22.932326
   38.702962    -39.633062    18.628243
   31.454213    -58.572378    18.014154
   22.914135    -72.623927    28.460949
   14.873280    -72.251523    32.656144
   10.467586    -57.070289    20.857728
    7.849585    -41.120598     2.017945
    8.003692    -28.055541   -19.113174
   17.555731    -39.540026   -11.810630
   18.237128    -59.633455    21.220256
   10.676007    -38.524946    23.720533
    6.561115    -17.691387     5.379714
    2.917379    -17.277662    -1.978444
    6.079822     -9.772415     4.075651
   11.638072     -4.769263    20.084854
   13.306482     -0.845900    27.525392
   12.163543      5.598790    22.004825
    8.937170     15.333003     8.376355
    5.298632     23.231964    -6.532268
    1.324593     21.310694   -15.587422
   -2.971174     21.538866   -18.682038
   -6.436114     31.458111   -17.403183
   -6.234189     45.123223   -16.185919
   -0.683477     52.922912   -11.193942
    5.660901     50.947327    -3.493007
    7.818919     43.510167    -1.819139
    8.522406     32.830261    -6.824890
    5.841515     19.918273   -14.496199
   -2.840975     10.221742   -17.493880
  -14.064803     -0.755462   -14.285958
  -24.102292    -16.292729    -6.012774
  -29.477328    -26.963798     8.110501
  -32.039716    -30.772555    21.659189
  -33.605475    -28.894944    30.048278
  -33.191750    -25.523040    30.246045
  -30.251762    -26.399085    17.351208
  -26.504855    -30.477855    -1.200372
  -25.703395    -34.580273   -13.363655
  -21.285486    -34.922791   -12.677060
   -9.984214    -24.795904    -2.222208
   -3.526531     -0.417103     1.660094
   -3.017692     21.405029    -0.473236
   -2.326159     29.760334     2.752617
   -1.352920     32.157960     9.233170
    2.069401     31.227600    10.519821
    8.848552     31.738518     0.164502
   15.739710     30.800102    -8.449901
   23.321362     28.643383   -10.332969
   29.530343     28.256166    -9.901574
   32.158479     23.419076    -6.274470
   36.194369     27.076585    -6.408047
   35.623939     28.814382     1.746893
   28.683924     15.495686    17.379794
   23.876199     10.115452    26.550594
   20.599410      5.255752    33.628863
   17.386551     -4.563700    37.164750
   12.556217     -7.486796    39.443351
    6.003419    -10.128966    43.512765
    0.674641    -16.687222    48.097775
   -2.681411    -32.037896    51.747228
   -3.211820    -48.402871    44.607887
   -1.288730    -55.883430    26.870502
    2.215192    -54.039603     8.438206
    6.953529    -46.578534    -7.013301
    9.004478    -58.022218    -6.725357
    6.669223    -68.616364    -2.090970
    1.065496    -47.289298   -19.745974
   -7.801767    -28.382207   -40.423348
  -17.796377    -22.201292   -45.756284
  -24.589302     -7.707172   -40.288471
  -28.697437      5.394787   -37.305603
  -30.359351     18.304956   -44.307989
  -27.271752     32.257752   -51.287246
  -26.780845     40.228960   -57.410987
  -22.986640     46.911437   -61.345265
  -14.332736     29.059966   -60.992872
  -13.375349     23.901148   -53.960341
  -11.216811     42.539266   -45.260698
   -9.703287     36.998948   -34.026215
  -17.550014     53.558831   -16.832753
  -15.042720     76.914496   -15.663047
   -3.763799     70.604163    -7.569178
   -4.470404     39.009877    19.839270
   -3.136196      9.905212    35.536880
    1.151775     28.566200    48.097256
   -1.146058     30.618448    57.053137
    0.018711     19.413332    54.992312
    3.859173     26.705220    48.044760
    7.847506     14.017765    34.947219
   10.995656     -5.244578    17.250116
   12.878205    -25.767064     2.016905
   13.785175    -41.003393    -3.462341
   14.513871    -46.271360     1.208948
   14.387570    -60.376184    21.128520
   12.545042    -66.201067    42.031466
   11.964217    -53.796618    42.722479
   10.512804    -46.999275    30.911330
    8.763312    -46.955616    17.380834
    8.265908    -45.961067     4.764325
    7.159351    -45.958728   -11.400284
    5.246657    -44.123736   -30.109089
    2.587335    -41.022364   -42.651793
   -0.969341    -34.458131   -47.582439
   -4.026534    -23.462995   -44.524986
   -4.431682    -13.097021   -31.809465
   -3.367226     -7.129466   -16.263622
   -3.556157     -2.215711    -4.858401
   -4.467805      8.342312     5.863605
   -5.543176     21.050817    12.522693
   -4.735219     23.368919    13.398998
    2.794198     17.185146    12.657829
   11.673935     15.748806     4.938443
   14.652905     16.708012    -6.599057
   14.604568     16.287271   -11.360523
   12.477994     13.804146    -6.659088
    7.683783      8.910922     7.333989
    3.581625     12.971760    25.324494
    2.970134     24.971321    39.048079
    6.403109     30.834146    45.410647
   12.321028     30.114287    43.103459
   17.328858     28.724725    34.827156
   18.917486     28.784236    25.981983
   17.830421     30.786329    17.221269
   16.698916     31.249949    10.499031
   15.864451     26.449761     6.520314
   13.216305     18.199446     0.535347
    7.456131     12.135996    -6.978217
    0.069387     12.781271   -12.521653
   -6.827229     16.825217   -18.294561
  -12.064530     16.389403   -26.899608
  -12.186932      9.366747   -35.765052
  -12.556997      1.296266   -43.510946
  -17.104584     -5.267707   -45.760961
  -15.963724    -12.562454   -36.075086
  -12.278928    -15.245164   -22.134764
  -13.029713    -12.131058   -11.357664
  -15.960086    -11.050490    -2.055107
  -20.189584    -11.601949     3.598517
  -23.547455    -12.391975     4.212606
  -25.275377    -13.809344     2.308228
  -23.833839    -14.276083     0.221155
  -18.407348    -17.299492     2.724031
  -11.176010    -20.406841     7.772141
   -3.495346    -18.027927     6.749006
    1.863838    -15.789867     4.578253
    4.925969    -14.358984     3.506520
    7.986800    -11.184846    -2.478967
   12.633401     -9.968362    -5.218850
   19.054961     -7.052282     2.244038
   25.328652     -2.459996    14.958260
   29.840896      0.858634    26.065143
   29.179769      5.773168    30.962525
   26.555271      8.991224    28.497592
   22.728583     11.192643    18.951530
   12.971760      9.389356    10.641703
    3.372424     -1.075631    11.026321
   -3.522113     -6.718080    14.860546
   -7.870375     -4.574355    20.379294
   -8.381033     -4.025495    26.855949
   -6.624525     -6.881803    29.834919
   -2.843054    -13.067395    28.604661
    0.479473    -19.985841    18.689054
    1.564719    -28.274618     0.050156
    0.499743    -36.828729   -18.742069
   -3.354232    -41.486504   -29.894691
  -11.705640    -42.078764   -31.641584
  -21.583824    -36.937358   -28.986421
  -28.294888    -29.387151   -24.909990
  -29.876240    -22.433102   -22.318757
  -27.090618    -13.591827   -24.457544
  -22.938303     -2.400744   -32.720853
  -13.648740      6.874786   -41.503396
   -2.200898     11.263069   -40.708433
    4.113073     18.097055   -31.531916
    8.388570     30.132738   -18.821332
   12.064790     44.053829    -7.567618
   14.259191     59.604089    -4.036929
   14.436427     65.872842    -2.904125
   13.545309     56.829123     4.411932
   13.152375     43.452214    16.584311
   11.762813     35.218271    28.285532
    7.839190     44.027322    34.860421
    2.966236     54.214500    38.525986
    0.537686     36.436315    42.497686
    0.661387     14.962678    40.475843
    2.472210      8.089191    32.689668
    4.105017     -2.664779    24.347356
    5.291615    -14.687728    13.597284
    4.518741    -20.617602     3.818113
   -1.342005    -22.984042    -3.091237
   -8.950684    -25.446376   -10.911456
  -16.599383    -33.419662   -19.040928
  -23.928175    -42.085521   -25.853603
  -28.828156    -43.247691   -30.713303
  -27.635840    -35.755437   -36.193590
  -25.526418    -35.997642   -31.587270
  -24.821112    -39.968563   -16.430723
  -14.406281    -24.768877   -11.469931
   -1.691539    -10.418209   -12.250862
    5.849831     -6.577747   -10.152095
   13.247490     -1.137222    -8.008110
   20.137869      1.546008    -7.594126
   24.839044      2.415817    -8.345170
   26.764992      3.698310    -5.964177
   28.634287      6.082421    -1.813162
   28.586210     10.684063     0.313152
   26.681572     17.798976    -0.524692
   24.451307     26.761094    -3.704027
   18.188791     31.347663   -10.717847
    7.436900     28.814642   -19.240254
   -5.521607     27.926902   -23.194542
  -14.160958     19.692699   -13.453313
  -16.833793     -3.028347     9.642736
  -18.008956    -12.267754    31.631709
  -19.127207     -6.194428    47.515391
  -18.946852     -3.837344    55.886289
  -15.971781     -7.591527    54.008418
  -12.187712    -18.535207    39.073287
   -9.917686    -32.175891    19.013641
   -9.002659    -39.196728     6.388816
   -6.922084    -42.511459    -1.515863
