STRONG GROUND MOTION RECORDS OF TURKIYE
PLACE                   : MUðLA YERKESIK ORMAN ISLETME
EARTHQUAKE DATE         : 2017/07/20 22:31:09 (GMT)
EPICENTER COORDINATES   : 36.91980N-27.44350E
EARTHQUAKE DEPTH (km)   : 19.44
EARTHQUAKE MAGNITUDE    : 6.5 Mw
STATION ID              : 4808
STATION COORDINATES     : 37.13920N-28.28725E
STATION ALTITUDE (m)    : 661
RECORDER TYPE           : GeoSig gmsplus
RECORDER SERIAL NO      : 101129
RECORD TIME             : 20/07/2017 22:30:58.000000 (GMT)
NUMBER OF DATA          : 15270
SAMPLING INTERVAL (sec) : 0.01
RAW PGA VALUES (gal)    : (N-S) 27.024869 (E-W) 16.344964 (U-D) 9.975898
Copyright EARTHQUAKE DEPARTMENT
DISASTER AND EMERGENCY MANAGEMENT PRESIDENCY
       N-S          E-W          U-D
[...]
    9.779691      2.684270     2.015346
   10.334529      5.851650     2.934531
    8.352707      7.772661     2.855788
    5.240680      7.573076     2.521067
    2.949344      5.187405     2.441804
    2.259371      1.750272     2.288217
    2.214412     -1.333169     1.451413
    1.412691     -2.867483     0.124741
   -0.916326     -2.641390    -0.816014
   -3.972220     -1.744294    -0.535866
   -6.578007     -1.549906     1.189717
   -7.789813     -2.475069     3.204803
   -7.530716     -3.523152     3.586303
   -6.204303     -3.156726     1.608639
   -4.415830     -1.000007    -1.446216
   -2.992484      1.597204    -3.642956
   -2.112800      3.088898    -3.859433
   -1.163469      3.230531    -2.579019
    1.385924      3.611771    -1.023136
    5.889592      5.958980     0.161384
   10.819199      9.908071     0.871108
   13.474103     13.190317     1.338886
   11.795037     13.335588     2.225327
    6.333462      9.391695     3.901533
   -0.391375      2.274444     5.105803
   -5.023682     -5.607626     4.782516
   -5.865424    -11.801274     3.394253
   -3.652051    -15.306755     1.754690
   -1.166588    -15.835865     0.722978
   -0.914247    -13.290889     0.361229
   -2.550953     -8.495639    -0.065489
   -4.055900     -2.923616    -1.357857
   -3.957407      1.708691    -3.478194
   -2.724550      3.857614    -5.206636
   -1.579273      3.600076    -5.286418
   -1.391381      2.479746    -3.737811
   -1.608379      2.197780    -2.320442
   -1.196734      3.232090    -2.459476
   -0.140593      4.052522    -3.286145
    0.958166      2.939989    -2.852930
    1.388523     -0.070427    -0.821731
    1.897362     -2.841755     1.910616
    3.396852     -2.875799     4.445976
    5.583457      0.136176     5.659341
    6.626084      3.798362     5.704820
    4.181421      4.482618     5.462615
   -2.109162      0.511178     4.684803
   -9.892738     -5.996662     2.647367
  -15.018552    -10.652618    -0.754943
  -14.546615     -9.849078    -4.436360
   -8.025781     -3.697270    -6.818133
    1.781197      3.908290    -7.004465
   10.644562      8.663260    -4.657256
   16.051563      8.611804    -0.582124
   17.641230      4.533554     2.652565
   16.829375     -0.870848     3.162703
   14.473330     -5.181428     1.510405
   10.424186     -7.370891    -0.205303
    4.514843     -7.477961    -0.425938
   -2.195701     -6.163503     0.391895
   -7.698856     -3.883082     0.996628
  -11.003972     -1.350841     0.811336
  -12.391455      0.354992     0.522613
  -12.806479      0.478434     1.114093
  -12.184853     -0.402549     1.913214
  -10.139101     -0.508839     1.409833
   -6.889339      0.890858    -0.634100
   -3.516396      2.733906    -3.048097
   -1.272358      3.297059    -4.600603
    0.246623      1.965710    -4.948578
    2.476368     -0.278328    -4.209748
    6.242246     -1.946739    -2.465973
    9.920804     -2.214412    -0.320428
   10.657816     -1.386444     1.457390
    7.021877     -0.721419     2.624238
    0.574848     -1.239094     3.027567
   -5.451180     -2.306668     2.755216
   -8.395067     -2.680891     2.281200
   -6.939496     -1.242472     2.027820
   -2.606047      2.327978     2.058746
    1.940242      6.635699     2.200379
    4.258604      9.612330     2.123975
    3.547581      9.795544     1.311079
    1.241432      7.525258    -0.623185
   -0.702188      4.522899    -3.499504
   -0.436333      2.356565    -5.955341
    1.874493      1.348762    -6.580086
    4.862299      0.788467    -5.048630
    7.155973      0.020011    -2.052509
    7.872454     -1.263782     0.605254
    6.701708     -2.805892     1.697776
    3.735732     -4.351900     1.687641
    0.344077     -5.809810     1.820438
   -1.593046     -6.726396     2.635153
   -0.134616     -6.050976     3.636199
    4.562141     -3.142173     4.170766
    9.764618      0.916326     3.610211
   11.682251      4.240673     2.130212
    8.065283      5.020304     0.872147
    0.717520      2.568105     0.489868
   -6.604254     -1.863058     0.699589
  -10.494093     -5.935851     1.205829
  -10.363895     -7.374530     1.820958
   -8.096468     -5.233663     2.481565
   -5.803573     -0.514816     3.648153
   -4.453512      4.528876     5.094109
   -3.418942      7.587109     5.442864
   -2.156199      7.206909     3.835525
   -0.821471      3.898415     1.154893
   -0.025728     -0.205563    -1.010142
    0.392934     -2.604487    -1.687381
    1.057440     -1.780157    -0.589141
    2.341752      1.235715     1.625271
    3.804339      4.140360     3.665565
    4.300964      5.136209     4.505747
    3.407767      3.462081     3.529130
    0.973239     -0.222715     0.232330
   -2.539258     -4.244571    -4.575654
   -6.651292     -7.081908    -8.364921
  -10.541131     -7.868296    -9.271632
  -12.485011     -6.232370    -7.450933
  -10.613896     -2.594092    -4.870095
   -4.041347      1.951936    -3.553298
    5.238341      5.561628    -3.523152
   13.580912      6.416883    -3.148670
   17.233743      3.789267    -1.450893
   15.007117     -1.182440     0.525731
    9.336601     -5.612044     1.494813
    4.018998     -7.045785     1.591227
    2.079016     -5.077217     2.123195
    3.768216     -1.788474     3.776013
    7.065796      0.452446     5.667138
    9.175737      1.044446     6.445469
    8.385451      0.815234     5.378155
    4.589168      0.887740     3.018731
   -1.242992      1.117471     0.296520
   -7.945999      0.510658    -1.743775
  -14.279202     -1.539771    -2.260150
  -18.200226     -3.833446    -1.745074
  -17.710877     -3.554338    -1.297306
  -11.792439      0.722718    -1.502869
   -2.684270      7.114393    -2.025481
    5.554871     11.589475    -1.985200
    9.814775     11.068941    -0.608632
    8.976411      5.796816     1.534314
    5.222228     -0.971940     3.037962
    1.533274     -5.587356     3.537965
   -0.244804     -6.439232     3.471437
   -0.553798     -4.908817     3.123462
   -0.959206     -3.660108     2.393207
   -1.690760     -4.099560     1.662433
   -2.081095     -5.854249     1.318096
   -1.514303     -7.413771     0.801721
   -0.425419     -7.164289    -0.330044
    0.440492     -4.438699    -1.670749
    0.461282     -0.202444    -2.466233
   -0.350834      4.015360    -2.412698
   -1.530416      7.077490    -1.990138
   -2.527044      8.498498    -1.987539
   -2.761193      8.933272    -2.361502
   -2.664779      9.030206    -2.458696
   -2.654124      8.757335    -2.043933
   -2.679332      7.339706    -1.137222
   -2.116958      4.181421     0.285605
   -0.768196      0.033004     2.001313
    0.754683     -3.571749     3.574348
    1.978703     -4.854242     4.662713
    2.892691     -3.257558     4.703774
    4.267700     -0.201145     3.264575
    6.002119      1.873713     0.795224
    7.088925      1.188158    -1.139561
    6.394274     -1.759107    -1.346683
    3.832146     -4.479500    -0.293141
    0.804839     -4.501330     1.087325
   -1.016119     -1.924129     1.950377
   -0.915807      0.759361     1.965190
    0.067568      0.971420     1.334988
    0.640857     -2.022103     0.511178
   -0.338360     -6.409087     0.232070
   -2.764572     -9.258378     0.723498
   -5.161417     -8.505514     1.273917
   -5.794737     -4.388803     1.087065
   -3.731834      0.675940     0.660867
   -0.343817      4.066295     0.862532
    2.421534      4.626070     1.798609
    3.184533      2.957140     2.524705
    2.210514      0.936077     1.802247
    0.891378     -0.050416     0.314191
    0.084200     -0.185292    -0.337840
    0.048597     -0.263515     0.092256
    0.623965     -0.340439     0.483891
    2.143206      0.900474     0.169440
    4.376069      3.920764    -0.306915
    6.202744      7.184819    -0.168400
    6.276030      8.515130     1.192056
    4.379707      6.428837     3.120603
    1.720905      1.831093     3.774454
   -0.562374     -2.772108     2.339673
   -1.673348     -5.208455     0.195428
   -1.662693     -4.928307    -0.780411
   -0.698030     -2.699342    -0.272611
    0.798342      0.861492     1.050683
    2.341752      4.898941     2.470391
    3.304076      7.864398     3.529649
    2.543676      8.098287     3.683756
   -0.058212      5.210274     2.195181
   -3.609692      0.640857    -0.672562
   -6.438972     -3.149709    -3.467279
   -7.144798     -3.944673    -4.479760
   -4.860480     -1.223761    -2.801474
    0.049637      3.488329     0.562374
    5.488602      7.711330     3.207142
    8.731347      9.636239     3.802001
    7.192096      8.427551     2.990924
    0.899174      4.068115     1.977924
   -7.321515     -2.264828     1.061857
  -13.465787     -8.065283    -0.068348
  -14.820785    -10.829334    -1.131764
  -11.732927     -9.809577    -1.998714
   -7.028633     -6.107369    -3.161144
   -3.934278     -2.276523    -4.603981
   -3.415304     -0.580565    -5.540838
   -4.426485     -1.237534    -5.453779
   -4.714948     -2.141906    -4.619833
   -2.735985     -0.708165    -3.564213
    1.242732      3.306155    -2.623458
    5.409080      7.986020    -2.102145
    7.275257     10.306202    -2.617741
    5.784342      8.258371    -4.187398
    1.850324      2.668417    -5.909083
   -1.860459     -3.497685    -6.773174
   -3.213639     -6.869589    -5.949624
   -1.634626     -6.125561    -3.195188
    2.197520     -2.399444     0.952189
    7.187158      1.777559     4.905958
   12.478254      4.085266     6.807738
   16.506867      3.415044     6.250821
   17.738944     -0.189190     4.540311
   15.079363     -5.074098     3.185053
    9.537226     -8.748759     2.697004
    3.836044     -9.290343     2.790039
    0.040801     -6.616728     2.730788
   -1.686082     -2.760673     2.448041
   -3.296280     -0.027027     2.504435
   -5.912722      0.806658     2.794457
   -8.950684      0.619287     2.608905
  -10.520081      0.776512     1.500530
   -9.092057      1.565499     0.155147
   -5.190263      1.867736    -0.313412
   -0.949331      0.419441     0.195428
    1.284052     -2.482865     0.702707
    1.173605     -4.557203     0.327445
    0.139814     -3.929340    -0.845380
    0.105770     -0.864871    -2.121376
    1.436080      2.644768    -3.078503
    2.815248      4.439479    -3.669203
    2.510672      4.185579    -3.506001
   -0.069907      3.094875    -2.415037
   -3.277829      2.327199    -0.751564
   -4.845407      1.719606     0.617208
   -2.746120      0.325626     0.532748
    2.380213     -1.636965    -1.128906
    7.535134     -2.703500    -3.178556
    9.378181     -1.529636    -3.434794
    6.173638      1.605000    -0.733373
    0.058472      4.826436     3.149189
   -5.450920      6.515376     5.508353
   -7.327492      5.886474     5.518228
   -5.177789      2.986766     4.060578
   -1.464407     -1.061078     2.239360
    1.080569     -4.922850     1.136702
    1.072253     -7.265121     1.011441
   -0.484930     -6.914287     0.921524
   -1.655676     -3.859173     0.355252
   -1.147877      0.586023    -0.130458
    0.822251      4.010422    -0.223754
    3.413484      4.758608    -0.228692
    5.662980      3.367226    -0.241426
    6.671822      1.647360    -0.177756
    5.946246      1.324333    -0.094075
    3.491188      2.390609    -0.330304
    0.350574      3.404649    -0.814974
   -2.243778      2.761193    -0.648913
   -2.639571      0.204523     0.824070
   -0.049896     -2.202198     2.937130
    4.702474     -2.329797     4.105017
    9.121423     -0.434774     3.540824
    9.450427      0.785088     1.447255
    3.573049     -1.545489    -1.253907
   -7.227179     -7.362575    -3.366187
  -18.000121    -13.333249    -4.610738
  -23.891532    -15.809357    -5.176490
  -22.196354    -12.945773    -4.988859
  -13.389123     -5.962098    -3.788227
   -1.650739      1.366953    -2.037176
    8.492261      6.083721    -0.844860
   14.117558      7.612057    -0.327705
   14.937990      6.988872     0.085759
   12.138075      5.404142     0.464660
    7.532015      3.603974     0.701408
    2.875279      1.692059     0.641117
   -0.361229     -0.512997    -0.097714
   -0.678279     -2.399704    -1.236755
    1.750531     -3.161664    -1.857601
    5.098787     -2.318363    -1.556663
    6.805139      0.162163    -1.073292
    5.859447      3.860473    -1.220382
    3.200645      7.553065    -1.610198
    0.292881      9.250842    -1.604740
   -1.940761      7.880250    -1.232856
   -3.368006      4.340206    -0.945173
   -3.518475      1.130725    -0.691013
   -2.116958      0.132797    -0.055094
    0.519754      0.967522     0.853176
    2.681931      1.215445     1.433482
    2.437127     -1.493773     0.844600
   -0.462061     -6.324627    -0.836024
   -4.198573    -10.091544    -2.302510
   -5.330597    -10.054121    -1.853443
   -1.143459     -6.029146     1.413211
    8.088412     -0.665805     6.069167
   18.110308      3.229232     9.449128
   23.581759      3.975079     9.975898
   20.554971      1.600063     7.220423
    9.011755     -2.836298     2.061344
   -6.361529     -8.444443    -3.086039
  -19.851484    -13.569997    -6.422340
  -27.024869    -16.344964    -7.709771
  -26.652205    -14.885755    -7.824637
  -20.286518     -8.287478    -7.588149
  -11.985007      1.123188    -6.726916
   -6.195208      9.423660    -5.377375
   -4.428824     13.720466    -3.991451
   -5.491461     13.547908    -2.891651
   -6.327225     10.689781    -2.731307
   -4.878671      7.781757    -3.140354
   -1.338367      6.528110    -2.859167
    2.569404      6.180655    -1.639044
    5.265888      5.264328    -0.080822
    6.337101      3.095915     1.639564
    5.973793     -0.475315     3.353713
    4.409593     -4.762246     4.793951
    1.179582     -8.849332     5.855808
   -3.822531    -11.848312     6.172858
   -9.874286    -12.747487     5.343331
  -15.229052    -11.050750     3.585003
  -18.003499     -7.115432     1.823557
  -16.721006     -2.275483     0.614609
  -10.916913      2.038475     0.172298
   -2.131771      5.160118     0.668923
    7.407534      6.872707     1.608899
   14.674215      7.265641     2.038215
   17.165396      6.358411     1.129945
   13.914594      3.956367    -1.221942
    6.196767      0.354212    -4.554085
   -2.635932     -3.401010    -7.695218
   -9.587382     -5.905965    -9.283326
  -12.032565     -6.109189    -9.242526
   -8.955102     -3.653611    -8.037216
   -1.970647      0.945692    -6.123482
    5.228725      5.912981    -4.406215
    9.087899      9.375063    -3.186092
    8.218350     10.353760    -1.991697
    3.951950      8.609465    -1.167627
   -0.305096      5.102945    -1.272618
   -2.023142      1.320175    -1.793931
   -0.547041     -1.443357    -1.889306
    2.537959     -2.450380    -1.401777
    5.187925     -1.718047    -0.954268
    6.682217      0.228432    -1.007023
    7.538512      1.957134    -1.536913
    8.731607      2.352407    -2.057706
    9.910929      1.489875    -1.943100
   10.545289      0.185552    -0.815494
   10.280734     -0.421520     1.198033
    9.460302      0.163982     2.961039
    8.711857      1.201151     3.754963
    7.567878      1.096421     4.149196
    5.018225     -1.055101     4.726903
    0.319909     -4.562920     5.290576
   -5.397645     -7.480819     5.180908
  -10.175224     -8.046831     4.041607
  -12.576228     -6.042400     2.661660
  -12.482672     -2.885154     2.478447
  -10.845707     -0.799642     3.617488
   -8.412998     -0.954788     4.612297
   -5.436367     -2.885674     3.879444
   -1.782496     -5.498737     1.542630
    1.628909     -8.187425    -0.579786
    3.253660    -10.839730    -0.961285
    1.805625    -12.810377     0.477654
   -2.119557    -12.588702     2.351367
   -6.029146     -8.795797     3.225074
   -8.296313     -2.140607     2.767430
   -8.950164      4.459749     1.529116
   -9.442631      8.075158     0.543403
  -10.852204      8.050470     0.733113
  -12.927062      6.578786     1.886707
  -13.644582      7.056440     2.777825
  -10.736818     10.641184     3.065249
   -4.219363     14.697084     3.268733
    3.910629     15.364448     3.541084
   10.428864     10.708492     3.372684
   12.532828      3.046018     1.995855
    9.191330     -2.747420    -0.479473
    2.325899     -3.714682    -3.165042
   -4.937923     -0.547041    -5.190004
  -10.315558      3.155946    -6.344117
  -12.167441      3.474555    -7.026554
  -10.194715     -0.022349    -7.641163
   -5.402323     -3.971700    -8.145065
   -0.233889     -4.743015    -7.729262
    3.109688     -0.596678    -5.776026
    4.278355      6.840482    -2.787181
    4.585010     13.686162    -0.368765
    5.310067     16.245691    -0.341219
    5.803573     12.311673    -2.894770
    4.044986      3.123722    -5.876079
   -1.281194     -7.320995    -7.033831
   -8.678592    -14.194222    -6.245884
  -15.080143    -14.297133    -5.100606
  -17.380054     -8.184306    -4.843328
  -14.910963      0.078483    -4.911415
   -9.958227      5.446502    -4.495612
   -4.771861      5.726130    -3.427778
   -0.672822      2.691806    -1.920751
    2.709218      0.724797    -0.438672
    5.797596      2.661920     1.114353
    7.988619      7.078790     2.426731
    8.254473     10.134423     2.479227
    6.356591      8.381293     0.928541
    3.812136      1.728962    -1.335248
    2.430889     -6.748486    -3.073046
    3.330324    -13.203311    -3.587082
    5.659601    -14.704360    -2.996902
    7.713409    -10.910416    -1.864877
    7.669750     -4.419468    -0.799901
    4.340466      1.124488    -0.964144
   -1.333689      3.421281    -2.738324
   -7.244331      2.267947    -4.923630
  -10.533854     -0.493506    -5.885175
   -9.043720     -1.938942    -4.698316
   -2.650226     -0.229471    -1.854482
    6.059032      3.821231     1.241952
   13.380027      7.772661     3.103711
   16.388103      9.397932     3.492747
   14.039075      7.543710     3.010935
    8.380254      3.179075     2.005991
    2.544716     -1.185299     1.082128
   -0.533008     -2.977151     1.159051
    0.430356     -1.459209     2.433748
    4.452992      1.596684     3.730534
    9.105570      3.928820     4.195454
   11.552832      3.834745     4.141400
   10.186659      1.254686     3.885681
    5.221709     -1.752610     3.313952
   -0.973499     -2.872420     2.521067
   -5.883355     -1.551466     2.152041
   -7.991997      0.648133     2.726370
   -7.389862      1.488835     4.076950
   -5.719633     -0.070167     5.276023
   -4.918172     -3.194148     5.523426
   -6.682997     -6.069167     4.904399
  -10.988639     -7.018498     4.188957
  -16.529736     -5.703521     3.697270
  -21.050817     -3.090717     2.730268
  -22.168548     -0.625784     0.917886
  -19.004285      0.675160    -1.083947
