STRONG GROUND MOTION RECORDS OF TURKIYE
PLACE                   : AYDýN CINE GIDA TARIM HAYVANCILIK MUD.
EARTHQUAKE DATE         : 2017/07/20 22:31:09 (GMT)
EPICENTER COORDINATES   : 36.91980N-27.44350E
EARTHQUAKE DEPTH (km)   : 19.44
EARTHQUAKE MAGNITUDE    : 6.5 Mw
STATION ID              : 0917
STATION COORDINATES     : 37.60520N-28.05840E
STATION ALTITUDE (m)    : 81
RECORDER TYPE           : GeoSig gmsplus
RECORDER SERIAL NO      : 101898
RECORD TIME             : 20/07/2017 22:30:57.000000 (GMT)
NUMBER OF DATA          : 15274
SAMPLING INTERVAL (sec) : 0.01
RAW PGA VALUES (gal)    : (N-S) 36.824051 (E-W) 32.418616 (U-D) 23.13633
Copyright EARTHQUAKE DEPARTMENT
DISASTER AND EMERGENCY MANAGEMENT PRESIDENCY
       N-S          E-W          U-D
[...]
    6.238607    -13.957214     4.840989
    6.924423    -14.500877     5.028620
    7.109455    -15.075985     4.933505
    7.377388    -15.383419     4.381786
    7.863878    -15.673182     3.965463
    7.914294    -15.612111     3.366447
    7.100100    -14.101966     2.130991
    5.920258    -11.348569     1.317836
    4.555904     -8.387790     1.037689
    3.079023     -5.631275     0.638518
    1.984941     -3.174917     0.379420
    1.456611     -1.084986     0.130978
    1.234416      1.057959    -0.439192
    0.752084      3.873727    -0.557436
   -0.532228      7.004725    -0.186592
   -2.344091      9.476675     0.038982
   -3.764578     10.968629     0.333682
   -4.457150     12.130539     0.156706
   -4.741716     13.397179    -0.495585
   -5.197020     14.157319    -1.021576
   -6.426238     14.100666    -1.925689
   -8.217830     14.020364    -2.556150
   -9.778912     14.498278    -2.000273
  -10.691600     14.989705    -1.008063
  -11.093889     14.403163    -0.327965
  -11.312966     12.152888     0.102392
  -11.380793      9.575688     0.244025
  -10.538792      9.105830    -0.094075
   -8.020064     11.060625    -0.765338
   -4.578513     12.881843    -2.244298
   -1.990398     11.775547    -4.411412
   -1.435041      7.923130    -6.042140
   -2.314724      4.343584    -7.230818
   -3.508080      3.645295    -7.642203
   -5.135689      5.541877    -6.190790
   -6.959246      7.656756    -4.006004
   -7.714968      8.657023    -2.394507
   -6.940535      8.585556    -1.135922
   -5.723531      7.934824    -0.336021
   -5.548114      7.670789     0.116685
   -6.572549      8.094129     0.281967
   -7.336847      8.741223    -0.551199
   -6.839703      9.176517    -1.677506
   -5.773427      9.200945    -2.647107
   -4.978204      8.323341    -3.884122
   -4.409853      5.403363    -4.805905
   -3.387237      0.617728    -5.506014
   -1.730001     -3.372164    -6.061891
   -0.389556     -3.891398    -6.081382
   -0.147350     -0.766377    -5.137768
   -0.577447      3.886461    -3.273671
   -1.137222      7.240433    -1.982602
   -1.946739      7.560342    -1.134103
   -2.498717      5.485484    -0.381759
   -2.326679      3.741449    -0.385917
   -1.850584      4.241193     0.101612
   -1.468565      5.800195     1.018718
   -1.593306      6.595418     1.384625
   -2.662960      6.310073     2.056147
   -4.685322      5.509392     2.401004
   -6.516676      5.107103     1.413731
   -6.868809      5.571243     0.622405
   -5.902846      6.518495     0.843301
   -4.370871      7.265641     1.094342
   -2.290816      7.376089     1.339146
    0.723757      6.695731     1.753910
    3.915567      5.251594     2.166595
    5.665578      3.290043     2.681931
    5.322801      1.628909     3.261196
    4.056420      1.139821     3.973259
    3.253660      1.421787     4.284072
    2.787181      1.369032     4.259904
    2.434008      0.347975     4.571496
    2.746120     -1.692839     5.097747
    4.452733     -4.355279     6.111008
    7.514343     -7.048384     6.792665
   10.968369     -9.375323     6.093076
   13.900821    -11.401064     5.198320
   15.607433    -13.315838     4.831113
   16.082228    -14.955402     4.463387
   15.965803    -16.278955     4.249769
   16.073652    -17.821065     4.344884
   16.388103    -19.867337     4.464947
   16.087946    -21.988193     4.556943
   15.247503    -23.232744     4.722485
   14.417716    -22.936484     4.822278
   13.805706    -21.750146     4.338387
   13.124048    -20.518329     3.198046
   12.088698    -19.306782     1.537432
   10.698876    -18.111608    -0.290542
    8.687688    -17.249336    -1.619813
    6.010175    -17.219970    -1.962851
    3.450387    -18.335362    -1.083687
    2.027560    -20.357725     0.183473
    1.817840    -22.494953     1.209987
    2.317323    -23.819546     2.124494
    3.298879    -23.514451     2.691806
    4.788494    -21.681538     2.599810
    6.575408    -19.656836     1.752610
    7.585550    -18.394354     0.428797
    6.724057    -17.175531    -1.295227
    3.998208    -14.324420    -2.790299
    0.456864     -9.415344    -2.967535
   -2.459476     -3.784589    -2.724291
   -3.567591      0.773134    -3.750805
   -2.669716      3.039521    -5.513291
   -0.829268      3.204024    -5.994063
    0.532748      3.036143    -5.370098
    0.687635      4.217804    -5.127373
    0.318349      5.882836    -4.654137
    0.631241      6.245104    -3.771855
    1.892684      5.457417    -2.942327
    3.456884      4.445976    -1.818099
    4.123468      3.816294    -1.536393
    2.891651      3.932719    -2.131251
    0.279108      4.599043    -2.715195
   -2.088631      5.472490    -3.561614
   -3.684796      6.489648    -3.976638
   -5.270306      7.868296    -4.437400
   -7.342565      9.475895    -5.076177
   -9.278648     10.489935    -4.621912
   -9.800741     10.441078    -3.693372
   -8.704060      9.528910    -3.227932
   -7.199113      8.083734    -3.561614
   -6.550200      6.662986    -4.289790
   -7.059819      5.834499    -4.997954
   -8.247197      5.224567    -5.869582
   -9.595438      4.245351    -6.406488
  -10.832453      3.639318    -6.483671
  -11.849871      4.562401    -6.684296
  -12.058033      7.084247    -7.266421
  -10.862599     10.438479    -7.681704
   -9.373763     13.782317    -7.111014
   -9.616489     16.452813    -6.016672
  -12.061931     18.488170    -4.477681
  -15.296100     20.615263    -1.395280
  -18.175018     23.069021     1.694658
  -20.542237     25.013161     2.832140
  -22.211427     25.275637     2.996382
  -23.197401     23.955462     3.150749
  -23.796677     22.690121     3.412965
  -23.870742     22.599943     3.251841
  -23.194802     23.044593     2.502875
  -22.475722     22.741317     2.241179
  -22.096302     21.140474     2.986506
  -21.082002     18.741030     4.070973
  -18.785989     16.610558     4.454032
  -15.785449     15.266214     4.442597
  -13.000867     14.335335     4.447015
  -10.606100     13.304143     4.353200
   -8.164036     11.860786     4.912975
   -5.416616      9.868049     5.820465
   -2.498717      7.544229     6.229252
    0.433995      5.340732     6.585543
    3.268993      3.520554     7.360236
    5.672075      2.590714     7.787994
    7.224581      3.151009     7.799688
    7.659095      4.577473     8.504215
    6.946772      5.415317     9.269293
    5.366200      5.096708     9.386237
    3.730274      4.448574     8.745641
    2.940248      4.436880     7.399478
    3.440512      4.582151     6.348795
    4.919731      3.550699     5.356065
    6.306175      0.800941     4.431163
    6.904932     -2.932712     3.590201
    7.094902     -5.961578     2.156199
    7.883629     -7.383106     0.951670
    9.864671     -7.975885    -0.122662
   12.532828     -8.817107    -1.046005
   14.739444    -10.302564    -0.404109
   15.530250    -12.016453     1.624751
   14.884195    -13.327792     3.503922
   13.846247    -14.054928     4.486517
   13.466566    -14.627697     5.007310
   13.532055    -15.348336     4.587609
   13.490475    -16.296367     3.360210
   13.700715    -18.258438     2.411139
   14.525825    -20.945826     1.204530
   15.514917    -22.341886    -0.046518
   16.072093    -21.209601    -0.870328
   16.298446    -18.218417    -1.410612
   16.215545    -15.376922    -1.025475
   15.263616    -14.083254    -0.299118
   13.409913    -13.926029    -0.213359
   11.499557    -13.871455    -0.470377
   10.224861    -13.728003    -0.802760
    9.524752    -14.059086    -1.083947
    9.524232    -15.256859    -1.247669
   10.662753    -16.987120    -1.042107
   12.809857    -17.948665    -0.488829
   15.081182    -17.184627    -0.642936
   16.420848    -15.279208    -1.500010
   16.480620    -13.623272    -2.396586
   15.598077    -12.974619    -3.327725
   14.647967    -12.697330    -4.362815
   14.512051    -11.821805    -5.806692
   14.919279    -10.406255    -6.850877
   14.827022     -9.388057    -6.774993
   13.890166     -9.161704    -6.240686
   12.936937     -9.299698    -5.449101
   12.840782     -9.090757    -5.002112
   13.699416     -7.995636    -5.113860
   14.855089     -6.566312    -5.007830
   15.319749     -5.668437    -4.937403
   14.417976     -5.697283    -4.816560
   11.800755     -6.390116    -4.251068
    7.915594     -6.649213    -3.686095
    3.847739     -5.836837    -3.141133
    0.537945     -4.455591    -2.555630
   -1.912175     -3.114366    -2.480266
   -4.546808     -1.635406    -2.984687
   -8.337894      0.375522    -3.469878
  -13.092863      2.889572    -3.814994
  -17.354586      5.187925    -4.415050
  -19.792232      6.266934    -5.611264
  -19.912295      5.990685    -7.303323
  -17.777146      5.266927    -9.478754
  -14.351707      5.212613   -11.912762
  -11.288797      6.085020   -13.402117
  -10.174185      7.469125   -13.771922
  -11.400024      8.558269   -13.288810
  -14.213453      8.472770   -11.931213
  -17.526885      7.569697   -10.830894
  -20.577581      7.137782    -9.832706
  -23.488463      7.855302    -7.619074
  -26.676894      9.613630    -4.653098
  -29.869743     12.306735    -2.062124
  -32.184467     15.362369    -0.344337
  -33.155108     17.598351     0.720639
  -32.891852     18.175538     2.031718
  -31.871835     17.049231     3.298359
  -30.614550     15.393294     3.699869
  -29.229406     14.411219     4.056420
  -27.821652     14.188505     4.526018
  -26.287078     14.610025     4.664272
  -24.130359     15.529730     5.059545
  -21.315112     16.678906     5.237561
  -18.645915     17.898509     5.070980
  -17.244398     18.587702     5.331117
  -17.459057     18.139934     5.269786
  -18.152668     17.025062     4.568898
  -17.684370     15.981136     3.810836
  -15.167721     15.377962     3.287444
  -10.823097     15.269333     3.350074
   -6.303057     15.074945     3.904912
   -3.294980     14.414078     4.666611
   -1.648660     13.339486     5.282780
   -0.352913     11.803353     5.246917
    1.029893      9.860513     4.882569
    2.071999      7.856342     5.114899
    2.072779      6.171299     5.852430
    1.130205      4.669470     6.615429
   -0.181134      2.803033     7.170266
   -1.251568      0.456864     7.027594
   -1.128646     -1.647100     6.598797
    0.631761     -2.778345     6.382839
    3.168161     -2.927514     5.963398
    5.203517     -2.599550     5.508613
    5.606846     -2.458436     5.547854
    3.746907     -2.891911     5.940009
    0.542363     -3.978457     6.292142
   -2.155420     -5.510952     6.440532
   -3.117225     -7.282013     6.679359
   -2.135929     -9.145851     6.792145
    0.545222    -10.598824     6.296560
    4.410373    -11.364421     5.883355
    8.338933    -11.486823     5.707159
   11.615982    -11.245138     5.313445
   14.373277    -11.206156     4.725863
   16.519861    -11.463174     4.081628
   17.726210    -11.458757     3.664006
   18.069768    -10.471484     2.898408
   18.148510     -8.427811     1.534574
   18.573929     -6.186112     0.185032
   19.409433     -4.942341    -1.023656
   20.471811     -5.079556    -2.106303
   21.635280     -5.643489    -3.175697
   22.494173     -5.824623    -3.805379
   22.609039     -5.938189    -3.678299
   22.282634     -6.643756    -2.777305
   22.176864     -8.124795    -1.183220
   22.262363     -9.922624    -0.099273
   21.821872    -11.540618     0.475835
   20.406582    -12.880284     1.229218
   18.274551    -13.833513     1.457910
   16.263622    -14.539339     0.900214
   15.459563    -15.364968     0.110708
   16.093663    -15.916167    -0.566792
   17.049231    -15.702808    -1.257025
   17.190084    -14.981129    -1.807964
   16.546888    -14.267767    -2.054328
   15.791166    -14.056227    -2.205316
   15.300778    -14.680971    -2.051209
   14.818187    -16.097301    -2.013267
   13.918492    -17.822105    -2.681151
   12.620927    -19.231678    -3.356571
   11.431469    -19.432563    -3.935317
   11.044513    -17.682811    -5.118797
   11.298412    -14.546615    -6.344377
   10.921071    -10.959533    -6.957687
    8.807232     -7.076711    -7.029673
    5.437666     -3.197527    -6.257318
    2.494819     -0.152548    -5.278622
    0.970641      1.767423    -5.001853
    0.472456      2.778345    -5.228725
   -0.036383      3.029906    -5.501076
   -0.964144      2.889312    -5.044213
   -2.561088      3.024968    -4.209748
   -5.541357      3.972480    -4.010162
   -9.929121      5.400764    -3.868529
  -14.798436      6.440532    -2.970654
  -18.896696      6.676760    -1.983901
  -21.502223      6.457684    -1.806145
  -22.726763      6.289023    -2.173091
  -23.365281      6.411945    -2.640610
  -24.090338      7.182740    -2.781204
  -24.653751      8.947565    -2.551472
  -24.598398     11.906785    -2.552252
  -23.866324     15.446309    -2.610724
  -23.007431     18.061192    -2.768210
  -22.742876     18.836665    -3.283546
  -23.644649     18.007137    -3.341498
  -25.983542     16.758168    -3.204024
  -29.355966     16.475942    -3.662706
  -33.023090     17.783123    -4.306162
  -35.877319     20.514431    -5.115159
  -36.824051     24.079423    -6.046818
  -35.707360     27.460943    -6.787987
  -33.490349     29.319583    -7.300465
  -31.183941     29.162877    -7.392461
  -28.896503     27.649354    -7.049164
  -26.375436     25.554225    -6.153627
  -23.487683     23.479887    -4.579812
  -20.343431     21.924783    -2.506254
  -16.913575     21.002739    -0.451926
  -13.052322     20.369419     0.616168
   -9.052555     20.069261     0.795224
   -5.398685     20.455179     1.217004
   -2.478187     21.192190     1.681664
   -0.552239     21.218697     1.748193
    0.251041     19.677886     2.516389
    0.527810     17.215032     4.267440
    1.320695     15.012834     6.038242
    2.905165     13.197334     7.799948
    4.978724     11.360263     9.188471
    7.353220      9.425999     9.600636
    9.942374      7.288250     9.696791
   12.262816      4.789533     9.361809
   13.585070      2.437127     8.494859
   13.467866      0.484151     7.822817
   12.160424     -1.378907     7.310080
   10.678606     -3.380480     7.082168
   10.084007     -5.605547     7.044746
   10.828035     -7.700935     7.046825
   12.177576     -9.161704     7.128426
   12.822071     -9.931979     6.477174
   12.050756    -10.373250     5.489382
   10.034631    -10.721226     5.345670
    7.795011    -10.876632     5.867243
    6.062930    -10.738378     6.552279
    4.567078    -10.611558     6.726656
    2.969355    -10.654177     5.778105
    1.866696    -10.633647     4.446755
    2.345650    -10.660674     3.576427
    4.487296    -10.893524     2.930893
    7.262523    -11.493840     2.372157
    9.950950    -12.684596     1.984161
   12.868070    -14.327019     1.537952
   16.212946    -15.899535     0.824850
   19.288331    -16.949178    -0.409046
   21.049777    -17.603808    -2.097207
   20.912562    -18.096535    -3.626324
   19.670610    -18.487650    -4.797070
   18.808858    -18.916967    -5.544476
   18.890719    -19.784436    -5.997441
   19.271959    -21.363968    -6.276809
   19.240254    -23.235603    -5.699103
   18.971541    -24.639458    -4.800968
   18.993630    -25.269140    -4.544209
   19.494933    -25.749653    -4.508866
   19.982462    -26.723152    -4.517442
   19.650599    -28.093743    -4.867496
   18.360830    -29.406642    -5.585017
   16.741276    -30.022031    -6.174937
   15.384718    -29.196141    -6.419222
   14.313505    -26.777986    -6.991471
   13.183300    -23.543037    -8.283839
   11.489942    -20.243379    -9.642736
    8.824903    -17.408381   -10.429384
    5.281220    -15.329624   -10.924969
    1.681404    -13.591567   -10.965510
   -1.106816    -11.692646    -9.816854
   -3.121383     -9.707445    -8.077757
   -4.789013     -7.844647    -7.048644
   -5.974052     -5.823324    -6.758621
   -6.464960     -3.551739    -6.143492
   -6.485490     -1.468045    -4.911156
   -5.831900      0.330564    -3.815514
   -4.296806      1.908537    -2.940768
   -2.600849      2.783543    -2.472730
   -1.626310      2.207915    -2.698043
   -1.633847      0.001819    -2.520807
   -2.306928     -3.003139    -1.806665
   -3.560835     -5.392188    -1.327192
   -5.408040     -6.057993    -0.857854
   -7.228479     -4.647640    -0.306915
   -8.282020     -1.824856     0.408007
   -8.392988      0.860973     1.444136
   -8.291116      2.493000     2.392688
   -9.108949      3.525751     2.829281
  -11.370918      4.763286     2.776006
  -14.722032      6.639597     2.744041
  -18.346537      9.409107     3.139054
  -21.342399     13.153155     3.801481
  -23.235603     17.295854     4.483398
  -24.373864     20.984808     5.372957
  -25.051103     23.959360     6.671562
  -25.059679     26.662860     7.974066
  -24.130619     29.220050     8.751618
  -22.473123     31.082589     8.844134
  -20.901647     32.095589     8.602448
  -19.996756     32.418616     8.432229
  -19.709072     32.062845     8.269286
  -19.717128     30.805560     8.312945
  -19.858761     28.465627     8.635193
  -19.748053     25.846587     8.821265
  -18.788587     24.187012     8.602708
  -16.999074     23.878798     7.712889
  -15.126920     24.429478     6.516156
  -14.053109     24.771476     5.352427
  -13.797909     23.778745     3.823570
  -13.615996     21.190890     2.542377
  -12.566352     17.697624     2.021063
   -9.972260     14.414078     1.609938
   -6.083721     11.977471     1.475062
   -2.156459     10.093623     1.589408
    0.474276      8.561388     1.207129
    1.557443      7.361276     0.774693
    1.772361      6.195987     0.847719
    2.017945      5.036936     0.944653
    2.605007      4.135683     0.907490
    3.429857      3.609432     1.002086
    4.640364      3.449347     0.830827
    6.287464      3.411405     0.002339
    8.092310      2.976891    -1.057959
    9.522933      2.282240    -1.764565
   10.717068      2.286918    -2.110201
   12.344417      3.284326    -2.323041
   14.320782      4.225860    -2.642949
   16.005565      4.010162    -3.268993
   16.785715      2.723511    -3.567591
   16.708532      1.106037    -3.634120
   16.651879     -0.060811    -4.255226
   17.502976     -0.347196    -4.725084
   19.099920     -0.261956    -4.484178
   20.632415     -0.717520    -3.904132
   21.605654     -2.106563    -3.320708
   21.242346     -4.088905    -2.625537
   18.779232     -6.144532    -1.958693
   14.591314     -7.928328    -1.864098
   10.251368     -9.438473    -1.747153
    7.004205    -10.730061    -1.839150
    4.813182    -11.432769    -2.598510
    3.408287    -11.454858    -2.957140
    3.060571    -10.670290    -3.052255
    4.470144     -8.807491    -2.958700
    7.409613     -6.407787    -2.408540
