STRONG GROUND MOTION RECORDS OF TURKIYE
PLACE                   : MUðLA MILAS METEOROLOJÝ MÜDÜRLÜÐÜ
EARTHQUAKE DATE         : 2017/07/20 22:31:09 (GMT)
EPICENTER COORDINATES   : 36.91980N-27.44350E
EARTHQUAKE DEPTH (km)   : 19.44
EARTHQUAKE MAGNITUDE    : 6.5 Mw
STATION ID              : 4806
STATION COORDINATES     : 37.30253N-27.78054E
STATION ALTITUDE (m)    : 52
RECORDER TYPE           : GeoSig gmsplus
RECORDER SERIAL NO      : 101126
RECORD TIME             : 20/07/2017 22:30:59.000000 (GMT)
NUMBER OF DATA          : 9166
SAMPLING INTERVAL (sec) : 0.01
RAW PGA VALUES (gal)    : (N-S) 58.542232 (E-W) 59.994425 (U-D) 25.542791
Copyright EARTHQUAKE DEPARTMENT
DISASTER AND EMERGENCY MANAGEMENT PRESIDENCY
       N-S          E-W          U-D
[...]
  -14.101966    -16.027394    -1.488835
  -10.887547    -13.879251    -3.896076
   -7.251348     -9.685616    -4.884648
   -5.231584     -4.386984    -2.813169
   -5.303830      0.497924    -0.411125
   -6.685856      4.693638     0.699589
   -7.772141      7.685602     2.428810
   -7.761486      8.622719     3.194928
   -6.003678      7.010442     1.078749
   -2.569404      3.011195    -1.082128
   -0.150729     -0.272611    -1.156453
    0.960246     -0.227132     0.235968
    3.140614      1.880470     0.860713
    6.061891      4.146857    -1.228698
    8.899488      6.431176    -4.077990
   11.494620      9.828548    -4.039008
   13.067915     13.655757    -0.903332
   13.380287     15.206443     1.529116
   12.456944     12.624305     0.620586
   10.154694      6.492767    -1.618774
    6.620107     -0.963364    -2.349288
    2.273664     -8.143766    -1.785615
   -2.822784    -14.215012    -1.298605
   -8.264868    -19.404756    -0.451406
  -12.533088    -23.514970     1.265861
  -13.908617    -24.654791     2.129172
  -11.487603    -22.213766     1.710510
   -6.917146    -17.731148     1.923090
   -3.254180    -13.008143     2.216751
   -1.165029     -9.256819     0.446729
    0.638518     -6.713143    -2.183487
    2.964937     -3.294721    -2.448821
    5.413758      2.497678    -0.329524
    6.585543      8.159358     2.015346
    5.141147      9.620127     4.132304
    1.536393      5.736785     6.051236
   -1.593566      0.495066     7.058259
   -2.435047     -1.469085     7.260184
   -2.006770      0.802760     7.469125
   -2.673355      5.031479     7.552285
   -4.740416      8.157799     6.889859
   -4.954815      9.199126     5.474309
   -1.173605      9.519554     4.094622
    5.244838     11.432509     3.517435
   11.146644     15.012834     2.633334
   13.430703     16.852244    -0.296000
   12.110528     14.427851    -5.023422
    8.914301      9.529430    -9.877925
    5.770049      4.587869   -11.998521
    4.313438     -0.236488    -9.779951
    3.326685     -4.274717    -6.066569
    1.747153     -6.954309    -2.803293
    0.006237     -8.809311    -0.052235
   -1.883329     -9.919245    -0.728435
   -3.169460    -10.632608    -4.555904
   -5.104504    -11.781264    -6.075405
   -9.454325    -13.633667    -3.517695
  -12.179915    -14.398745     0.157226
   -8.960819    -12.061671     2.496898
   -1.943620     -7.876092     3.235729
    5.005751     -3.803300     2.952463
    9.814515     -0.226353     2.234422
   10.746174      1.832912     2.195701
    8.157279      0.898135     3.395033
    4.968328     -1.983901     4.945459
    3.663226     -4.186878     4.855802
    4.815261     -4.626330     1.593306
    6.588662     -3.216498    -3.194148
    6.398691     -0.173338    -6.382319
    3.847219      2.966756    -7.414811
    1.021317      4.953256    -7.262263
    0.051716      7.357638    -5.846713
    0.776772     11.635993    -3.718580
    1.230777     16.176564    -2.001833
   -0.151508     18.735572    -0.759101
   -3.363068     17.306509    -0.099013
   -7.490955     11.126374    -0.043659
  -11.033338      2.590454    -0.484930
  -12.668224     -5.461055    -0.996368
  -12.553618    -12.164323    -1.177503
  -11.897429    -17.549234    -1.949597
  -11.270606    -20.708299    -3.348515
   -9.643256    -20.788341    -4.654917
   -6.894277    -18.374603    -6.742509
   -4.123988    -14.314025    -9.483172
   -2.080575     -9.926002   -10.504488
   -2.013527     -5.902326    -8.246677
   -3.909330     -1.444656    -3.667644
   -6.292662      3.234429     0.604734
   -7.858940      7.290589     3.477414
   -8.619600     10.460569     5.770309
  -10.340246     12.236049     6.784089
  -11.943687     11.997482     5.543436
  -10.718627      9.502143     2.859427
   -7.730821      5.707159     0.610451
   -4.910636      2.547834     1.016119
   -2.693625      1.281453     3.621646
   -0.814974      1.416330     5.387510
    1.044446      1.791592     4.854502
    1.534834      1.614616     3.046538
    0.227132      0.095375     0.770275
   -0.612270     -2.043153    -2.675953
   -0.352393     -3.367746    -6.461582
   -0.993510     -2.792378    -8.714196
   -2.973773      0.228432    -9.620127
   -3.871907      4.100599    -8.164816
   -2.444923      6.812676    -3.105010
   -0.029626      7.691580     2.583697
    2.425952      8.054108     6.122442
    4.676487      9.108689     7.987579
    6.230811      9.932499     8.714715
    7.348022     10.531256     7.580872
    8.176510     11.392748     4.242752
    7.090484     11.067382     0.244544
    3.681158      8.042933    -2.610205
    0.543403      3.275490    -5.050969
   -0.156186     -1.215705    -8.443923
    0.568871     -4.751591   -11.666398
    0.144492     -6.247703   -12.721759
   -1.885927     -5.311366   -11.661980
   -4.022896     -4.772381   -10.724864
   -5.340212     -6.614909   -10.958753
   -5.845673     -8.972253   -10.457710
   -6.264075     -9.497205    -7.703014
   -7.927548     -7.794751    -3.734692
  -10.874553     -4.785895    -0.238047
  -13.329091     -2.236242     2.176730
  -14.091051     -1.179582     2.995602
  -13.525298     -1.770542     2.009369
  -13.077271     -4.211827     1.528856
  -13.725664     -8.528903     3.735992
  -14.391988    -14.348069     6.673122
  -13.593906    -19.765725     7.535134
  -11.027101    -22.287311     6.639338
   -7.183780    -21.324987     5.433768
   -3.092536    -17.706200     4.806425
    0.407487    -12.979817     4.964690
    3.145551     -9.252661     5.272904
    5.876079     -6.267973     5.427791
    9.399751     -2.163736     4.925189
   13.301544      2.583437     3.020550
   16.700995      6.801761     0.375782
   18.842642     10.011242    -0.991691
   19.307302     11.001113    -0.656449
   18.369925      9.608172    -0.853176
   17.513111      8.161437    -1.702194
   17.130052      8.306189    -1.482598
   15.828069      8.239400    -1.372670
   14.243079      5.822284    -3.035363
   13.173425      1.779378    -4.785895
   11.720193     -2.303550    -4.231837
    9.516956     -4.616975    -1.977924
    7.052282     -3.735732    -0.669703
    5.040574     -1.405415    -1.575894
    2.948305     -0.291582    -3.050696
   -0.389815     -0.849798    -3.517175
   -4.610218     -1.740916    -3.547321
   -8.227706     -1.642423    -2.969095
  -10.647421     -0.907490    -0.412685
  -12.335062     -0.520274     3.804080
  -12.847799     -2.020544     7.714968
  -11.800495     -6.853996     9.614669
  -10.836611    -13.065836     9.181195
  -11.115719    -17.402663     7.562421
  -11.967076    -19.105118     5.834499
  -13.037509    -18.457244     3.574868
  -14.002173    -16.041428     0.702967
  -13.543750    -12.804660    -1.378388
  -11.120916     -8.588155    -2.325120
   -7.615955     -3.168680    -2.841495
   -3.945193      2.121896    -3.243265
   -1.264302      5.321501    -3.657249
   -0.208681      5.819686    -4.033551
    0.343298      4.588908    -4.187138
    1.539511      2.502875    -4.133604
    3.094875      0.219596    -4.563700
    3.872427     -1.366433    -5.456377
    3.749245     -1.813682    -5.486783
    4.006524     -1.294187    -3.810836
    5.456118     -0.267413    -0.936077
    7.434041      0.763259     2.398925
    8.073339      1.502609     5.558769
    6.429097      1.932705     6.923383
    3.813175      1.881250     6.285385
    1.820958      0.674641     5.369579
    1.309000     -1.686862     4.190777
    2.164256     -3.719620     2.259631
    3.092017     -4.734959     1.445436
    2.829021     -4.927528     2.121636
    1.638265     -3.202724     0.941794
    1.327971      0.753643    -2.513011
    2.232603      5.517708    -4.434021
    2.594612     10.047624    -3.482872
    1.476101     13.815061    -1.449854
   -1.384105     15.643296     0.773134
   -6.565273     14.386271     3.383079
  -13.280754     11.391189     6.077224
  -18.664366      8.943407     8.085813
  -20.159179      7.377908     9.501363
  -17.621740      6.394274    11.044253
  -13.187458      6.095675    11.269826
   -8.787741      5.958720     8.914301
   -5.073319      5.240420     5.599310
   -3.604754      4.465726     2.002872
   -4.835012      3.957407    -2.062644
   -6.422600      2.932192    -5.001853
   -7.005244      1.890085    -5.974052
   -6.467559      2.728968    -6.203524
   -4.512504      5.896609    -6.530709
   -2.223248      9.315811    -7.042927
   -1.389043     11.093369    -7.351920
   -2.001053     10.788014    -6.619327
   -2.612284      9.088418    -4.812662
   -1.756509      7.183520    -2.191023
    0.809517      5.228205     0.405408
    3.846180      3.056154     1.911135
    6.323327      0.351354     2.995602
    7.679885     -2.532761     4.228719
    7.538772     -4.470924     5.181688
    6.486270     -5.202738     5.468332
    5.887773     -4.837350     4.864638
    6.562674     -3.629442     3.812136
    7.947818     -1.525218     2.271325
    8.830620      1.704013     0.145791
    8.817886      5.692866    -1.106816
    8.347249      9.907811    -0.992210
    8.125574     14.119117     0.042100
    9.152088     17.928914     2.085253
   11.593373     20.923217     3.854756
   14.919279     23.168294     3.864371
   18.202045     24.161804     1.775480
   19.563541     23.038876    -2.179848
   17.754797     19.197634    -6.962625
   13.189278     12.992031   -10.603761
    7.015899      6.054095   -11.284379
    0.170479     -0.263255    -9.737591
   -5.725610     -5.796297    -7.596205
   -8.871161    -11.026061    -5.426492
   -9.697570    -15.829368    -3.517695
   -9.803600    -19.730901    -1.951416
  -10.203551    -23.215852    -1.554584
  -11.349868    -27.804760    -1.443617
  -13.424986    -34.570918     0.879164
  -16.795331    -42.552000     4.112034
  -20.410740    -49.305943     6.128419
  -22.082009    -52.888608     8.099067
  -21.683877    -52.511006    11.704600
  -19.508707    -48.070488    17.022203
  -14.628736    -40.935565    21.922444
   -6.695211    -33.196168    23.980930
    3.531988    -25.292269    22.821878
   14.556231    -15.856915    18.936457
   24.938836     -3.921024    13.366773
   32.715656      8.976152     8.037996
   35.506995     20.267807     4.023416
   33.109109     27.690674     0.621366
   28.571917     30.154048    -3.502102
   25.124908     29.204977    -8.631815
   23.062784     26.596852   -13.063757
   20.981949     23.449481   -14.229565
   17.432029     20.942188   -11.689527
   12.135996     18.196588    -8.101925
    6.665325     13.241773    -5.908304
    2.573822      6.037203    -4.790313
   -0.477654     -1.788733    -4.183760
   -4.077730     -8.876359    -5.435847
   -8.011228    -14.632115    -9.236548
  -10.184320    -18.381620   -13.635746
  -10.108176    -19.987140   -16.009463
   -8.688208    -20.520408   -15.109509
   -6.473536    -21.360070   -11.000334
   -4.909077    -23.325000    -4.193895
   -5.481326    -25.224441     4.362295
   -7.608939    -24.640758    12.581165
   -9.862592    -20.878778    19.037809
  -10.926528    -15.212680    23.634774
  -10.537493     -9.260717    25.542791
   -9.671323     -3.819932    24.935718
   -8.760973      1.207908    23.172452
   -8.303590      6.964963    20.308088
   -8.523186     14.588195    16.870695
   -8.778905     22.960393    13.674208
   -8.460296     30.714603     9.765398
   -6.635180     37.909817     5.004192
   -3.455065     44.077478     0.664765
    0.007796     48.946534    -2.506514
    4.252367     52.036471    -4.668171
    9.486030     51.737353    -7.851924
   13.908357     48.289824   -12.925242
   16.500370     43.057201   -17.374337
   16.466067     36.848220   -19.014161
   12.590261     30.635600   -17.489722
    6.109189     24.342159   -14.093130
   -1.176463     17.200219   -10.559582
   -8.175211      8.922877    -7.178063
  -13.710591     -0.261956    -3.064729
  -17.640711     -8.956921     2.324860
  -20.399825    -15.647454     7.637785
  -22.591887    -19.949718    11.558549
  -24.046159    -21.500664    14.899788
  -23.599690    -21.100453    18.501683
  -20.878778    -21.429457    21.604095
  -16.912535    -24.195068    22.107217
  -12.797123    -28.543330    18.531049
   -7.774220    -31.976565    12.128979
   -0.793145    -32.618722     5.610744
    7.483938    -29.582059     0.983375
   15.227753    -23.307848    -1.422827
   20.582518    -14.649266    -2.636712
   23.335135     -2.837337    -3.945972
   24.630882     11.839216    -5.837617
   25.262643     27.582825    -7.219643
   24.749386     41.826164    -6.767717
   22.325253     50.700443    -4.963651
   18.537806     52.001648    -3.283026
   15.503222     46.567620    -2.701421
   14.562468     37.899682    -4.202471
   14.082735     29.867923    -7.640124
   12.748006     22.852804   -11.054908
   10.081668     15.741789   -13.058040
    5.465733      8.043193   -12.968902
    0.001040     -1.662953    -9.975898
   -4.181161    -14.586376    -4.568898
   -5.409340    -29.478108     1.506247
   -4.960272    -42.508081     6.976138
   -5.669217    -51.444731    11.160938
   -7.280714    -57.305997    14.669797
   -7.181441    -59.994425    18.152668
   -3.941295    -59.056269    19.832253
    2.092270    -56.164617    18.599397
    8.858167    -52.584032    15.506861
   13.532835    -47.515131    12.122482
   15.544283    -39.992991    10.240193
   16.617055    -30.664966    10.014100
   18.631622    -20.899568     9.641956
   21.166462    -11.749039     7.555664
   21.603055     -4.046805     3.520554
   17.991545      1.353180    -1.141120
   11.494879      3.345916    -4.485997
    4.186099      1.971687    -6.118544
   -4.332929     -0.429057    -7.004205
  -12.901074     -1.442317    -7.245111
  -18.570810      0.138255    -7.011481
  -20.463495      3.770036    -7.575155
  -17.961919      6.231591    -8.992264
  -11.732407      5.657522   -10.086086
   -5.358404      3.665045   -10.466546
   -1.246630      2.325639    -9.968102
    0.403589      2.976371    -8.832699
    0.366686      6.360490    -7.977704
    0.796523     11.805432    -6.772395
    1.772621     16.370172    -4.150496
   -0.321988     18.396693    -0.705826
   -6.731334     18.617848     3.009376
  -13.913295     17.063004     7.130765
  -18.346796     14.480346    11.001633
  -18.442951     12.115726    13.490735
  -14.611584      9.815554    14.943707
   -9.125841      7.919232    15.914867
   -3.708965      7.955095    14.776346
    1.381766      9.370125    10.031252
    6.468079     10.045805     3.136975
   10.238374      9.107130    -3.730794
   10.046585      5.347749   -10.226420
    6.508360     -1.240133   -15.908111
    3.893477     -8.502656   -18.982456
    4.882049    -14.063764   -18.236868
    8.716275    -15.703068   -14.355605
   12.506581    -13.602482    -8.672355
   13.109755     -9.629222    -1.599803
    9.343098     -4.779138     6.297599
    0.886960      0.070946    12.689794
   -9.922104      3.707145    15.496466
  -17.711137      6.150769    15.646155
  -20.096808      8.996682    14.757635
  -18.990512     12.638078    12.969941
  -17.063524     16.362636    10.661714
  -15.445530     19.623832     8.179109
  -14.969435     21.652692     4.370871
  -15.216838     22.953896    -1.290809
  -12.844161     24.774334    -6.677280
   -6.547341     27.057873    -9.688215
    0.704267     28.002526   -10.720186
    6.026288     25.874913   -11.921078
    9.137535     20.341093   -14.452540
   10.854283     12.495666   -16.435661
   11.565566      5.215472   -15.993870
   11.230844      0.349535   -13.252428
    9.918725     -2.307188    -9.461342
    8.285658     -3.947532    -6.954049
    7.463408     -5.813448    -6.513037
    8.283839     -7.747453    -6.580605
   10.594666     -9.565812    -5.936370
   12.884442    -11.175231    -4.459749
   12.466300    -12.274770    -2.641650
    8.372457    -12.538805    -0.490648
    3.166861    -11.055687     2.847212
    0.392934     -7.257845     7.429104
    2.248196     -1.287431    11.293995
    7.727962      5.490941    12.737351
   12.404709     11.479287    12.787508
   12.352214     15.950211    12.981896
    7.490695     18.270393    13.887567
    0.020530     17.974133    15.739970
   -8.878958     15.240227    16.907078
  -17.607446     12.194208    15.072606
  -22.753011     12.186932    10.727463
  -22.761067     16.646681     5.880757
  -19.675548     23.559669     1.125267
  -16.398239     30.682118    -3.895816
  -14.389389     35.994264    -9.030466
  -14.222548     36.240627   -13.114173
  -15.338720     30.658469   -14.376915
  -15.509719     20.088492   -12.362089
  -13.791932      5.766671    -9.157806
  -11.778405     -9.936137    -6.370885
  -10.448875    -24.400631    -3.650232
   -9.489409    -35.701123    -1.569397
   -8.707439    -43.718068    -0.262476
   -7.666891    -48.022671     1.358637
   -5.414537    -48.632602     2.383072
   -0.597457    -46.359198     1.166328
    6.572549    -41.528864    -1.615136
   14.030239    -35.985428    -2.987806
   20.400604    -32.506974    -0.983634
   24.542524    -32.953183     2.884635
   25.952617    -37.569898     6.456644
   25.774341    -44.647908     9.351934
   24.661548    -50.544517    11.929134
   22.667252    -51.931741    14.443704
   20.403463    -48.364929    16.659415
   18.320029    -40.630729    17.343411
   16.645642    -29.422234    15.746207
   16.016739    -16.191896    12.678099
   16.956195     -2.524185     8.274484
   18.953869     10.208488     2.178289
   20.502996     19.723105    -4.389582
   19.873314     24.621267    -9.324127
   16.896423     25.938323   -11.178349
   12.556477     24.148810   -10.658076
    6.742249     19.380847    -9.451986
   -1.203231     13.064796    -7.482379
  -10.870915      5.703001    -4.577733
  -20.826543     -2.476368    -2.097727
  -28.942761     -9.179895    -0.975578
  -32.625478    -11.779705    -1.610458
  -32.240600    -10.296067    -3.745087
  -30.806339     -6.929360    -5.563967
  -30.026708     -4.305902    -5.527584
  -30.189131     -4.158032    -3.651272
  -29.582319     -5.760693    -0.648913
  -25.245751     -6.828788     2.865404
  -16.373291     -5.678572     6.335282
   -5.555910     -2.799915     8.759674
    3.630482      0.029886     9.398452
    8.719913      1.922050     8.664039
    8.723291      3.260937     7.375829
    4.879970      4.530696     6.577487
    0.519494      5.754716     6.113347
   -0.425419      7.951716     3.734432
    3.747426     12.460323    -1.061598
   11.238901     19.241553    -6.175977
   18.163063     27.228353   -10.194715
   21.741050     34.623932   -12.962405
   22.659195     38.677234   -14.459037
   22.724944     37.244012   -15.156027
   23.012888     31.800109   -15.878485
   24.124122     26.300072   -16.275577
