STRONG GROUND MOTION RECORDS OF TURKIYE
PLACE                   : MUðLA OREN BELEDIYE
EARTHQUAKE DATE         : 2017/07/20 22:31:09 (GMT)
EPICENTER COORDINATES   : 36.91980N-27.44350E
EARTHQUAKE DEPTH (km)   : 19.44
EARTHQUAKE MAGNITUDE    : 6.5 Mw
STATION ID              : 4819
STATION COORDINATES     : 37.03130N-27.97120E
STATION ALTITUDE (m)    : 10
RECORDER TYPE           : GeoSig gmsplus
RECORDER SERIAL NO      : 101913
RECORD TIME             : 20/07/2017 22:30:59.000000 (GMT)
NUMBER OF DATA          : 9036
SAMPLING INTERVAL (sec) : 0.01
RAW PGA VALUES (gal)    : (N-S) 78.7235 (E-W) 87.939778 (U-D) 45.10789
Copyright EARTHQUAKE DEPARTMENT
DISASTER AND EMERGENCY MANAGEMENT PRESIDENCY
       N-S          E-W          U-D
[...]
    8.649746     40.288212     7.763306
   12.219936     35.700343     8.512531
   13.857681     32.049851     8.150522
   13.191357     28.917553     7.578533
   10.291389     23.618401     7.589708
    4.849825     17.371218     7.749532
   -1.492214     12.591041     7.560602
   -6.653891      9.236029     7.080869
  -11.547115      6.235749     5.387250
  -16.410973      1.438679     3.582664
  -19.598884     -5.174931     2.916859
  -19.789114    -10.359737     1.978444
  -16.908897    -11.955382     0.733893
  -11.944986     -9.668984    -0.344857
   -5.415057     -6.856855    -0.963364
    0.934518     -5.917659    -1.462588
    4.102158     -4.232617    -3.316550
    1.893464      1.465966    -6.260957
   -4.417389     10.411192    -9.060612
   -9.978237     17.072100   -10.595965
  -12.113387     18.546642   -10.670290
  -11.832460     16.258945   -10.566339
  -12.302317     13.628989   -10.005784
  -15.270632     14.149783    -7.068654
  -17.456978     16.747513    -1.803287
  -15.472557     18.042740     3.957407
  -10.108176     16.892265     9.830107
   -4.681424     14.480866    16.071833
   -2.560568     11.150283    20.581479
   -4.635686      5.465473    21.562255
   -9.628963     -2.274703    20.810430
  -14.994383    -11.133131    19.903460
  -17.290656    -21.159185    17.172152
  -16.898242    -30.683158    10.716288
  -17.687488    -37.123689     1.807445
  -22.024576    -38.351348    -6.097234
  -28.817761    -36.242187   -11.431469
  -32.815968    -35.624199   -15.462682
  -30.841423    -36.629403   -18.732454
  -24.868670    -38.161898   -19.643323
  -16.763626    -39.659569   -17.266228
   -7.924429    -38.972714   -12.485790
    1.059259    -35.385112    -6.760700
   11.478247    -27.471078    -0.896836
   21.592660    -14.503216     5.133870
   27.096595     -1.301984    10.316597
   27.496806      6.969901    12.613390
   24.461183      9.108169    11.121436
   19.204910      5.922337     5.333196
   14.492821     -1.029373    -3.844620
   11.605847     -9.229272   -13.432003
    9.154687    -15.929680   -21.342399
    7.355039    -21.582525   -26.155321
    5.534081    -27.472637   -26.190664
    0.795483    -32.289977   -20.185686
   -5.287977    -34.442019   -10.001886
   -7.815281    -33.032706    -0.788727
   -6.767457    -28.253308     4.202211
   -4.689221    -20.996242     5.642709
   -0.251821    -11.443684     6.429617
    6.691573     -0.588102     8.751618
   11.967076      9.304116    11.714735
   14.162257     17.802874    13.016979
   15.920065     25.252248    11.223308
   17.805733     30.854936     6.985234
   17.390189     34.929548     1.730521
   14.657842     38.190225    -3.686095
   12.635999     40.808745    -8.081135
   12.700709     43.334230   -11.786981
   14.592353     45.252642   -15.108989
   17.792739     46.643504   -17.265708
   21.678420     48.466281   -17.631095
   26.757456     48.660929   -15.047918
   32.290497     44.904407    -9.573609
   36.890840     38.292096    -0.975838
   39.666066     32.058946    10.498511
   40.154375     28.302944    21.113187
   34.868996     28.748893    25.936244
   15.443191     31.621314    23.635553
  -11.373517     27.500704    18.243885
  -29.722132     17.331977    12.115206
  -38.406702     10.702774     4.825656
  -41.707400      6.678319    -1.186858
  -43.874514      4.063697    -3.723778
  -48.178597      3.488589    -3.876325
  -52.462409     -0.009356    -3.214938
  -54.953850     -8.325160    -2.015346
  -56.458538    -16.259205    -0.579006
  -55.569759    -20.764172     0.035083
  -51.703569    -23.787841    -0.090697
  -41.396067    -24.911289     0.652291
  -19.300285    -21.123322     2.557190
    3.105010    -13.865997     3.760940
   15.734773     -9.678079     3.237288
   23.820326     -9.925482     1.620593
   29.377276    -12.375343     0.095375
   33.710985    -16.981143    -0.577707
   38.821986    -21.928421    -0.353952
   42.268214    -26.013948     0.224274
   40.286133    -28.174565     0.436074
   32.183687    -24.813576     0.677499
   22.759248    -15.661747     1.199592
   14.962938     -7.270839     1.907237
    7.442098     -5.414018     2.669197
    0.069647     -9.630262     3.345397
   -6.151808    -16.421368     4.152834
   -8.938989    -22.816681     4.362295
   -8.313725    -26.518889     2.852410
   -9.047358    -26.276423    -0.335501
  -13.516723    -24.691434    -3.931159
  -20.249876    -22.775620    -7.292928
  -26.623879    -18.206203    -9.221995
  -30.284246    -10.634167    -7.730821
  -26.762393     -0.107329    -4.724304
  -14.304929     10.830894    -2.871641
   -0.113566     17.518049    -1.415290
   11.675494     20.033138     0.472976
   21.643336     20.277942     2.767950
   31.108057     17.512072     4.712350
   40.896324     11.120397     5.766931
   47.538520      0.445689     6.804879
   49.503450    -15.512318     7.480559
   45.802022    -32.645229     6.126600
   38.155401    -43.101120     1.444396
   33.141854    -44.531743    -7.366473
   30.889760    -40.431404   -18.144092
   28.910796    -33.144453   -26.623619
   27.400391    -24.013414   -29.091411
   24.589302    -15.339500   -23.978071
   16.800009     -7.030712   -15.009456
    3.475075      2.230784    -5.298372
   -7.434561     12.731374     4.135163
   -9.312173     22.852804    10.840769
   -6.208202     28.183141    15.172919
   -3.898935     28.303204    18.400331
   -4.207669     25.637906    19.321075
   -7.207948     19.996236    16.537533
  -13.250089     14.787781    10.568938
  -21.146711     14.289077     3.824350
  -28.335169     17.857968    -1.825116
  -34.066496     22.142560    -6.256539
  -37.100300     21.438813    -8.624798
  -35.649927     14.771928    -9.152088
  -29.456018      7.043706   -10.171066
  -21.517556      0.185032   -12.102992
  -16.950477     -5.835538   -13.492814
  -17.816387    -10.252148   -12.240986
  -23.022244    -12.614949    -7.127387
  -30.438613    -12.200705     0.916326
  -37.429824     -8.490961     9.397932
  -41.828243     -3.648933    16.659415
  -43.313180     -1.031452    22.458830
  -41.698044     -2.166854    26.444044
  -36.195409     -5.679092    27.675861
  -27.022270     -6.119324    24.781871
  -15.122243      1.411392    18.953349
   -3.088378     15.094176    12.745927
    5.958460     28.209388     6.871928
   11.662760     35.962819     0.887480
   16.410453     38.317304    -5.183247
   22.887627     38.554832   -11.307248
   31.183421     38.067043   -17.184627
   37.987520     35.896030   -21.786528
   41.749760     32.231245   -25.661294
   42.311614     24.413625   -26.327099
   37.999735     10.626890   -22.326553
   29.358045     -7.982122   -17.439306
   16.555204    -25.759268   -13.333509
    2.158278    -35.100807   -10.041128
   -8.365701    -38.199580    -5.213912
  -14.716055    -38.573283     1.733639
  -17.312226    -37.417090     7.608159
  -13.989699    -35.828202    10.689521
   -3.655690    -31.202652    10.244871
    9.139874    -22.692460     8.623498
   18.728036    -10.343364     7.855302
   25.297727      7.388823     6.505501
   28.776440     25.866857     4.299145
   29.079717     37.800409     1.871894
   29.443804     44.671557    -1.076151
   32.035298     48.206404    -4.305642
   35.902527     47.199640    -6.625564
   39.754424     44.197541    -8.076717
   43.476902     40.057961    -8.641170
   46.648441     33.888481    -7.359717
   48.909111     25.831514    -3.749505
   50.204858     15.739970     3.073046
   50.078558      3.972480     9.917686
   45.545263     -9.977718    13.751651
   34.363536    -23.946886    16.568198
   21.018332    -32.775947    17.475689
   10.942641    -36.808459    15.335602
    2.907244    -38.788981    10.729802
   -6.721199    -39.673343     4.360216
  -17.555731    -40.272619    -1.897882
  -28.234077    -39.749487    -7.488876
  -37.903840    -36.757263   -12.430437
  -46.776561    -27.776693   -16.901620
  -54.428119     -9.825689   -21.142553
  -57.000382     11.945506   -24.347616
  -52.896664     30.030866   -25.330731
  -42.684277     41.541858   -23.586437
  -30.987474     48.350636   -20.122276
  -23.722352     52.771403   -16.446576
  -20.485844     55.492835   -12.367287
  -19.375649     56.843156    -7.694178
  -19.664113     53.697865    -1.957653
  -21.490788     43.432983     7.187938
  -24.601256     26.229386    18.798723
  -28.635587      5.030439    29.419376
  -32.561289    -12.040881    36.529611
  -34.500231    -19.831994    38.928275
  -35.530903    -21.119944    40.107857
  -36.305077    -18.543004    41.600071
  -34.689681    -14.328318    38.350309
  -30.123902    -14.214492    28.252528
  -22.623072    -19.337188    13.775300
  -10.091024    -25.072413    -2.649706
    4.910636    -27.772275   -18.942175
   15.600156    -27.592181   -32.734367
   19.170087    -25.944301   -42.120344
   15.478274    -21.918286   -45.107890
    5.610225    -14.994643   -40.798090
   -7.655976     -7.804106   -32.719554
  -21.822651     -3.026528   -24.189611
  -34.298826      0.850837   -15.553638
  -41.963639      4.160371    -6.456384
  -42.995610      5.158558     2.647887
  -38.629417      4.250548     9.680678
  -32.832081      2.225847    12.803100
  -27.281368     -2.043933    11.987866
  -20.064324     -9.995909     9.507340
   -9.960046    -18.073406     7.016159
    2.754436    -23.416217     4.127626
   16.147717    -26.269407    -0.564973
   28.722126    -26.192483    -8.017985
   40.567839    -24.436234   -16.005565
   50.108963    -21.791206   -22.406595
   55.216066    -17.662540   -26.598411
   57.715563    -12.046858   -27.316711
   61.590849     -8.138828   -24.533948
   66.963286     -8.003952   -18.724138
   71.321943     -7.236015   -10.562441
   73.043628     -3.471957    -1.257805
   73.267382      1.651778     7.744075
   72.394196      7.626350    14.573382
   67.147019     15.055194    19.146438
   59.275345     23.579680    21.390736
   52.704615     31.678227    19.940362
   44.843336     39.552760    14.962418
   32.783743     47.079837     8.234463
   17.385252     52.051024     2.023142
    0.087838     52.631589    -2.778605
  -17.032339     47.696005    -7.585550
  -31.922251     36.671503   -11.954602
  -43.137503     21.943234   -13.549727
  -50.267228      9.242785   -11.351427
  -54.602756      2.982868    -5.007570
  -54.656551      2.605527     4.898941
  -50.148465      4.601122    15.477494
  -38.925157      3.412965    23.976512
  -17.148763     -3.985214    30.288664
    5.816827    -13.765165    32.511132
   21.427119    -23.571364    28.785536
   32.673556    -32.975793    20.868643
   41.594093    -41.566547     9.729275
   46.026296    -50.422375    -2.385411
   44.456639    -58.021438   -13.152115
   37.589389    -62.743403   -23.365801
   25.077091    -63.878806   -31.786855
    8.109202    -60.890740   -36.453986
  -11.475908    -50.372219   -36.531949
  -30.088819    -28.828156   -31.023337
  -42.172060     -5.043953   -21.270673
  -50.348830     11.279182   -11.033598
  -59.487405     19.685943    -1.534054
  -69.026969     22.412832     7.288770
  -76.221664     22.356179    12.918486
  -78.723500     19.762866    16.042467
  -78.399953     16.756869    16.860040
  -75.692815     15.143812    13.880290
  -72.285307     12.770616     9.666645
  -70.956036     11.851691     3.852677
  -70.143401     13.472024    -1.838630
  -66.482774     19.777419    -2.859167
  -38.992205     29.703421    -2.264048
    9.428078     30.013455    -0.738051
   39.767678     23.176091     2.007550
   49.502151     22.001447     2.396326
   51.487871     22.540951     2.250795
   43.035371     17.259731     2.481306
   24.973400      4.698316     2.809530
    0.866950    -11.162497     4.421287
  -19.186979    -22.643083     6.369845
  -28.706273    -26.633234     6.837884
  -32.679013    -27.083861     4.054861
  -35.971655    -26.689108     0.045219
  -37.109916    -25.891286    -4.020557
  -35.386152    -27.287085    -8.563207
  -32.981510    -29.822965   -12.546862
  -29.458877    -31.192517   -16.305982
  -26.093990    -31.908738   -19.498831
  -23.017046    -31.769443   -21.107470
  -15.663566    -29.586217   -20.194002
   -2.946485    -25.419089   -16.539612
    9.692113    -21.096035   -10.790613
   18.759481    -20.093430    -3.621906
   25.649860    -23.356705     2.224547
   31.209668    -27.804760     4.876072
   36.829509    -32.934992     6.140374
   42.158027    -37.649420     6.757062
   44.376077    -41.535881     7.199892
   42.888801    -45.483932     7.272398
   38.643710    -46.885969     5.132311
   33.451367    -45.114907     2.105783
   29.965637    -40.514045     0.767417
   30.106491    -32.578181     2.478967
   32.853390    -21.167242     6.098793
   35.311567     -6.651292     8.651305
   32.410820     10.184580     8.250055
   20.250395     25.644143     6.135176
    5.853210     35.844315     5.361263
   -0.932699     44.639072     5.619580
    1.162430     53.874841     5.358144
    7.513044     61.561743     5.048890
   13.075711     69.461224     4.938183
   17.241280     77.887216     4.896083
   20.438027     84.903375     5.211054
   22.609819     87.939778     5.482365
   25.666232     85.230041     5.842555
   31.050104     78.033007     7.775000
   39.707906     66.171181    12.539845
   50.363123     48.020592    19.773521
   57.057295     28.792812    26.078397
   57.098095     16.880311    27.857255
   52.100661     12.035684    26.707819
   43.344885     10.199133    24.909730
   35.015307     10.713689    21.705447
   26.982249     13.881070    16.865238
   15.327545     19.713749     9.459263
    0.984414     26.027201     0.896316
  -12.802321     27.965364    -6.565533
  -24.998088     22.873334   -13.332989
  -35.561569     14.320262   -19.131625
  -41.872942      6.995109   -22.992358
  -45.143753      3.530169   -23.544077
  -46.483159      4.753150   -20.366820
  -44.146345      8.964197   -13.083248
  -37.994277     15.662787    -3.419981
  -27.587763     22.635027     5.388550
  -16.561441     24.989772    11.602469
  -10.170806     21.367867    12.868849
  -11.420035     12.400551     9.403909
  -18.890199      0.246363     2.864624
  -28.635067     -9.841542    -5.654404
  -40.434262    -14.926815   -13.098061
  -52.743077    -15.483472   -15.037003
  -62.062266    -11.678353   -10.373250
  -66.691455     -5.043433    -2.494559
  -67.070875      1.998974     5.942347
  -62.389451      9.147411    11.598051
  -51.896138     15.497765    13.309341
  -38.643970     21.162044    12.664846
  -20.907884     26.350748     9.709265
   -0.224274     28.335429     6.194688
   14.245158     26.145185     3.037182
   20.804193     20.788861     0.885401
   25.373091     13.741516    -0.445689
   31.671730      5.969635    -2.404902
   37.437621     -1.008583    -4.106057
   43.198314     -6.643496    -4.773940
   50.270867    -11.961619    -4.454292
   56.250896    -16.244911    -4.632567
   59.827584    -19.943481    -5.392188
   61.468707    -23.164916    -6.158565
   61.736380    -24.240287    -7.168707
   58.130327    -23.246777    -7.806185
   49.540093    -22.366574    -9.514617
   33.233591    -23.698963   -12.025029
   10.186659    -27.223675   -13.405495
   -7.737578    -31.395740   -14.558310
  -16.689301    -35.644210   -16.067935
  -19.894104    -40.144500   -17.964517
  -18.635520    -43.218325   -20.385791
  -17.074958    -42.947273   -21.506641
  -17.218930    -38.622660   -19.623052
  -17.567945    -30.716162   -16.047405
  -15.789087    -21.282107   -12.670303
   -9.813475    -12.122742    -8.395067
   -0.485450     -4.047844    -2.655943
    9.134936      1.352140     2.694665
   15.522973      2.275223     6.457943
   17.910463      0.889559     7.053322
   17.946066     -0.483631     5.956381
   17.064563     -2.327718     7.380247
   17.254014     -3.343837    10.713169
   19.384225     -3.365147    13.654717
   21.345517     -2.331097    14.234243
   20.486884      1.010662    11.416656
   14.196301      4.877631     7.037989
    1.639044      7.808524     2.236501
  -11.900028     10.467326    -1.331870
  -21.029247     14.506854    -2.779385
  -26.197161     20.960639    -1.661394
  -29.010070     29.607267     3.339160
  -27.891039     39.464142    10.037749
  -23.503276     48.313213    16.430463
  -21.223375     54.645896    21.184913
  -22.085127     56.952824    22.790173
  -24.951830     54.369387    21.583305
  -30.212261     47.337635    18.267274
  -35.813130     36.184234    14.994123
  -38.646049     22.602542    13.520881
  -37.521041     10.622472    13.893024
  -33.096635      3.958706    14.856388
  -23.752238      0.626044    14.228006
  -10.307242     -4.106836    11.787761
    1.188158    -10.836091     8.337374
    8.705360    -17.583538     3.989372
   14.027641    -22.855662    -0.881763
   18.088998    -25.905059    -6.238347
   20.824724    -26.648307   -11.935631
   22.006124    -25.323974   -17.199699
   21.529250    -22.357998   -20.733247
   18.302617    -16.280774   -21.230652
   13.472284     -6.687155   -19.115253
    9.978237      1.674128   -14.613403
    7.706133      5.794477    -8.847512
    5.231844      6.755503    -3.478714
    3.132557      5.768750     1.088625
    1.777299      4.313958     3.694411
    0.379161      2.321221     5.126853
    0.792105     -1.496892     6.232630
    3.446229     -6.699629     6.612051
    6.367246    -13.719946     7.325153
   10.263582    -21.568751     7.370891
   15.182014    -27.683397     5.112040
   19.066396    -32.809471     1.935304
   21.090318    -36.984655    -0.648913
   23.024582    -39.750526    -1.910616
   25.432343    -42.443631    -1.557183
   25.752511    -45.401032    -0.955828
   23.216891    -47.501617    -1.349801
   17.978291    -47.696265    -2.476628
    9.752404    -45.055915    -3.815774
    2.247676    -39.950631    -4.393221
   -1.037169    -34.819360    -2.829281
   -0.713362    -28.364795     0.376562
    1.156453    -17.647467     3.162443
    1.700115     -4.515363     3.378141
   -0.935297      7.359457    -0.015593
   -6.438453     14.851711    -4.812402
  -12.448368     17.839257    -8.576201
  -16.691120     17.885255   -10.763845
  -18.426059     15.550260   -11.537759
  -19.090045     13.807005   -12.276589
  -22.658936     13.390422   -13.634707
  -30.880924     11.055687   -14.270886
  -40.800429      5.774207   -12.523473
  -48.102713     -1.370591    -7.687422
  -51.506842     -8.431449    -0.509099
  -51.291144    -13.860020     6.857894
  -47.438467    -16.792212    12.863392
  -42.051997    -16.580412    16.987380
  -37.517403    -13.803627    19.171646
  -33.257239     -9.250322    20.237921
  -27.932360     -3.747166    20.749879
  -21.361370      1.400737    21.038862
  -11.099347      5.680391    20.684650
