STRONG GROUND MOTION RECORDS OF TURKIYE
PLACE                   : MUðLA DATCA BELEDIYE KAPALI SPOR SALONU
EARTHQUAKE DATE         : 2017/07/20 22:31:09 (GMT)
EPICENTER COORDINATES   : 36.91980N-27.44350E
EARTHQUAKE DEPTH (km)   : 19.44
EARTHQUAKE MAGNITUDE    : 6.5 Mw
STATION ID              : 4812
STATION COORDINATES     : 36.71225N-27.68801E
STATION ALTITUDE (m)    : 25
RECORDER TYPE           : GeoSig gmsplus
RECORDER SERIAL NO      : 101127
RECORD TIME             : 20/07/2017 22:30:58.000000 (GMT)
NUMBER OF DATA          : 9178
SAMPLING INTERVAL (sec) : 0.01
RAW PGA VALUES (gal)    : (N-S) 37.847707 (E-W) 39.771316 (U-D) 32.130932
Copyright EARTHQUAKE DEPARTMENT
DISASTER AND EMERGENCY MANAGEMENT PRESIDENCY
       N-S          E-W          U-D
[...]
   -4.948578     11.423413   -15.617308
   -5.082155     13.019578   -16.665392
   -5.172852     10.484478   -11.613383
   -4.547328      6.266934    -6.460022
   -3.061871      2.027820    -4.070973
   -4.151275     -0.914247    -7.898702
   -7.304363     -4.096181   -13.729302
   -6.713922     -6.314491   -16.642783
   -4.566559     -5.483405   -13.894844
   -3.555897     -4.066295    -6.798642
   -1.444396     -4.161151    -3.270032
    1.568098     -4.321755    -5.003412
    5.002892     -3.936617    -4.526797
    6.960546     -4.381526    -3.668164
    5.856848     -4.199872    -3.619307
    5.129192     -4.428304    -0.683736
    5.920258     -6.090217    -1.346683
    6.850618     -6.017712    -3.781990
    9.743049     -5.412198    -0.484151
   14.481646     -6.586583     3.931159
   18.826529     -7.132584     5.419995
   20.691147     -8.404422     5.599830
   20.672696     -9.456404     2.495859
   21.643076     -6.600876    -3.057193
   23.033418     -2.424652    -4.810063
   21.705967      0.577966    -2.239880
   16.707492      0.115905     0.630981
   12.395353     -2.198040     1.877351
   10.349602     -5.623738     2.664779
    9.099853     -9.984214     3.131258
    7.544749    -11.856108     3.475595
    2.996382    -13.242812     2.773667
   -2.086552    -11.324920     1.763785
   -6.688454     -7.264862     3.454545
  -12.759441     -6.510439     2.914521
  -19.140201     -4.430383    -1.847466
  -24.324487     -1.791072    -3.575128
  -25.194296     -1.383065    -0.994809
  -23.299532     -0.318609    -1.990658
  -22.578374      1.069134    -2.826682
  -22.092144      0.425938     0.974019
  -20.557830     -0.041061    -1.307961
  -18.743109      1.642942    -7.767204
  -17.467633      2.464933   -12.667704
  -15.332483      3.473776   -16.428904
  -10.848046      6.055654   -12.873267
   -3.167381      7.170006    -7.230298
    3.776013      6.609452    -8.000833
    7.487056      3.824090    -9.497205
   12.472017     -1.520280    -9.793984
   16.894344     -4.816820    -9.379741
   17.867583     -6.344377    -7.499011
   17.120177     -9.858694    -7.899481
   14.849112    -13.452793    -4.389582
   12.428358    -15.529470     7.291369
   11.009429    -15.312732    16.707752
   10.998255    -11.285938    18.702568
   12.390675     -7.549427    17.733227
   11.633134     -7.443917    16.375889
    7.054621     -5.870362    12.898735
    2.745341     -3.205843     8.971474
    0.270532     -1.731820     6.731594
   -3.343318     -1.684523     7.237055
   -6.409346     -7.512264     9.909630
   -6.651812    -12.221496     9.111288
   -6.446249    -12.850918     6.861273
   -6.657269    -14.249576     6.051496
   -8.500317    -13.302064     7.096721
  -10.873254    -13.755809     9.310353
  -10.568678    -14.596771     6.176497
   -9.604534    -11.674454     1.812902
   -7.782537     -9.206403    -1.024435
   -3.965463     -4.827475    -2.017165
   -2.727149     -0.901773    -1.670489
   -4.607879      1.567578    -8.005251
   -4.849825      5.451180    -9.495126
   -2.646327      5.237561    -4.107616
    0.112007      4.769782    -3.930380
    2.593572      5.244058    -4.317337
    2.667118      4.613337    -5.872700
    0.469078      5.287977    -7.930147
   -0.044439      4.195194    -8.080356
   -0.358111      3.696750    -9.867790
   -2.968055      3.406987    -9.838423
   -4.353719      0.955048    -7.918972
   -3.742229     -2.457917    -7.047344
   -3.177256     -7.717048    -6.395573
   -2.563687    -11.552572    -9.120123
   -3.309534    -12.973580   -13.654717
   -7.184040    -12.919005   -13.345723
  -11.347009    -10.538792   -10.187698
  -12.502682     -8.313205    -6.567612
  -11.717854     -8.196780    -3.427258
  -10.468105     -9.957707    -2.163216
  -10.805166    -12.700969     0.129679
  -13.509186    -13.575195     1.290029
  -14.320262     -9.407028    -1.430103
  -12.072846     -1.710251    -2.496119
   -9.356092      3.547581     0.119803
   -6.517195      3.462601     0.648653
   -3.074605      2.093829    -3.596178
    0.357071      2.560568    -5.942867
    3.223774      2.300691    -4.046545
    4.483918      1.392681    -1.620853
    4.098260     -1.013780     2.086552
    5.874260     -5.037976     4.547588
   10.188478     -6.661687     6.721459
   13.606380     -9.805679     9.926262
   13.841309    -13.919792     9.299698
   10.997735    -15.274271     8.049690
    8.793978    -17.460096     9.147411
    7.482898    -17.253234    13.664852
    5.000033    -14.250355    20.553932
    2.595392    -13.526078    21.995729
    1.041587    -13.966829    16.512065
    0.166321    -15.154727     7.271358
   -0.140334    -16.018299    -1.325633
   -1.787174    -13.383146    -5.749779
   -4.496912     -8.388570    -7.290070
   -3.996129     -2.858647    -7.473543
   -0.708165      2.043673    -6.654670
    1.238834      4.427784    -5.474569
    1.328491      7.119330    -4.199612
   -0.526251     10.334009    -1.552245
   -4.747433     11.337914    -0.623705
   -7.708991     10.745914     1.062377
   -5.377895      6.320469     6.292402
   -0.562114      0.004158     4.272638
    3.944933     -3.136196    -2.807191
   10.401837     -4.186878    -5.627117
   16.875893     -3.842541    -6.724057
   22.114493     -0.601875    -7.187678
   27.537866      1.464667    -6.703787
   29.912103      0.918665    -3.070447
   28.591408     -0.021830     4.629449
   25.463268     -1.308221     9.815814
   19.166449      1.386184    10.779178
   10.571796      6.895316     8.971994
    5.086313     11.906525     3.929600
    4.102678     15.385498    -4.352940
    4.617754     17.172412   -10.990198
    6.195208     17.025842    -6.280188
    8.591274     12.702008     1.856821
    9.207442     10.501889     5.257052
    7.329311      9.677300     7.190017
    5.369319      6.811376     2.127873
    2.963897      6.625044    -4.686362
    0.498444      7.617775    -6.723798
    0.517155      9.562954    -9.294501
    2.920238     11.413278    -7.328272
    7.759407      9.410146     2.949864
   11.683550      6.522653    12.010475
   12.004498      4.175444    15.092877
   10.323874      1.135143    13.998275
    7.378948     -1.264302     7.175724
    3.289523     -3.197007    -2.606047
   -1.564200     -3.568371    -7.189237
   -6.623225     -3.400750    -7.434821
  -12.906012     -2.780944    -7.372451
  -17.091850      2.741702    -5.332416
  -17.972833     10.591807    -6.107369
  -19.915154     19.360057   -10.201991
  -23.046152     26.028501   -10.713169
  -25.927668     27.756423    -7.401557
  -25.730422     27.015514    -3.626584
  -21.132158     21.590061    -4.090464
  -14.139388     16.086646    -7.737838
   -7.499790     13.398738    -9.382599
   -1.237015     11.341812    -9.415084
    5.975352     11.345970   -10.400797
   12.884702      9.562174    -9.297879
   17.928135      3.977158    -6.494066
   19.406315     -2.655163    -6.626084
   19.039109     -7.847246    -7.773701
   17.768570    -10.825176    -6.560595
   17.162277    -13.605341    -3.796283
   19.285212    -15.777393    -6.061111
   20.232724    -15.181235    -8.874020
   21.302378    -12.936937    -3.581625
   25.452353    -10.661974     1.398398
   29.572443     -6.993030     2.704800
   31.371832     -2.202458     5.068641
   28.478361     -0.178795     8.083214
   18.541704     -0.558736    13.539852
    5.847752     -0.586023    19.469725
   -4.874513     -1.007803    18.696591
  -11.951483     -0.787427    13.107416
  -13.030233      0.472197     7.761746
  -11.563747     -0.570170     4.113333
  -10.646641     -2.939729     1.221422
   -9.887280     -3.929600    -1.101878
   -9.546062     -4.627630     1.365394
   -9.339460     -5.217031     2.827202
   -9.426778     -4.811103    -1.064976
   -7.563460     -4.258864    -2.741442
   -6.602435     -6.308774    -2.872940
   -9.089718    -10.172365    -3.628403
   -9.533068    -11.312446    -3.876845
   -8.046312    -10.932506    -2.566545
   -5.419475    -11.248516    -1.210247
   -0.520794     -9.553338    -3.892957
    2.742482     -7.427804    -3.287444
    3.306935     -7.753950    -0.853696
    1.451933     -7.544749    -3.943374
   -1.845646     -6.706906    -3.697790
   -2.633074     -6.158825     2.132291
   -2.413997     -4.855542     9.944973
   -3.783289     -4.847486    14.810390
   -4.766404     -5.533821    12.951750
   -3.967282     -4.821498    12.077004
   -1.924129     -3.875806    13.454352
    0.564713     -3.189470    13.501130
    1.455571     -4.128406    14.546355
    0.060032     -7.969128    16.842888
    0.056133     -9.983955    17.783903
    1.143199     -7.672349    17.143566
    0.747146     -5.584757    16.377449
   -0.823290     -5.250295    15.046618
   -3.422580     -3.633860    12.604294
   -3.713642     -1.094862     7.875572
   -0.203744      0.643715     1.344604
    4.334488      0.913987    -2.373457
    6.869589     -1.999494    -3.978457
    2.620600     -5.486783    -4.501589
   -5.282520     -6.268233     1.147617
   -8.862845     -4.481839    10.524759
  -10.526058     -0.804059    12.021390
  -12.179136      3.420501     5.599830
  -10.716808      5.044472     1.587848
   -7.111794      3.035883    -0.233889
   -3.438173      0.209461    -2.029899
   -2.273924     -3.296280    -3.171539
   -3.743528     -7.826975    -2.205576
   -5.556430    -13.174724     1.962071
   -8.315284    -16.266741     2.711297
  -12.022690    -14.354566     0.717780
  -16.615496    -12.638598    -2.075638
  -20.882416    -13.257885    -7.187678
  -20.695305    -13.830914    -8.699383
  -15.421621    -13.495932    -8.708998
   -8.341012    -12.144572    -8.406501
   -1.696737    -11.318163    -3.068628
    5.016146     -9.302297     0.398911
   10.453812     -3.320968    -0.755982
   12.115466      2.484684    -2.707658
   10.727203      5.429610    -5.071760
    8.451200      5.472230    -5.538759
    6.562674      0.517935    -7.621933
    4.758868     -5.138548   -11.900807
    2.880737     -8.650786   -14.311426
   -1.073032     -9.586863   -16.822358
   -8.083994     -6.648693   -16.820539
  -16.624592     -6.329044   -13.235016
  -24.505881     -8.552812    -9.793205
  -28.845048     -8.696524    -7.709511
  -31.366634     -6.942094    -3.346696
  -31.409514     -2.727669     4.881270
  -27.877785      1.738577     9.027867
  -24.503542      6.049157     8.203797
  -20.015467      8.515390     9.458483
  -13.619894      5.346969    13.626910
   -7.998754      1.132024    17.850171
   -4.154134     -1.448295    20.789380
   -2.415037     -4.395040    18.531049
   -1.726103     -5.485744     9.862592
   -0.387477     -4.532775     2.682710
    3.455844     -2.305109     0.774433
   10.311140      1.901780    -0.989092
   18.772995      6.621406    -3.959486
   25.363216      8.645848    -6.446509
   25.757709      7.826456    -9.946532
   23.183107      7.648960   -11.232404
   21.003259      6.176237    -9.682237
   17.718934      4.406215    -8.349068
   15.785709      5.185326    -7.342305
   15.415124      6.300718   -10.403396
   14.853270      9.493307   -17.303390
   13.765685     13.657836   -20.468952
   10.080109     16.656556   -17.637332
    2.627616     19.350961   -13.539592
   -6.767197     18.350435    -9.291642
  -14.489442     12.648214    -3.143992
  -19.199713      4.696757     3.192069
  -19.313799     -3.066808     4.504188
  -16.400837     -6.969381     2.359683
  -13.944740     -5.501856     2.592793
   -9.851157      0.004678     4.757568
   -3.677260      5.521607     6.184293
    3.448048     10.042427     3.944673
   10.174704     14.307008     0.613570
   16.588988     16.730621    -0.908270
   21.447129     17.914881    -0.621886
   19.947639     17.864725    -2.533801
   14.181748     18.504022   -10.201472
    7.627390     18.040401   -15.513877
    1.085246     14.730608   -16.620434
   -4.599563     13.642763   -14.413558
   -8.929114     12.286725    -9.539825
  -12.178876     10.446016   -10.367533
  -16.324953     11.506834   -11.849092
  -18.910470     12.908870    -7.949118
  -17.837438     16.396160    -6.335022
  -17.522726     22.715329    -8.546835
  -18.614730     26.098927   -10.645601
  -17.856928     24.030826   -10.628709
  -15.356132     20.035997    -8.133890
   -9.973560     16.657596    -4.554344
   -1.117731     10.710311    -0.476614
    7.356858      1.378128     3.348515
   12.842342     -6.193649     8.114140
   15.088459    -10.437700    16.445796
   14.570264    -11.457977    25.374390
   13.115732     -7.303843    29.248377
   12.115726     -0.149689    27.874407
   13.209028      6.752124    23.878278
   19.790673     13.519061    17.973093
   29.894431     19.072893    10.369092
   36.945933     21.590581     3.897115
   37.847707     20.949984     0.879944
   33.928502     17.321322    -1.383325
   29.213033     12.555178    -4.550186
   23.864245      7.828795    -8.701721
   16.259984      2.250275    -9.566592
    7.737058     -5.949624    -3.476894
   -3.303297    -16.400058     3.059012
  -15.009716    -26.440666    10.964471
  -21.423480    -35.761934    20.647228
  -23.021984    -39.771316    26.450021
  -20.787041    -36.417604    29.991885
  -17.335875    -28.660795    29.229146
  -16.833533    -15.585343    26.450801
  -15.259458     -1.833172    24.552399
  -10.556204      9.457444    19.579653
   -4.071753     18.110568    14.947345
    5.102425     18.336661    10.814002
   13.014640     12.750085     3.226373
   15.622246      7.991218    -2.784062
   13.902900      2.396586    -4.215205
    9.327505     -2.656463    -6.074105
    3.229751     -3.880743    -5.926755
   -1.939202     -1.359417    -0.520014
   -7.838670      6.221196     0.969861
  -16.666172     15.367826    -4.336827
  -23.550833     20.486104    -7.678846
  -26.200539     21.012095    -6.133617
  -26.566186     19.600183    -4.237554
  -24.372564     19.490515    -5.692346
  -18.116805     19.706733    -9.184833
   -9.323867     16.759208   -10.750072
   -1.952456     11.926015    -6.115166
    3.677779      6.992251     2.626837
    6.903373      2.887493     5.252634
    4.776020      1.350061     2.528863
   -0.194388     -2.550693     0.246104
   -2.659841     -8.673915     1.783276
   -2.930893    -12.486310     7.087366
   -3.492227    -14.411739     1.634626
   -4.737558    -12.334542   -11.521647
   -6.757322    -11.016966   -15.010755
   -9.210821    -14.097807    -8.810610
  -10.552046    -15.448128     1.699596
   -8.829321    -14.753997    10.118051
   -4.293948    -12.865991    16.594446
    1.117211     -9.617008    24.817734
    6.963924     -6.361789    28.049304
   13.073112     -2.072259    23.861127
   17.570804      2.234682    18.960106
   18.968422      6.805139    16.710611
   17.654484     11.034637    17.269346
   14.921358     11.581938    19.590308
   12.312972     10.461609    19.169827
   10.658855      8.929893    12.424459
    8.909103      7.018238     0.778072
    8.225107      8.181967    -9.686395
   10.132344     10.978764   -15.040901
   10.872214     11.864165   -16.555204
    8.310087     10.806725   -15.991271
    4.581112      5.707159   -10.961352
    2.033797     -4.242492     0.337840
   -0.203484    -14.881077     9.669244
   -5.625557    -23.015747    13.140161
  -11.401843    -27.865571    14.727230
  -12.777113    -29.888974    13.966310
  -11.675754    -30.654571     6.369066
   -9.661187    -27.088539    -8.191843
   -4.167388    -17.223868   -16.698657
    4.373730     -6.023169   -17.644349
    9.336601      4.637505   -24.759002
    9.679379     14.416936   -32.130932
   11.032298     19.750912   -27.312813
   10.579333     19.289370   -17.480886
    3.496385     17.502196   -14.185386
   -6.934818     14.948385   -16.408374
  -15.973860      8.512011   -17.219710
  -21.975459      1.592526   -15.945273
  -26.030580     -4.279914   -15.629263
  -29.318544     -8.966016   -19.109276
  -31.078950    -11.916920   -24.777713
  -30.207323    -17.091071   -24.404529
  -26.506155    -23.725471   -18.458024
  -20.264169    -27.882203   -12.269313
  -13.035170    -27.797743    -5.408560
   -5.651285    -19.502469     1.448814
   -0.226353     -5.958980     4.627370
    2.625537      5.209754     3.460002
    7.604521     12.082721     3.985214
   12.498524     13.062977     4.826696
   13.994117     11.363382     2.097987
   12.831427      9.970961    -2.000013
    8.708738      7.461069    -7.265381
    5.488342      3.699609   -10.480839
    3.009116     -2.288997   -13.547648
    0.739870     -6.619067   -16.891485
    1.146577     -7.883889   -14.924996
    1.624491     -7.256545   -10.379747
    1.521060     -2.054068    -3.554338
   -0.171259      5.674414     5.340212
   -4.023935     12.440572     9.524752
   -6.548121     16.321055     7.612317
   -7.193395     14.051809     4.517702
   -6.229771      5.000553     3.437913
   -2.763792     -4.020817     2.800954
    3.428297     -6.351134     1.248969
   10.334789     -3.011715     1.135662
   14.747240      1.640604     0.535087
   15.967363      4.654397    -1.386704
   14.206956      3.516396     1.861499
   11.278142     -2.421274     8.816327
    9.211860     -9.807758    16.311700
    5.682990    -16.663573    24.849699
   -0.422040    -19.630849    26.548515
   -6.412205    -15.973860    20.795358
   -8.962638    -10.310880    15.718141
   -7.209508     -5.421294    10.116492
   -5.985487     -0.920224     4.877112
   -7.851924      2.464154     1.783276
   -9.857654      6.208981     0.226093
   -9.338420     10.579853     2.330057
   -7.128946     14.822604     2.119557
   -6.337101     19.479860    -0.695951
   -5.722751     21.900095    -0.041320
   -4.865157     20.372018     2.510152
   -4.451693     17.657863     6.365427
   -2.386970     15.867830    10.120130
    0.346936     14.359764    11.567645
    3.388016     12.569211    10.138062
    6.190530     11.365721     6.697290
    9.085820     11.220189     3.847999
   13.982682     13.054921     0.172039
   15.196827     14.640950    -2.210514
   10.687702     10.985780    -0.609152
    5.836578      4.016139     0.740909
    2.036136     -3.080062     1.728962
    0.467779     -9.437433     2.231044
    0.080042    -12.562454     1.778338
   -2.401783    -14.660181     0.915807
   -4.819939    -18.149290    -2.412698
   -3.945712    -21.235849    -3.504181
    0.894237    -20.822645    -2.127613
    6.480033    -12.850918    -4.105277
    8.830101      1.339926    -5.579559
    9.434055     16.964511    -2.697263
    9.973040     29.749160     2.555890
   10.753191     34.603662    10.061138
   11.450440     29.587256    15.792985
    8.080615     19.102519    15.827029
    1.380467      9.480573    13.470984
   -4.852163      3.149449     8.027860
