STRONG GROUND MOTION RECORDS OF TURKIYE
PLACE                   : AYDýN DIDIM HUKUMET KONAGI
EARTHQUAKE DATE         : 2017/07/20 22:31:09 (GMT)
EPICENTER COORDINATES   : 36.91980N-27.44350E
EARTHQUAKE DEPTH (km)   : 19.44
EARTHQUAKE MAGNITUDE    : 6.5 Mw
STATION ID              : 0918
STATION COORDINATES     : 37.36970N-27.26430E
STATION ALTITUDE (m)    : 47
RECORDER TYPE           : GeoSig gmsplus
RECORDER SERIAL NO      : 101899
RECORD TIME             : 20/07/2017 22:30:57.000000 (GMT)
NUMBER OF DATA          : 15296
SAMPLING INTERVAL (sec) : 0.01
RAW PGA VALUES (gal)    : (N-S) 30.637939 (E-W) 23.279002 (U-D) 14.469691
Copyright EARTHQUAKE DEPARTMENT
DISASTER AND EMERGENCY MANAGEMENT PRESIDENCY
       N-S          E-W          U-D
[...]
  -19.634227      1.166848    -1.514303
  -18.191910      5.639331    -3.921284
  -15.770896      9.321788    -5.794218
  -12.044000     11.616502    -7.268240
   -6.835025     12.140934    -7.073072
   -2.820965     12.578307    -5.379454
   -0.967262     13.920312    -3.278088
   -0.110967     13.943181    -0.995589
   -0.720899     11.675234     1.014300
   -2.041074      7.312679     2.235462
   -2.123195      0.677759     3.386197
   -0.399951     -7.332949     5.138808
    2.133850    -14.601709     6.075145
    4.111514    -19.539632     4.852163
    5.358664    -22.687002     2.274184
    5.059026    -23.279002     0.125521
    2.895809    -20.675294    -0.739090
    0.726876    -17.220230    -0.748186
   -0.112527    -14.415377    -0.283526
   -0.841222    -12.244625    -0.017672
   -2.385411    -10.371691    -1.435301
   -3.638018     -8.895070    -4.928048
   -4.241453     -6.420781    -8.553851
   -4.294727     -1.793151   -10.523979
   -4.542650      3.283546   -11.232664
   -5.215212      7.946779   -11.340772
   -5.149983     11.052309    -9.957447
   -4.459229     12.569471    -6.349835
   -3.140614     12.741509    -2.739883
   -0.961025     10.962651    -1.207648
    1.541330      8.573862    -0.243245
    3.651792      6.615689     1.224540
    3.708705      6.905712     2.370338
    2.256512      9.188471     2.918938
    0.896316     11.194202     3.299658
   -2.041594     12.824670     3.921284
   -5.228985     12.899775     4.610738
   -5.359183     10.350121     5.270565
   -2.942068      7.342825     5.402843
    0.350054      5.114639     4.634646
    3.890878      2.347209     3.978977
    8.488362     -0.998707     3.736252
   12.640677     -3.789526     3.931159
   14.815328     -5.492500     4.850604
   15.942934     -7.079829     4.848265
   15.024009     -8.557230     2.196480
   12.301798     -8.758635    -2.532761
   10.009163     -8.451460    -7.669230
    7.858940     -7.518761   -11.617801
    4.605280     -6.150509   -13.230078
    1.444396     -5.546295   -12.121703
   -0.953229     -5.206636    -9.096215
   -3.511718     -5.475868    -5.638551
   -5.682211     -6.355552    -2.763272
   -7.647660     -6.416883    -0.680098
   -8.985507     -6.230031     0.633840
   -9.048138     -6.335022     1.142419
   -9.343878     -5.736785     0.941015
   -9.915607     -4.578773     0.477394
  -10.942121     -2.958440     0.595638
  -12.071806     -1.238834     0.601875
  -11.488902     -0.363308    -0.625524
   -9.697310     -0.159305    -2.712076
   -6.673901     -1.291069    -5.670516
   -2.573822     -4.034071    -8.872980
    0.621886     -7.425725   -11.176530
    2.609945    -10.643522   -12.349875
    2.775226    -12.446809   -12.183034
    0.503382    -12.456164   -11.350128
   -3.620606    -11.139108   -10.936924
   -8.557230     -9.560615   -10.897422
  -12.745927     -7.903639    -9.369345
  -15.938776     -6.197547    -4.676487
  -17.619920     -5.753677     1.293148
  -17.860047     -5.635173     5.258351
  -17.022463     -5.001593     5.902586
  -15.147711     -4.348782     4.232357
  -12.262556     -3.797323     2.358904
   -7.544489     -3.281207     1.477141
   -2.340972     -2.178029     1.540291
    3.044979     -0.649693     2.120077
    7.697817      1.089664     2.474809
   10.611038      2.475069     1.408273
   13.182781      2.663999    -1.090184
   14.198640      1.803027    -3.293421
   13.539592     -0.035603    -3.960525
   11.774507     -2.509372    -2.694145
    9.948871     -4.752111     0.080562
    9.041641     -6.380760     2.004691
    7.095941     -6.767977     1.235715
    3.960525     -5.622179    -0.807958
    1.458690     -4.156733    -1.817320
    0.865650     -2.240659    -1.376309
    1.816800      0.524692    -0.541064
    3.774454      2.882556    -0.191010
    5.599570      4.488076    -0.721419
    5.544736      5.917399    -1.905158
    4.546548      7.045785    -2.164516
    4.042906      7.211847    -1.001566
    4.221702      7.039808     0.430616
    4.090724      6.714702     1.842788
    2.635153      5.549154     3.698829
    0.310293      4.081108     6.124781
   -2.839156      2.173871     8.381813
   -6.915327     -0.525991     9.460562
  -11.443164     -3.254959     8.853750
  -14.580399     -4.883349     6.724317
  -15.204624     -4.795770     3.897115
  -14.835858     -3.571490     1.397359
  -13.952796     -1.645281    -1.116951
  -13.138342      1.426725    -4.271078
  -11.322061      5.197540    -6.322807
   -7.726923      8.395067    -6.463661
   -5.103724     11.229545    -6.449108
   -3.039002     13.844427    -7.243292
   -0.923083     14.737365    -7.674428
    0.071726     13.718907    -6.149989
   -0.114866     12.167441    -3.474036
   -0.672562      9.950430    -1.232597
   -0.157745      6.619587     0.185812
    1.633587      3.390615     0.679059
    4.342025      0.917106     1.202971
    6.848539     -0.722718     2.262489
    7.927548     -1.603701     3.301218
    7.114913     -2.208954     4.462348
    4.765105     -2.696224     5.210274
    3.040821     -4.018478     5.011988
    2.282760     -6.213659     4.635426
    1.228179     -9.220176     4.425186
    0.094075    -12.293481     3.909849
   -1.563160    -12.916926     2.687648
   -2.744301    -12.033864     1.208948
   -2.956881     -9.978757     0.363828
   -3.361249     -6.784349    -0.292622
   -2.617481     -5.338393    -2.043673
   -2.386710     -5.159078    -4.891405
   -3.102672     -4.927008    -7.736278
   -3.020031     -4.667391    -9.436394
   -4.057979     -3.893477    -9.348815
   -5.278102     -2.811349    -7.409353
   -4.451433     -1.905678    -4.418429
   -2.965197     -1.073552    -1.666591
   -2.791599     -0.476095     0.741689
   -2.491181     -0.799382     2.063683
   -1.741436     -0.975838     1.163729
   -1.176203     -0.613829    -0.945692
    0.492467     -0.574068    -3.560315
    1.577453     -0.082121    -6.669223
    1.110714      1.020017    -9.285665
   -0.066269      2.185825    -9.888060
   -1.301204      3.267953    -8.227446
   -2.553551      4.560581    -6.460802
   -4.253667      5.580599    -6.128679
   -5.462874      5.190783    -6.284865
   -5.783043      4.544729    -5.825663
   -5.097747      4.718067    -4.983401
   -3.722218      5.205076    -4.370092
   -1.992737      6.260177    -3.774194
    0.478174      8.265908    -2.179588
    3.384898     10.037489     0.805099
    5.812149     10.674188     3.341758
    7.150516     10.191077     3.762499
    7.116992      8.196261     3.405428
    5.706119      4.304343     3.428038
    3.707665     -1.359157     2.572522
    1.347462     -7.181701     0.322247
   -1.279894    -11.938749    -1.622672
   -3.805379    -14.705140    -2.003912
   -6.153627    -14.866784    -0.821471
   -7.332689    -13.702794     1.891125
   -7.787994    -11.586876     5.248996
   -9.580106     -8.524745     7.608419
  -12.492028     -5.474309     8.074119
  -14.987107     -2.705579     6.633880
  -16.105357      0.549900     4.449094
  -15.026868      4.415830     2.733646
  -11.602728      8.318143     1.271058
   -6.969641     11.770609     0.021310
   -2.235462     13.828835    -0.287164
    2.653344     14.334815    -0.043919
    7.245111     14.298692    -1.114353
   10.359997     13.858461    -3.699869
   12.534907     12.034644    -5.945206
   14.925776      9.175477    -6.661687
   17.452560      6.006017    -6.137515
   19.450754      2.893471    -6.246663
   19.680485      1.042886    -7.587369
   17.906565      0.343038    -8.602708
   14.621979     -0.131758    -8.759934
   10.394820     -0.758841    -8.863365
    5.608925     -0.885661    -9.314511
    0.301977     -0.319129    -9.646894
   -4.060578     -0.470897    -9.270332
   -7.925729     -0.468038    -7.279155
  -11.457717     -0.212839    -3.450647
  -13.438759     -0.892937     0.911908
  -15.017252     -2.126314     4.422587
  -15.676820     -4.333709     6.507580
  -14.998541     -6.255499     7.574375
  -14.126134     -7.231857     8.097248
  -13.602482     -8.116998     7.895323
  -14.220469     -8.802034     6.815534
  -14.897189     -9.853496     5.408040
  -13.355339    -11.525805     4.439219
  -10.303084    -13.123789     4.387244
   -7.709511    -12.753984     5.099047
   -4.441298    -10.347523     5.492241
   -1.879950     -5.913241     4.465207
   -2.000793     -0.836024     1.929067
   -1.427764      0.817053    -1.144238
   -0.857074      0.704267    -4.302004
   -1.847725     -0.044179    -6.982375
   -2.636972     -2.318623    -8.003172
   -4.602682     -4.367233    -7.715228
   -8.304889     -5.972753    -7.161690
  -12.371964     -7.085806    -7.306962
  -15.329624     -7.815801    -8.767990
  -16.966590     -8.037476   -10.543990
  -18.551320     -7.886487   -11.564526
  -19.167488     -8.393247   -12.126121
  -17.882136     -8.848032   -12.438753
  -15.570790     -9.110508   -12.438493
  -14.002433     -8.536180   -11.986567
  -13.011522     -6.683257   -10.079849
  -11.140147     -5.042653    -6.561894
  -10.787234     -2.822524    -2.806672
  -12.121703      0.084980    -0.357851
  -11.869622      2.903346    -0.109928
  -10.457450      6.224054    -1.485197
   -7.975885      9.134157    -2.787181
   -2.623978     11.280221    -2.585776
    4.981582     13.387564    -1.306662
   12.335062     15.400831    -0.503642
   17.434368     16.580932    -0.420481
   20.709858     16.971527    -0.055874
   23.755097     17.551833     1.377348
   26.248876     17.684630     3.184013
   27.260318     16.621213     4.165828
   27.298520     14.386011     4.497951
   26.127774     11.530742     4.461308
   23.036277      9.419762     3.528090
   19.350961      7.734979     1.422047
   15.568192      6.335022    -0.741689
   11.415617      5.307728    -1.145798
    8.175211      3.396592     0.168400
    6.059292      0.816274     1.434521
    5.297333     -1.827715     1.496112
    6.041361     -4.448315     0.808477
    6.843341     -6.921304     0.496105
    7.186119     -8.520327     0.968562
    7.572556     -8.331397     1.767683
    8.465753     -6.962365     2.719873
    9.835045     -5.486783     4.189477
   11.260470     -5.029659     6.122182
   11.739424     -5.614123     8.404682
   11.600130     -6.737571    10.287751
   12.093376     -8.063464    10.568158
   12.190050     -8.937950     9.490448
   12.102472     -9.855056     8.384412
   12.799722    -10.633907     7.920531
   12.836624    -11.106103     7.384145
   11.880277    -12.041661     5.691566
   10.590767    -12.795044     2.001573
    9.089458    -12.645095    -3.001579
    7.785395    -11.534121    -7.647400
    6.953009     -9.723038   -11.509433
    7.219643     -7.911955   -13.840269
    8.295794     -5.695204   -14.218131
    9.163263     -2.929853   -13.982942
    9.006557     -0.640337   -13.612617
    7.469125      1.248969   -12.540884
    5.944426      2.467272   -10.856362
    4.337867      2.746640    -9.218097
    1.730781      3.237288    -8.042933
   -0.870328      4.576434    -6.730295
   -3.456104      6.662467    -4.856581
   -6.171559      8.291116    -2.687908
   -8.175730      8.760454    -0.640337
  -10.356358      8.297353     0.745587
  -13.008143      6.082941     1.922830
  -15.035184      2.650226     2.993523
  -16.094183     -0.925682     3.810057
  -15.788307     -4.633607     5.053568
  -14.325460     -7.870895     6.119324
  -12.124042     -9.838423     5.863345
   -9.780991    -10.307242     4.119050
   -7.231597    -10.551266     1.628649
   -4.318636    -10.666911    -1.118511
   -2.117478    -10.048924    -4.065516
   -0.538725     -9.190550    -5.953782
    0.723238     -7.526038    -6.011995
    1.147877     -5.147124    -5.180128
    0.070687     -2.099286    -4.286931
   -1.344863      0.768456    -3.384898
   -2.125014      2.935830    -2.315244
   -3.324866      5.257312    -0.621886
   -4.192076      6.444170     1.935564
   -4.651019      7.005504     4.445456
   -5.087612      8.140127     6.213919
   -4.903619      9.064250     7.017719
   -5.323840     10.135203     6.300458
   -6.756022     11.733447     4.376848
   -8.747980     12.987873     2.489362
  -11.306988     13.096761     0.999227
  -14.170313     12.201745    -0.943354
  -16.883429     10.493314    -3.606573
  -18.490768      7.768503    -6.253940
  -19.744415      4.525758    -8.159878
  -20.947386      1.428024    -9.526831
  -20.806792     -0.971680   -10.526838
  -20.074978     -2.068361   -10.345443
  -18.865511     -2.609685    -9.188991
  -17.050010     -2.507553    -7.764605
  -14.779465     -1.817060    -5.611264
  -11.086613     -2.039515    -2.109941
   -7.095422     -2.309527     1.890605
   -3.290563     -2.271325     4.710790
    0.829268     -2.740923     6.097234
    4.524718     -3.785628     6.541624
    7.453012     -5.803053     6.774734
    9.774234     -8.261750     7.344644
   12.603775    -10.201991     7.721725
   16.177083    -11.256832     8.098547
   19.586670    -10.987340     8.870642
   22.811223     -9.030726     8.927814
   26.276423     -6.601136     7.215485
   29.124675     -4.605540     4.288230
   30.312053     -2.902046     1.257805
   30.637939     -2.027820    -1.786654
   29.436008     -1.267940    -4.744315
   26.359324     -0.188671    -6.346716
   22.709871      0.492987    -5.811110
   18.623565      1.089664    -3.143992
   14.668497      1.047564     1.559782
    9.865970     -0.214139     6.674941
    4.342805     -1.628389     9.964204
   -0.359410     -2.553811    10.997475
   -4.870355     -2.594092    10.521380
   -8.541637     -1.873193     8.866743
  -11.389629     -1.446216     6.247183
  -13.515943     -1.667891     3.818113
  -14.507374     -2.300431     2.302770
  -15.111068     -3.284066     1.435041
  -15.782330     -4.759387     1.168667
  -17.145905     -6.363088     1.008583
  -18.097315     -8.032018     0.411645
  -17.900068     -9.937437    -0.339139
  -16.490495    -10.866757    -0.869029
  -13.177063    -10.205110    -1.025994
   -9.644555     -8.916120    -0.746107
   -6.598017     -8.118298     0.065489
   -2.952982     -8.643249     0.993770
    0.698289    -10.153135     1.355518
    3.623205    -12.242546     1.044706
    6.127900    -14.495159     0.076924
    8.239140    -15.421621    -1.431662
   10.283853    -15.043760    -3.045499
   13.033091    -13.643802    -4.247949
   15.373024    -11.156779    -4.827995
   15.827809     -8.506814    -4.959233
   14.495679     -6.046298    -4.816041
   12.878984     -4.212346    -4.799408
   12.429917     -2.269766    -5.196500
   12.341819      0.456084    -5.361782
   11.993064      2.570443    -4.554604
   10.981363      4.263542    -3.245344
    9.341019      6.086319    -2.077976
    8.726930      6.733413    -1.015080
    8.887793      6.334762    -0.366427
    8.695484      5.796037     0.078223
    8.283839      4.664532     1.151775
    7.687162      3.227672     2.432189
    6.794224      2.482345     3.271332
    5.487043      2.066282     4.218323
    3.809017      1.019757     5.790319
    2.212333     -0.614349     7.522140
    0.687894     -2.394767     8.695744
   -0.517415     -3.874506     9.088418
   -0.970641     -4.841768     9.198866
   -0.469338     -5.288237     9.453546
    1.155413     -5.292915     9.361289
    3.014053     -4.827735     8.623498
    4.926488     -3.815774     7.540071
    7.189237     -2.798615     6.254200
    9.518515     -1.812642     4.930646
   11.631575     -1.134103     3.600856
   12.752684     -0.504421     1.980263
   12.354033      0.667624     0.271831
   11.088692      1.140860    -1.008583
    9.761500      0.823290    -1.507546
    7.593606      0.525211    -1.022096
    5.257831      0.389036     0.070167
    3.433235      0.893197     1.147877
    0.969081      1.893984     1.877871
   -1.214405      2.766391     2.669197
   -2.326159      3.326945     3.956627
   -2.122935      3.662966     5.745361
   -0.689454      3.412445     8.230045
    1.298605      2.433748    10.684063
    3.654130      1.535093    12.421081
    6.057993      0.997668    13.835332
    8.647407      0.792625    14.469691
   10.582971      1.239873    13.594686
   11.851431      1.843048    11.745921
   13.406535      1.477920     9.871688
   14.364701      0.248702     8.332436
   14.337154     -1.391641     6.601655
   14.067142     -3.197527     4.135423
   13.625611     -4.356578     1.189457
   12.611311     -4.872434    -1.708691
   11.696024     -4.466246    -3.896856
   11.616242     -2.669716    -5.102685
   11.798156      0.324067    -5.663240
   11.754756      3.536146    -5.986267
   11.357924      5.312146    -6.527071
   10.137802      5.630755    -7.256026
    8.152601      5.268746    -7.877392
    5.625038      4.900760    -8.330617
    2.601629      4.522639    -8.522146
    0.138774      3.812655    -8.686649
   -1.550166      3.178036    -8.860506
   -3.109948      2.495079    -8.531242
   -4.444416      1.898401    -7.945999
   -5.377895      1.892164    -7.705353
   -5.316304      2.261450    -7.372451
   -4.212346      2.311606    -5.888813
   -2.451420      2.105264    -3.228712
   -0.093296      2.318363    -0.380460
    2.088112      2.552772     2.548354
    3.796543      2.622419     5.907004
    5.382832      3.209481     9.239667
    7.045785      4.351640    11.779445
    9.048397      5.285378    13.210068
   10.874293      5.681951    13.817140
   12.263076      5.990685    13.836891
   13.868076      6.336841    13.540111
   15.591580      6.935078    13.324154
   17.023763      7.979783    12.930960
   17.935671      9.606613    11.976951
   18.109789     11.901327    10.725644
   17.653185     14.201239     9.514617
   16.109255     16.409933     8.418975
   13.315058     18.485311     7.194175
   10.023976     19.999614     5.085793
    6.486010     20.946086     2.074078
    2.857348     21.161784    -0.784569
   -0.447768     20.415937    -3.114886
   -3.445449     18.696071    -4.904399
   -6.350614     16.136543    -5.195721
   -8.577240     12.473056    -3.154127
   -9.882083      8.172872     0.310293
  -10.683024      4.242752     3.598517
  -10.226160      0.597977     6.175977
   -8.353746     -2.626317     7.954835
   -6.291622     -5.332936     8.808271
   -4.532255     -7.829314     8.691067
   -3.295240    -10.214985     7.380767
   -2.839676    -12.193689     5.038755
   -2.557190    -13.520621     2.538738
   -2.189464    -14.537260     0.649693
   -2.010668    -14.743342    -0.477394
   -1.731820    -13.901860    -1.136442
   -1.050423    -12.524772    -2.098767
   -0.273650    -10.422887    -4.194935
    0.716481     -8.114919    -7.106077
    2.154120     -6.173378    -9.553338
    3.003918     -3.958706   -10.801008
    2.839676     -1.561601   -10.729282
    2.198819      0.347715    -9.270852
