STRONG GROUND MOTION RECORDS OF TURKIYE
PLACE                   : AYDýN SOKE YENIKENT HARIKALAR DIYARI
EARTHQUAKE DATE         : 2017/07/20 22:31:09 (GMT)
EPICENTER COORDINATES   : 36.91980N-27.44350E
EARTHQUAKE DEPTH (km)   : 19.44
EARTHQUAKE MAGNITUDE    : 6.5 Mw
STATION ID              : 0911
STATION COORDINATES     : 37.76209N-27.39092E
STATION ALTITUDE (m)    : 67
RECORDER TYPE           : GeoSig gmsplus
RECORDER SERIAL NO      : 101131
RECORD TIME             : 20/07/2017 22:31:09.000000 (GMT)
NUMBER OF DATA          : 18406
SAMPLING INTERVAL (sec) : 0.01
RAW PGA VALUES (gal)    : (N-S) 10.45927 (E-W) 10.243052 (U-D) 11.322321
Copyright EARTHQUAKE DEPARTMENT
DISASTER AND EMERGENCY MANAGEMENT PRESIDENCY
       N-S          E-W          U-D
[...]
    0.240386      0.168920    -1.288990
    0.145791     -0.050676    -1.051462
   -0.006237     -0.017412    -0.554578
   -0.241686      0.231550    -0.007017
   -0.483891      0.503902     0.479733
   -0.612530      0.631241     0.786128
   -0.620846      0.572249     0.838103
   -0.509099      0.387477     0.694391
   -0.318869      0.264295     0.432695
   -0.057693      0.303017     0.044699
    0.239607      0.512477    -0.481032
    0.542623      0.700628    -0.872147
    0.832646      0.663466    -0.846419
    1.011701      0.384618    -0.529889
    1.100059     -0.053795    -0.290283
    1.136962     -0.479473    -0.391895
    1.121629     -0.796523    -0.805099
    0.985194     -0.926202    -1.290809
    0.672562     -0.891638    -1.539511
    0.261696     -0.764038    -1.363575
   -0.153847     -0.554837    -0.850577
   -0.435554     -0.318609    -0.254160
   -0.527810     -0.088878     0.251041
   -0.431396      0.070946     0.608372
   -0.206862      0.197507     0.689714
    0.025468      0.341219     0.386957
    0.174118      0.507800    -0.118504
    0.118504      0.666844    -0.367986
   -0.129159      0.700888    -0.075624
   -0.448808      0.604474     0.520794
   -0.627603      0.393454     0.901253
   -0.495585      0.149689     0.789246
   -0.096414     -0.055354     0.502342
    0.382279     -0.207642     0.501303
    0.681138     -0.245064     0.797563
    0.730514     -0.143192     1.113313
    0.625784      0.099793     1.202451
    0.527550      0.291322     1.040028
    0.529110      0.230771     0.728175
    0.596418     -0.114086     0.396053
    0.696990     -0.597457     0.205823
    0.763519     -0.938936     0.107589
    0.801980     -1.016119    -0.085240
    0.799122     -0.857334    -0.417882
    0.726616     -0.676200    -0.790026
    0.595638     -0.626823    -1.125787
    0.389556     -0.657489    -1.413211
    0.129679     -0.665025    -1.472723
   -0.193868     -0.537686    -1.061078
   -0.500003     -0.305615    -0.270532
   -0.673081     -0.001559     0.497924
   -0.653851      0.304576     0.919705
   -0.479213      0.508839     0.926462
   -0.276509      0.571729     0.656449
   -0.087579      0.517675     0.323027
    0.010655      0.467519     0.137475
   -0.028586      0.470637     0.215438
   -0.178795      0.535606     0.325106
   -0.353693      0.559515     0.082641
   -0.430356      0.473756    -0.559255
   -0.358370      0.320428    -1.318356
   -0.149429      0.101092    -1.819139
    0.059772     -0.043919    -1.806405
    0.195428      0.006237    -1.320955
    0.262996      0.260657    -0.678279
    0.311333      0.544702    -0.198806
    0.442830      0.638518     0.006757
    0.665805      0.523652    -0.048337
    0.924382      0.246883    -0.201665
    1.091743     -0.043399    -0.116685
    1.121629     -0.242725     0.361229
    1.017938     -0.314191     0.956867
    0.800681     -0.311593     1.342784
    0.579266     -0.358370     1.510925
    0.406708     -0.501043     1.500270
    0.330823     -0.722458     1.220642
    0.335761     -0.843561     0.622405
    0.332902     -0.790546    -0.024688
    0.219596     -0.600056    -0.192569
   -0.028586     -0.368506     0.273391
   -0.320688     -0.272871     1.015859
   -0.556137     -0.318869     1.594345
   -0.563673     -0.388776     1.687121
   -0.335501     -0.358111     1.141640
   -0.027547     -0.239347     0.177236
    0.236748     -0.054314    -0.759361
    0.375522      0.182174    -1.349801
    0.363828      0.369285    -1.459209
    0.154367      0.402030    -1.157752
   -0.173858      0.183213    -0.661907
   -0.454785     -0.196987    -0.345896
   -0.488829     -0.564713    -0.504941
   -0.203224     -0.739350    -0.935037
    0.161643     -0.661127    -1.154114
    0.328744     -0.434774    -0.893197
    0.160864     -0.154887    -0.314971
   -0.184773      0.063930     0.155147
   -0.453225      0.213879     0.149169
   -0.528330      0.268973    -0.283266
   -0.405148      0.219856    -0.667364
   -0.209201      0.145011    -0.577707
   -0.058212      0.123182     0.082381
   -0.036383      0.233629     1.152554
   -0.085240      0.375262     2.202198
   -0.050676      0.430356     2.461035
    0.182174      0.260917     1.465966
    0.628123     -0.180874    -0.173078
    1.104477     -0.691273    -1.159831
    1.370072     -1.000007    -0.890339
    1.225320     -0.893977     0.130978
    0.799901     -0.480253     1.361755
    0.470897     -0.034304     2.469871
    0.452446      0.129679     3.014053
    0.712843     -0.095895     2.744041
    1.043926     -0.443350     1.757288
    1.257545     -0.583944     0.286125
    1.172045     -0.306915    -1.312119
    0.770795      0.228952    -2.410359
    0.220895      0.687375    -2.662440
   -0.298599      0.700888    -2.202458
   -0.572769      0.209721    -1.114093
   -0.515336     -0.338880     0.452966
   -0.222974     -0.640077     2.133850
    0.047557     -0.469598     3.368786
    0.150469      0.222715     3.363848
    0.159305      1.084727     1.820958
    0.136435      1.680365    -0.579526
    0.081082      1.721685    -2.889312
   -0.051196      1.207389    -4.356578
   -0.178016      0.480513    -4.451173
   -0.215698      0.068348    -3.225593
   -0.202444      0.109668    -1.400997
   -0.140334      0.402030     0.018971
   -0.007277      0.606033     0.432175
    0.178795      0.471937     0.122142
    0.295740      0.094335    -0.371624
    0.251041     -0.398391    -0.781190
    0.088878     -0.792885    -0.838623
   -0.056133     -0.991951    -0.428277
   -0.029106     -1.040028     0.277029
    0.217257     -1.008583     1.123188
    0.650992     -0.977657     1.881509
    1.109675     -0.805359     2.014567
    1.427764     -0.391895     1.205569
    1.501569      0.263515    -0.185812
    1.249489      0.935297    -1.457910
    0.667364      1.240393    -2.059785
   -0.155406      0.982075    -1.927248
   -0.900474      0.266894    -1.283533
   -1.280934     -0.568351    -0.452706
   -1.161650     -1.279894     0.194388
   -0.610451     -1.618774     0.518455
    0.108369     -1.468825     0.317050
    0.721938     -0.944393    -0.699849
    0.961285     -0.220376    -2.162696
    0.767157      0.324846    -3.016132
    0.261956      0.438672    -2.522886
   -0.321988      0.227652    -1.064196
   -0.677759     -0.073545     0.541324
   -0.627603     -0.338880     2.095908
   -0.278588     -0.494026     3.568111
    0.090697     -0.463361     4.435061
    0.296520     -0.307694     4.294727
    0.310293     -0.087579     3.419721
    0.244544      0.132018     2.202458
    0.145531      0.338100     0.783529
    0.042620      0.562374    -0.589661
    0.060811      0.783529    -1.583171
    0.163723      1.022616    -2.084214
    0.228952      1.251828    -2.060825
    0.206602      1.382546    -1.305102
    0.120323      1.265861     0.110448
    0.045998      0.845640     1.471943
    0.080042      0.225833     2.166595
    0.190750     -0.380460     2.074598
    0.182694     -0.793924     1.181921
    0.011175     -1.011701    -0.308214
   -0.153327     -0.954528    -1.821478
   -0.121622     -0.603175    -2.701421
    0.068348     -0.033524    -2.444403
    0.274690      0.506760    -1.019238
    0.540284      0.705046     0.909310
    0.910089      0.587322     2.264568
    1.325892      0.283006     2.291336
    1.640863     -0.033264     1.160871
    1.692059     -0.347456    -0.465180
    1.364614     -0.713362    -2.023662
    0.645794     -1.047044    -3.150749
   -0.154627     -1.315237    -3.761979
   -0.712843     -1.459729    -3.931419
   -0.900734     -1.380467    -3.639577
   -0.787427     -0.996888    -2.704800
   -0.626563     -0.422560    -1.148656
   -0.608892      0.312112     0.623445
   -0.805359      1.135143     2.193102
   -1.104217      1.657755     3.298359
   -1.403076      1.700375     3.806938
   -1.559782      1.299645     3.564213
   -1.311859      0.685815     2.112540
   -0.556137      0.127600    -0.689973
    0.544962     -0.233889    -3.889059
    1.511185     -0.294960    -5.927015
    1.886707     -0.133057    -5.696504
    1.455571      0.120063    -3.513537
    0.432175      0.332643    -0.705306
   -0.654630      0.397092     1.680365
   -1.366953      0.214399     3.078763
   -1.428024     -0.282746     3.352413
   -0.962584     -0.958166     2.712076
   -0.228952     -1.475062     1.481819
    0.430616     -1.540031     0.021310
    0.710764     -1.294447    -1.099799
    0.642676     -1.193875    -1.096161
    0.382279     -1.445956     0.305615
    0.079522     -1.843567     2.400484
   -0.206602     -1.985200     4.221962
   -0.476095     -1.557183     5.212873
   -0.866950     -0.584983     4.871914
   -1.431143      0.550939     3.068368
   -1.959992      1.475582     0.348235
   -2.223508      1.883848    -2.347729
   -2.290556      1.664512    -3.861772
   -2.292895      1.143979    -3.812655
   -2.109681      0.662167    -2.671536
   -1.666331      0.528590    -1.050683
   -0.929060      0.782490     0.524952
    0.086279      1.195694     1.858900
    1.151255      1.555364     2.630475
    2.087072      1.637485     2.582918
    2.753917      1.471164     2.211034
    2.997421      1.110974     1.819139
    2.956361      0.635659     0.743768
    2.836038      0.092776    -1.634626
    2.797316     -0.463880    -4.722745
    2.811869     -0.897095    -7.012261
    2.564726     -1.126307    -7.353220
    1.752610     -1.037429    -5.692346
    0.476095     -0.650212    -2.786661
   -0.765078     -0.129419     0.217777
   -1.506247      0.178016     2.351887
   -1.655676     -0.070167     3.637498
   -1.450893     -0.736751     4.449354
   -1.025735     -1.328751     4.425965
   -0.544442     -1.368512     2.997941
    0.051716     -0.721419     0.579526
    0.824590      0.108629    -1.439199
    1.516902      0.464660    -2.000013
    1.968568      0.141893    -1.157752
    2.195181     -0.572509     0.389036
    2.278861     -1.165288     2.077976
    2.023922     -1.273137     3.499504
    1.342525     -0.893977     4.091244
    0.370065     -0.149689     3.490928
   -0.694651      0.677499     1.732600
   -1.522359      1.165288    -0.835505
   -1.909316      1.240133    -3.297579
   -1.928287      0.957647    -4.575914
   -1.792112      0.599016    -4.259904
   -1.586289      0.407227    -2.682710
   -1.269759      0.412425    -0.451406
   -0.760140      0.674641     1.911395
   -0.197766      0.948551     3.865151
    0.186592      0.994289     4.759907
    0.500263      0.690233     4.168427
    0.833426      0.125001     2.255992
    1.085766     -0.557696    -0.477654
    1.200892     -1.292628    -3.129959
    1.105777     -1.910876    -4.493013
    0.829787     -2.263269    -4.151275
    0.372664     -2.098247    -2.615662
   -0.152288     -1.395280    -0.930360
   -0.435034     -0.431916    -0.072506
   -0.457384      0.376562    -0.215438
   -0.360709      0.652031    -0.927501
   -0.295220      0.376302    -1.741176
   -0.353433     -0.204263    -2.424652
   -0.500783     -0.664765    -2.614103
   -0.578486     -0.841742    -2.043933
   -0.403329     -0.834205    -1.131504
    0.111227     -0.663986    -0.461801
    0.830047     -0.379420    -0.011435
    1.377608     -0.010395     0.776512
    1.520540      0.429577     2.039515
    1.258584      0.968562     3.296800
    0.810556      1.559522     4.103198
    0.445169      2.044712     4.215985
    0.311333      2.326419     3.380740
    0.260657      2.326159     1.318096
    0.009356      2.007290    -1.631508
   -0.408007      1.416330    -4.050443
   -0.928021      0.793924    -4.462608
   -1.490135      0.318609    -2.862285
   -1.960512      0.014553    -0.505721
   -2.064203     -0.162943     1.632547
   -1.491694     -0.404109     3.295500
   -0.294701     -0.588621     4.174664
    1.156972     -0.513777     3.699869
    2.443623     -0.155406     1.862019
    3.415563      0.316010    -0.415803
    4.050703      0.538725    -2.050170
    4.291609      0.380980    -2.318882
    4.003925     -0.179575    -1.023396
    3.193369     -0.993510     1.296786
    2.233903     -1.682184     3.751844
    1.371631     -1.973766     5.713916
    0.592779     -1.905158     6.945473
   -0.163203     -1.645021     6.986533
   -0.889559     -1.388263     5.135949
   -1.293928     -1.207648     1.742475
   -1.215185     -1.063936    -1.771322
   -0.869548     -1.070953    -4.338127
   -0.584203     -1.115652    -5.705600
   -0.570430     -0.967002    -5.902846
   -0.714142     -0.478953    -4.986000
   -1.044446      0.281447    -3.351634
   -1.587329      1.012741    -1.658015
   -2.051729      1.569917    -0.448808
   -2.223508      1.921790    -0.215698
   -2.137488      2.136709    -0.848239
   -1.893724      2.263269    -1.366953
   -1.533014      2.193622    -1.246890
   -1.128386      1.814461    -0.707125
   -0.574328      1.244551     0.483111
    0.166581      0.665025     2.959999
    0.871108      0.052495     6.410386
    1.268720     -0.583164     9.392215
    1.482598     -1.152295    11.004232
    1.888006     -1.525738    11.322321
    2.482085     -1.655157    10.291129
    3.030166     -1.759627     7.703534
    3.376582     -1.935564     3.861252
    3.552259     -2.155680    -0.262736
    3.530689     -2.358644    -3.716241
    3.267434     -2.428031    -5.857368
    2.758594     -2.412958    -6.191050
    2.052509     -2.225847    -5.174151
    1.269239     -1.660614    -4.037189
    0.461801     -0.683477    -3.254959
   -0.177496      0.306655    -2.600329
   -0.548860      0.850837    -2.224027
   -0.789506      1.034830    -2.291855
   -0.876825      1.212586    -2.420494
   -0.787947      1.501569    -2.106563
   -0.608372      1.665812    -1.306921
   -0.368246      1.620853    -0.438932
    0.025208      1.532235     0.453745
    0.659568      1.585769     1.494033
    1.247410      1.754170     2.129432
    1.371111      1.913214     1.833692
    0.828228      2.044192     0.811596
   -0.174377      1.972726    -0.369285
   -1.265861      1.537692    -1.287950
   -2.101625      0.669443    -1.502349
   -2.307708     -0.512997    -0.648133
   -1.813422     -1.605000     0.747406
   -0.689454     -2.213113     1.793931
    0.914247     -2.098507     1.991697
    2.718054     -1.339926     0.812376
    4.306422     -0.254679    -2.233123
    5.220669      0.849018    -6.360749
    5.152841      1.685822    -9.237588
    4.204810      2.085253    -9.181454
    2.644508      2.079016    -6.469898
    0.713882      1.778858    -2.366440
   -0.927501      1.302763     1.813162
   -1.847725      0.834205     4.936623
   -2.068881      0.351354     6.237828
   -1.871634     -0.230771     5.767710
   -1.693359     -0.721678     4.115412
   -1.654117     -0.961025     1.856561
   -1.703234     -0.945173    -0.185032
   -1.660354     -0.895276    -1.115392
   -1.370591     -0.969861    -0.988832
   -0.810556     -1.112533    -0.713882
    0.033004     -1.263522    -0.952189
    0.988832     -1.312639    -1.747673
    1.715708     -1.203490    -2.753397
    1.830833     -0.890598    -3.672062
    1.266381     -0.430096    -4.419468
    0.340699      0.055354    -5.082155
   -0.566012      0.434514    -5.990685
   -1.111754      0.528850    -7.219643
   -1.215445      0.440492    -8.072039
   -1.038988      0.518195    -7.624531
   -0.898915      1.045225    -5.707938
   -1.055620      2.029379    -2.860206
   -1.516902      3.271332     0.206082
   -2.104744      4.398938     2.591493
   -2.416596      4.945199     3.633340
   -2.230524      4.659854     3.377102
   -1.559522      3.568371     2.315764
   -0.595378      2.100586     1.077710
    0.341478      0.807178     0.086019
    1.114612     -0.097454    -0.326406
    1.729481     -0.638518    -0.011435
    2.266907     -0.982335     0.584983
    2.747420     -1.195434     1.031712
    3.201685     -1.369812     1.215185
    3.567072     -1.674388     1.270799
    3.527570     -2.102405     1.506507
    2.758075     -2.629955     1.801467
    1.443877     -3.094096     1.799648
    0.146571     -3.416343     1.430363
   -0.884361     -3.717540     0.650732
   -1.551206     -4.086046    -0.468558
   -1.803027     -4.493273    -1.461548
   -1.765864     -4.671029    -2.051209
   -1.643982     -4.358917    -2.314984
   -1.610718     -3.453246    -2.212333
   -1.681404     -2.063423    -1.800688
   -1.861239     -0.556397    -1.429583
   -2.173091      0.590700    -1.289250
   -2.483125      1.218303    -1.021057
   -2.661660      1.530676    -0.162683
   -2.741702      1.759887     0.928021
   -2.765091      2.028860     1.354739
   -2.616182      2.202198     1.030412
   -2.157759      2.041854     0.608112
   -1.450374      1.362275     0.404888
   -0.862532      0.218037     0.423859
   -0.633840     -1.008063     0.804319
   -0.604214     -1.819659     1.578753
   -0.651252     -1.854222     2.202458
   -0.675420     -1.163469     1.764305
   -0.546781     -0.059252    -0.042880
   -0.184513      1.030672    -2.301731
    0.298339      1.742735    -3.885421
    0.618767      1.871894    -4.289790
    0.562634      1.454791    -3.210780
    0.073285      0.926202    -1.113833
   -0.604994      0.438153     0.557956
   -1.214145     -0.066269     1.127606
   -1.671529     -0.576667     1.141900
   -1.989618     -1.139301     0.886181
   -2.285878     -1.659055     0.352133
   -2.556150     -1.962851     0.276249
   -2.774967     -1.855002     1.509106
   -3.012494     -1.495852     3.694931
   -3.132817     -1.207648     5.594112
   -2.762752     -1.058999     6.206123
   -1.784315     -1.033011     5.152581
   -0.682437     -1.073812     3.007816
    0.046518     -1.071473     1.157752
    0.264815     -0.813935     0.247143
    0.064969     -0.224534    -0.385657
   -0.281967      0.566792    -1.035350
   -0.514816      1.203490    -1.048604
   -0.541064      1.343824    -0.015593
   -0.439192      1.209468     1.744554
   -0.288983      1.351880     3.414004
   -0.159824      2.101365     3.994829
   -0.015333      3.140873     3.081621
    0.204003      3.796803     1.455571
    0.425679      3.553818    -0.011954
    0.747406      2.316284    -1.261703
    1.326412      0.664765    -1.997155
    2.015086     -0.704527    -1.451413
    2.390349     -1.500530     0.403849
    2.192582     -1.740396     2.646068
    1.538472     -1.477920     4.279135
    0.842261     -0.878124     4.645301
    0.499743     -0.270532     3.414004
    0.399691      0.087319     1.005464
    0.299898      0.048337    -1.321734
    0.096934     -0.217257    -2.597990
   -0.183213     -0.500523    -2.812909
   -0.292102     -0.585763    -2.189724
   -0.155926     -0.317050    -0.841742
