STRONG GROUND MOTION RECORDS OF TURKIYE
PLACE                   : MUðLA SELIMIYE ORMAN ISLETME SEF.
EARTHQUAKE DATE         : 2017/07/20 22:31:09 (GMT)
EPICENTER COORDINATES   : 36.91980N-27.44350E
EARTHQUAKE DEPTH (km)   : 19.44
EARTHQUAKE MAGNITUDE    : 6.5 Mw
STATION ID              : 4814
STATION COORDINATES     : 37.39910N-27.65670E
STATION ALTITUDE (m)    : 63
RECORDER TYPE           : GeoSig gmsplus
RECORDER SERIAL NO      : 101902
RECORD TIME             : 20/07/2017 22:30:59.000000 (GMT)
NUMBER OF DATA          : 13808
SAMPLING INTERVAL (sec) : 0.01
RAW PGA VALUES (gal)    : (N-S) 21.625145 (E-W) 24.431816 (U-D) 14.073639
Copyright EARTHQUAKE DEPARTMENT
DISASTER AND EMERGENCY MANAGEMENT PRESIDENCY
       N-S          E-W          U-D
[...]
    4.051223      0.165282     2.931153
    0.283006     -3.605014     3.247943
    0.741429     -3.205063    -3.038222
    2.790299     -9.150269    -2.960259
    3.137495    -11.259171     1.320955
    0.865910     -2.867223    -3.762499
   -4.728202     -0.500263    -8.286438
   -4.776539     -3.882303    -4.103718
   -5.716254      0.518714     0.493247
   -5.820465      2.304069     3.455325
   -1.869815      0.773914     2.029899
   -1.474022      3.961305    -4.174144
   -3.946232      1.887227    -3.786408
   -3.901014      0.865390     3.061871
    1.191536      5.039015     1.519761
    2.121636      4.870875    -5.068641
   -3.718320     -2.725330    -3.163223
   -3.695711    -11.051010     3.885681
   -1.029633     -7.440798     2.668677
   -8.211593      0.425938    -2.854749
   -7.760447      5.058506    -1.171266
    2.645028      4.961312    -1.050943
    6.020311     -1.989358     1.765864
    6.082421     -2.808751     5.448581
    0.109408      1.926468     1.698816
   -2.814988      1.813422     3.563174
    2.818626      1.462328     2.461035
    3.365927      3.813955    -2.900747
   -3.188951      3.468059    -2.534840
   -9.265135      5.641410    -0.549380
   -5.122176      4.806685    -0.661387
    0.546261    -10.494353    -5.374256
    2.875539    -15.247243    -2.636192
    2.202458     -2.060305     1.040548
   -5.708198      2.588635    -4.770822
   -4.434801     -3.691033    -4.563440
    1.333949     -6.042660    -3.456104
   -2.448561     -0.585243    -4.593586
   -2.846953     -1.313678    -1.659834
    4.299405     -4.735219     1.311339
    7.323074      2.382033     4.712610
   -0.835764      4.134383     3.700648
   -3.836824      1.579013    -0.568351
    3.507300      1.276516    -2.019244
    2.746380      0.021050    -1.009622
   -0.671002      5.340472    -1.406454
    0.241686      2.663999    -3.220656
   -3.052255     -5.206116    -0.463101
   -6.659608     -1.569137     2.754436
   -4.484957      1.715448     1.739877
    0.019491      2.278082    -2.807971
    0.246104      3.721958    -3.168420
   -5.400764      5.513291     1.637485
   -6.458203      4.989638     0.707645
   -1.834472     -0.860973    -1.016639
    0.245844     -3.011974     2.222988
   -1.017159     -0.995069     7.403116
   -5.957160      1.481039     5.864125
   -8.121936      1.458170    -3.536666
   -4.629449     -8.083734    -4.163489
    1.794191     -9.220176    -0.135916
    5.910123      1.440238    -1.497671
    4.441038      2.198819     0.690493
    5.432209      0.874226     6.040321
    1.309260      2.186605     4.882829
   -8.688468      0.667364    -1.190497
  -10.131305      0.638258    -3.615929
   -3.243525     -0.883322    -2.719873
    4.961572     -5.833199    -1.367733
    4.883868     -6.646874    -1.877351
   -1.249489     -1.499490    -5.628416
   -4.354239      0.616168    -5.044472
   -1.273137      2.159318     0.185812
    3.922583      5.680911    -0.272351
    1.633067      3.980796    -1.519501
   -3.381779      2.944926    -0.984414
   -6.723538      5.103205    -3.177516
   -7.782277     -0.353952    -0.850318
   -2.462594     -7.660394    -1.897622
    2.731567     -8.385711    -4.184020
   -0.526511     -4.135163    -0.454525
   -6.251601      6.322288    -1.951416
   -4.365414      7.387783    -4.813962
   -2.395806     -2.199599    -5.004711
    0.135136     -5.683250    -1.789513
   -2.539258     -2.710777    -1.041067
  -14.038556      3.214938    -1.435820
   -9.515916      1.818619     3.611251
   -0.887220      0.335761     2.200379
   -1.199592      1.944140    -0.923083
   -1.077970     -3.804859    -1.571736
   -1.317836     -2.041594     0.425679
   -0.558736      3.334222     4.321495
    0.729994     -0.852656    -0.488569
    5.299412     -4.201691    -3.108909
    6.311893     -3.083181     2.068101
    4.555904     -2.199599     3.257298
    4.076171      0.881763    -2.639311
   -0.851357      2.629176    -2.968575
   -1.487536      3.123462     4.294987
    0.257798      5.302270     1.894763
   -0.399171     -1.043406    -2.487543
    1.952196     -1.469085    -0.391115
    0.547821      6.173118    -0.164502
   -3.992750      0.195687     1.378388
   -1.911655     -8.368299     3.082921
    0.506500     -6.803060     1.262742
   -3.843321     -1.250268    -2.601629
   -4.803307     -0.415283    -0.460242
    4.363335     -0.018711     5.648427
    7.554884      3.263535     1.962851
    1.153594      1.887487     1.072253
   -3.581625      3.481832     0.168140
   -5.780444      7.139601    -5.158818
   -3.409326     -0.699849     0.341998
   -1.724544     -6.773954    -0.830567
   -1.714149     -6.092556    -4.629709
   -0.577187     -8.514870     0.852916
   -0.237268     -1.423866     0.172039
    0.882802      4.889846    -1.817320
    0.580825     -3.823051     1.083687
    1.604740     -3.127100     2.376575
   -1.079009      5.477947     1.895283
   -9.673142      2.388530     4.675967
  -10.888846     -1.472463     3.053555
   -3.250022     -5.955601    -0.487789
    3.735732     -8.131291     3.927781
    1.788993      4.311359     4.318376
   -1.381506      4.237814    -0.721678
   -1.691280     -6.799942    -1.091743
   -3.732094     -4.405695     1.916333
   -0.578226      0.128119    -0.235449
    2.485204      2.847992    -2.940768
    3.975338      5.662460     0.482851
    7.699376      5.101386     1.340186
    8.688208     -3.377361     0.517155
    8.929634    -10.056720     1.172565
    4.409593     -4.809804     1.431922
   -2.470911      2.768989     0.158005
   -4.025495      8.150262    -1.235195
   -1.747673      4.516922     3.223254
   -3.530429     -0.502602     6.488349
  -10.037229      3.004178     2.378914
  -11.139108      2.303810    -1.402036
  -10.141700      2.089151     0.565752
   -4.181941      5.260430     2.201418
    0.877085      1.418149    -2.303290
   -3.615929     -1.760927    -1.804326
   -2.757555      0.722198     4.629709
    1.199592      2.645288     1.719086
    3.344357     -3.014573    -2.721172
    5.914541    -11.000074     0.903073
    3.862552     -5.123215     1.171266
   -3.354752      3.540564    -1.808484
   -6.910389      0.598497    -6.067088
   -3.204803     -2.258331    -5.640890
    0.058212     -3.077204     4.464427
    1.432962     -2.957140     1.934005
    1.820179     -2.878658    -5.447282
    1.419708     -4.060318    -3.129439
    3.016652      3.974559    -2.743781
    8.508633      3.836304     0.265594
    7.743295     -3.654910     0.882023
   -2.028340      0.489868     2.431669
   -6.135176     -0.014553     6.787987
   -2.840715     -0.609152     2.205576
    2.353446      0.949591     3.281727
    1.714409     -1.427504     4.439739
   -5.333196     -0.589401    -1.849804
  -11.140667     -3.095915    -4.361256
  -10.956934     -4.895823    -4.523679
   -6.035643     -1.977144    -1.365654
   -2.712076      0.300678     0.698289
    2.763792      3.472736    -1.569657
    3.357611      3.788487    -2.965716
    1.020537      0.661647     2.211813
    6.142713      1.638784     6.549940
    5.915580     -0.764038     0.662946
    4.559282     -4.524718    -3.328505
    6.442351      3.519774    -1.994556
    6.362309     11.522686     0.884621
    4.263542      8.974592     1.905158
   -2.310826     -0.480513     1.308741
   -3.229232     -6.661427     5.642190
   -2.639051     -2.938169     6.708985
   -2.900487      2.836817     3.779911
    5.557470     -0.669183    -0.736751
    8.175471     -9.093616    -3.891658
    3.158805     -0.996888     1.662173
    0.313152     16.311180     1.584210
    1.146837     16.606400    -2.241439
    5.035377      3.194928    -0.378381
    0.732333     -2.629176    -0.584463
   -6.014853      3.057973    -0.957647
   -7.752911      4.556164    -3.504181
   -6.579566      1.591747    -3.143992
   -2.725330     -2.903606     1.405155
   -1.461028     -6.223534     0.466739
    6.021870     -1.894763     1.965710
   12.459283     -0.593819     2.987286
    6.149210     -3.433495    -1.644242
   -1.218043    -10.591027    -2.331357
   -3.109948    -12.818693     0.220636
    0.520534     -0.186332     0.050676
    2.201678      3.325906    -1.775480
    4.135942     -3.028347    -2.462335
    3.891398     -3.628663    -2.112020
   -0.884102      1.987539     2.664259
    2.900227      8.722512     6.788507
    4.697797      6.565792     3.673102
    1.353439     -0.683996     4.301224
    0.026767     -2.739623     6.490688
   -0.939975      2.923876     4.656996
    3.349035      7.812942     4.408813
    5.004192      6.001080     1.763525
    1.315497      3.598257     3.224294
    1.018198     -1.320955     6.026808
    0.144492     -6.387517    -0.773914
   -2.540817     -8.550733    -1.094862
   -1.192835     -8.685349     1.472983
    2.521327     -1.996375    -2.141906
    5.243798     -1.114093    -0.077443
    8.523446     -4.249249    -1.212586
    9.472777     -6.125821    -6.671043
    5.970414    -16.146678    -4.821238
    2.911922    -15.944234    -2.652305
    1.456351     -6.956388    -1.573035
    0.999747     -6.783309    -0.641376
   -1.867996     -4.416869    -4.474042
   -4.032252     -1.259624    -2.593572
   -0.455564     -2.502616     5.184546
   -2.455318      1.858640     1.740396
   -6.141673      3.064470    -4.168167
   -3.460782     -2.377095     2.059265
   -0.757282      1.178802     6.313712
   -2.908024      6.796043     0.222974
  -12.600656      6.063970     1.609678
  -16.070014      8.761233     9.920545
  -12.965523      9.153128     6.543703
  -13.143799      2.107083     2.726889
  -10.173145      4.142959     6.813455
   -8.382333     12.632621     2.711816
   -9.306195      9.571790    -4.221442
   -3.407767     -1.557443    -0.736232
    7.488616     -6.570730     1.727662
    9.579586     -5.457937     2.632814
    6.506800     -3.724037     6.477174
    8.176770      1.561601     0.740649
    4.029133      2.220129    -1.269239
   -1.377868      1.725843     5.122955
    0.968302      8.378694     1.518981
    3.395553      3.550699    -0.345117
    2.969095     -3.113067     0.761180
    0.408007      1.005204    -5.090211
   -2.165555     -5.322281    -5.818386
   -1.240913    -11.083754    -2.254433
    1.945439     -2.195701    -1.961032
    0.742988     -2.007030    -2.796796
   -3.110728     -8.938469    -5.100866
   -0.792625     -9.539565    -2.602668
    3.874766     -7.942361     3.736771
    2.610205      2.385151     0.911649
    2.746900     13.175244    -0.041320
    7.920011     15.070267     4.578253
    3.564993     16.545069    -1.123708
   -1.525218     13.221242    -4.990938
    6.269013      9.972780    -2.590194
    9.003699      9.533068    -4.738077
    6.520574     -0.123701    -4.360736
    6.877645     -7.781757    -4.021337
    6.499784     -6.222495    -4.186099
   11.002672     -4.873214    -0.768196
   12.920045     -0.240386    -1.565239
   10.141440      1.550166    -0.667364
    8.707439     -3.110988     2.516389
    2.580319      0.338620     0.088358
   -1.363055      6.705086     0.293141
    2.714155      9.937437     0.658268
    5.798116     12.783610    -6.103211
    6.889599      3.856835    -5.889592
    9.382859     -5.194681    -0.231291
    8.029420      3.948051    -3.010155
    5.561628     10.805166    -4.283033
    7.850884      9.213159    -0.814974
    9.157026      6.466000     0.763519
    4.250028     -4.580852     0.737531
   -3.179335    -10.761507     1.552505
   -3.073046     -8.088412     5.727169
   -0.046258     -9.317110     4.152834
   -2.739883    -11.085053     0.645275
   -4.426225     -9.959266     3.605274
   -5.030179     -9.560875     1.706093
   -7.721725    -13.478261    -1.093043
   -8.007590    -15.575988     0.999227
   -4.128926    -10.934065     2.171012
   -0.161903     -7.902600     3.480533
    0.141633     -6.679619     4.284332
   -0.424119     -5.405442     2.606826
   -1.292628     -7.270839     0.709724
   -1.986760     -6.056174     2.037176
   -1.001566     -3.579286     0.198546
   -1.426725     -8.555151    -1.600323
   -2.192322    -12.890419     3.745087
   -3.572529     -8.651565     2.988845
   -3.641656     -5.352167     0.722458
   -6.346456     -5.305389     1.946479
  -14.807532      1.568877    -0.255199
  -13.044786      6.086059     3.754963
   -7.137002      0.503902     7.651299
   -3.987033     -2.955841     4.949357
    2.364361     -7.758108     5.469631
    0.389556     -9.083221     6.190790
   -4.626070      2.889312     6.042660
   -6.197807      6.129199     6.060332
   -8.547095     -0.507800     4.910376
   -7.082948     -1.740396     3.985993
   -4.629449      0.075364     3.931419
   -4.882049      1.529376     7.182481
   -4.989898      1.844347     8.212373
   -4.817860      2.019764     6.167401
   -8.607126     -2.878917     2.484684
  -10.697577     -6.543443    -2.072519
   -4.779658     -1.083687     3.771855
   -2.472990      2.607606     7.063717
   -7.333989      1.328751     0.668404
   -6.040061      0.395793     4.375809
    4.739117      9.104011     8.272145
   13.174984     24.431816     2.106823
    9.322308     23.575002    -0.087059
    1.585769     17.660461     1.760407
   -2.272105     22.206490     1.569397
  -11.097008     14.127433    -0.608892
  -16.525838     -2.696484    -2.303030
   -9.817633     -5.739643     0.554058
   -3.010415      0.182694     3.860213
   -1.429843      3.603974     1.902819
    1.612537      2.097727    -0.988312
    9.044239      1.705573     1.722465
    5.860486      3.792385     6.207162
   -0.485450      2.536659     6.162983
    2.165815     -0.506760     2.793678
    1.589148     -1.440758     1.311339
    5.451180     -2.245597     1.963371
   12.445769     -1.029373    -3.947012
   11.653145      1.212846    -7.821258
    9.898455      1.580832    -4.749772
    8.097767      3.517175    -8.155980
    4.524978      2.495079    -8.446522
    2.234682      1.553545    -2.613843
    2.891132      6.483671     0.220636
    6.587362      9.389356     0.488829
   14.284139     10.299185    -1.761446
   21.495726     10.357658    -3.226893
   20.176071      6.688974    -7.131025
   15.215798      2.219869    -8.232903
   13.610278     -1.916333    -5.179608
   12.125601     -7.378688    -6.945733
    8.173392     -7.554624    -8.289297
    1.113313      1.533534    -6.514077
   -0.799122      7.848285    -2.797576
    5.374776      3.200385    -2.447781
    6.207942     -4.689221    -3.442331
    1.853183     -6.739130    -1.698556
   -1.214665     -5.440005    -2.642169
   -0.619547     -3.793684    -1.168667
    3.746647     -2.050430    -0.050156
    6.450667     -0.396572    -1.779118
    9.855835     -0.146571    -0.486230
   11.232923     -3.916087     0.741429
    7.927028     -5.230804    -0.040021
    1.097201     -4.777839    -5.070980
   -8.264868     -4.846706    -6.319689
   -7.608679      0.209721     1.251828
   -4.281733      7.736538     2.034057
   -5.135429      8.979010    -2.863325
    1.753390      1.838110    -0.348235
   10.212386     -0.121363     3.004698
    9.486810      1.438679     0.161643
   -0.323547     -5.633354     1.645541
   -7.245111     -5.065263     7.668451
   -5.312666      4.481839     8.656763
   -3.215458      0.548600     8.504995
   -3.547841     -4.750292     6.646874
   -7.516682     -0.600576     3.289263
  -11.822844     -3.528610     2.208175
   -6.997188    -10.527098    -0.138255
    1.890865    -14.574162    -0.932699
    1.705573    -15.446309     0.436333
   -3.972220     -9.573609     0.438932
   -4.769003     -4.815781    -1.303023
   -2.870341     -5.620880    -1.635146
   -2.919978     -2.343311     4.314738
   -1.980263      3.377621    10.099860
    1.945179     -0.047557    12.044259
    2.901527     -3.565512    13.148997
   -1.434001      1.271578    10.379228
   -3.925442      3.015353     5.813448
   -0.509619     -0.144232     3.582664
    2.564206     -4.965730     5.807211
   -1.614876    -11.829601     4.929607
   -5.838916    -16.569238    -2.653604
   -5.397645    -14.344171    -2.494819
   -3.293421     -4.587869     0.637738
    5.607886     -0.505721    -0.325106
   12.557517     -3.866710     1.214405
    9.524752      1.074332     0.655150
    5.950404     10.418729    -2.070180
    5.193122     15.042980    -0.493506
    6.480293     16.334829     0.144751
    5.695204     11.249036    -2.491701
    1.011961      5.085013     0.817053
   -5.891412      6.641676     2.526524
  -11.822065      4.848525    -0.060811
  -15.010236     -4.017179     4.804346
  -18.805479     -3.392174     6.791366
  -17.637852      4.749252     5.335275
  -10.516702      4.717807     7.868036
   -5.037456      2.794198     7.405195
   -3.237288      1.482338     7.491734
   -6.230031     -3.439212     6.039541
   -8.176250     -1.089924     2.043153
   -5.582418      1.921011     4.257045
   -5.261989      1.384365     5.594632
   -7.756289      4.977684     5.986007
  -10.478760     11.538799     7.430923
  -13.637825     18.549241     2.969355
  -14.304929      9.334522     1.122669
   -8.491481     -8.090491     2.570703
   -2.224547    -10.133644     1.898661
   -1.646321     -6.519794     2.241179
    0.650212     -4.626070    -0.448028
    7.295267     -7.726663    -4.064996
   10.143519    -15.430717    -2.485204
    9.140134     -9.822051    -0.944393
   10.208488      4.877112    -4.497951
   14.874840     12.089738    -7.553065
   19.491555     13.868076    -7.318916
   14.809611      7.942881    -6.199366
    6.935857     -2.438426    -2.939729
    2.148403     -2.785622    -0.307954
   -7.960552      4.921031    -0.622405
  -10.582191     11.474609    -0.869289
    0.146051     13.077530     1.342005
    8.939769      7.816061     0.058472
   10.617795     -4.531215    -5.728209
    3.148150     -9.133897    -3.577727
   -6.687155      1.757028    -0.016372
   -6.207682      7.098540    -5.182727
    7.098800      1.138521    -8.310087
   18.031046     -2.983388    -6.182994
   13.008923     -0.610711    -5.340472
    9.295281      1.890345    -6.776813
   16.619914     -0.885141    -5.471190
   19.171646     -4.722225    -2.936350
   12.606633     -5.102685    -2.964677
    9.023449     -0.230511    -1.891905
    8.993823      1.209468    -3.301997
    3.448568     -6.310333    -6.577227
   -0.210240    -11.073619    -3.502102
    3.511978     -3.474296     2.976111
    7.679625      6.072026     3.053295
    4.373990      5.256272    -0.307434
   -4.911156      4.431163     2.761193
   -8.793458      8.950164     3.923883
   -7.435341      9.521893     2.048091
   -6.015893      6.395833     3.258598
   -9.524752      2.324860     1.897882
  -14.387310     -6.044999     1.046005
