STRONG GROUND MOTION RECORDS OF TURKIYE
PLACE                   : MUðLA MARMARIS METEOROLOJI MUDURLUGU
EARTHQUAKE DATE         : 2017/07/20 22:31:09 (GMT)
EPICENTER COORDINATES   : 36.91980N-27.44350E
EARTHQUAKE DEPTH (km)   : 19.44
EARTHQUAKE MAGNITUDE    : 6.5 Mw
STATION ID              : 4810
STATION COORDINATES     : 36.83942N-28.24483E
STATION ALTITUDE (m)    : 19
RECORDER TYPE           : Guralp cmg5td
RECORDER SERIAL NO      : T5J43/A1046
RECORD TIME             : 20/07/2017 22:31:03.000000 (GMT)
NUMBER OF DATA          : 14895
SAMPLING INTERVAL (sec) : 0.01
RAW PGA VALUES (gal)    : (N-S) 39.994448 (E-W) 32.091145 (U-D) 13.82808
Copyright EARTHQUAKE DEPARTMENT
DISASTER AND EMERGENCY MANAGEMENT PRESIDENCY
       N-S          E-W          U-D
[...]
   -1.271633      6.993553    -1.824459
    3.077097      9.410115    -1.125735
    6.977668      8.465472    -0.641657
    8.712281      5.608389    -1.384653
    8.505091      3.285362    -3.311515
    6.995149      2.896807    -4.808180
    4.009505      3.805024    -5.024779
   -0.017095      4.614964    -4.578267
   -4.009371      4.014988    -3.871861
   -6.391025      1.809588    -2.844157
   -6.722612     -1.155450    -1.690845
   -6.421929     -2.675603    -0.942585
   -6.956963     -1.754864    -0.442605
   -9.160785      0.857381     0.590065
  -12.743999      2.395983     1.408416
  -16.206656      0.836272    -0.060922
  -17.199554     -2.396135    -3.531090
  -15.240668     -5.218119    -6.568961
  -11.297136     -5.575889    -8.670192
   -7.100382     -3.199410    -9.687109
   -3.535977      1.139585    -8.490512
   -1.500030      4.855835    -5.427623
   -1.173641      6.362804    -1.989600
   -0.583036      7.105038     1.050731
    1.107475      7.709249     3.401971
    3.817177      6.297783     4.454016
    7.426619      1.884140     3.717826
   11.215883     -3.471725     1.734694
   13.437892     -7.070571    -0.024891
   12.522019     -7.748839    -0.613573
    8.231196     -6.430690    -1.073316
    2.382269     -5.093689    -2.346001
   -2.158951     -4.646703    -3.914059
   -4.100709     -3.745770    -4.554488
   -4.593782     -2.335219    -3.502289
   -5.107351     -0.880678    -1.038132
   -5.603460      0.460779     1.942413
   -5.231266      0.772224     3.771089
   -2.868134     -0.309360     3.799517
    1.796672     -2.082887     2.480518
    7.068305     -3.420574     0.772164
   10.455268     -3.833127    -0.718577
   10.561057     -3.263232    -2.446193
    8.068093     -2.684084    -4.709692
    5.009452     -2.386147    -6.614974
    2.957363     -1.153392    -7.264839
    2.628094      1.622945    -7.218383
    3.769903      5.450436    -6.307093
    5.368052      8.075633    -4.255759
    5.077124      7.500775    -1.390450
    1.628050      4.416157     2.026946
   -3.909809      0.466084     5.042403
  -10.337379     -3.687414     6.445542
  -15.747687     -7.291112     5.190530
  -18.309688     -8.955893     2.006577
  -18.336182     -8.760555    -1.464544
  -16.881075     -8.109030    -4.346956
  -13.997435     -7.303725    -6.061895
   -9.732675     -5.359811    -6.375292
   -3.991530     -1.587934    -5.202820
    2.572937      2.304935    -3.130665
    8.467441      4.031506    -0.621245
   11.601077      1.986519     1.929136
   10.728235     -3.078231     3.086681
    7.107152     -7.953507     2.232824
    2.497778     -9.948647    -0.261842
   -1.353304     -7.347312    -3.716612
   -3.124436     -1.382875    -6.540550
   -3.389243      5.462343    -7.692892
   -4.026464      9.361384    -8.027337
   -5.716182      8.447129    -8.433725
   -8.508577      4.053860    -7.888066
  -11.945825     -3.178402    -5.668973
  -14.850244    -11.313613    -2.493136
  -16.379014    -16.808731     0.616920
  -16.219336    -16.077791     3.206902
  -15.155811     -8.944812     4.805105
  -14.315648     -0.001377     4.797054
  -14.424439      6.699841     3.832865
  -14.985030      9.692915     2.920944
  -14.446818      9.460568     2.944377
  -11.931949      7.428201     3.804121
   -7.096755      4.541531     4.556931
   -0.613711      1.779586     5.372285
    5.607559     -0.938155     6.289512
   10.176230     -2.770344     6.336100
   12.933922     -3.155829     5.598434
   14.354436     -2.706653     4.836104
   13.904923     -1.911081     3.540109
   11.785525     -0.367734     1.462668
    9.391894      2.849964     0.235792
    7.475487      7.419969     0.451479
    6.346499     12.294593     1.785403
    6.556023     16.844398     3.668247
    8.029230     20.544836     5.513110
   10.052522     21.616747     6.534363
   12.708835     19.403345     5.648162
   15.325814     15.645236     3.509075
   16.431582     12.807156     1.356202
   14.418721     10.823150     0.395483
    8.674974      8.613685    -0.170983
    0.452659      5.525671    -1.216466
   -7.032514      1.372819    -1.644410
  -11.058164     -3.128777    -1.564342
  -11.627099     -6.363648    -1.405362
   -9.606165     -6.658879    -0.657025
   -7.222001     -5.218761     0.079315
   -6.473613     -4.818251    -0.211692
   -7.107802     -6.409090    -1.054782
   -7.605704     -8.537757    -1.007623
   -6.548170     -9.767862     0.686125
   -3.366451     -9.855676     3.500722
    2.104992     -8.695451     6.865169
    8.656167     -6.582420     9.993283
   14.007546     -4.016893    11.590913
   17.608709     -0.856156    11.838055
   19.365501      2.503293    11.196919
   19.032079      4.796191     9.768966
   16.913747      3.620457     8.105866
   12.785666     -0.813516     6.034433
    6.984319     -6.113379     3.189941
    0.434591    -10.359222    -0.620664
   -5.175862    -11.965990    -5.058161
   -8.382521    -10.801579    -9.522634
   -8.058727     -7.909271   -12.932239
   -5.110171     -5.213482   -13.828080
   -1.967863     -3.683037   -11.666359
    0.798137     -3.191337    -7.240613
    2.909904     -4.077772    -2.355638
    3.778046     -5.165471     0.990749
    4.227063     -2.856704     2.777043
    5.679119      3.779516     3.335992
    8.227258     11.294892     2.992922
   11.213731     15.608295     2.632624
   13.465239     14.870916     1.949220
   13.896241     10.434431     0.956678
   12.363938      6.208722    -0.676803
   10.199965      4.851078    -2.637961
    7.822280      5.885751    -4.625474
    4.731411      6.919265    -7.062464
    0.795724      6.679806    -9.684776
   -3.177109      4.734684   -11.157983
   -6.536590      1.362192    -9.861381
   -9.451766     -1.685579    -6.597974
  -10.439968     -3.465435    -2.903192
   -8.359514     -4.774607     0.247953
   -4.081031     -6.685851     2.471645
    0.932058     -8.256270     3.976380
    5.958656     -7.611615     5.244635
   11.224424     -3.580690     6.751201
   16.273734      1.950984     7.766601
   20.243943      5.741049     7.080361
   22.147217      5.926597     4.773519
   20.648686      2.557030     2.077709
   15.753062     -1.911733    -0.347186
    7.456710     -3.910574    -2.478657
   -3.143902     -2.490861    -3.710025
  -14.510779     -0.118333    -4.025828
  -24.351246      0.815232    -4.204630
  -31.306657      0.018112    -4.087607
  -35.560298     -1.306615    -3.594054
  -36.754081     -1.986929    -2.960798
  -36.106528     -2.059350    -2.235070
  -34.896267     -2.218661    -0.819890
  -33.867123     -3.288264     1.257108
  -32.723674     -5.584949     2.807098
  -31.471048     -8.268939     2.481744
  -30.051475    -10.623655    -0.569033
  -27.773611    -11.593081    -5.271133
  -24.073549    -11.049668    -9.874376
  -17.578147     -9.681185   -12.417590
   -7.413189     -6.726221   -11.409249
    5.095824     -0.685572    -7.350547
   16.972867      7.505485    -1.885206
   25.817951     14.650036     3.222124
   31.437150     17.589870     6.371576
   33.944080     15.438699     7.235395
   32.925939      9.743762     6.105387
   30.134989      4.397191     3.321805
   27.874555      1.553585    -0.126701
   26.324987     -0.461698    -3.330233
   24.875189     -2.714951    -5.761401
   22.730655     -4.060428    -7.419728
   19.606589     -3.575995    -7.436496
   15.246563     -2.059716    -5.470992
    9.408788      0.940721    -2.436179
    3.185291      4.105256     0.715776
   -2.805346      6.001767     3.388770
   -8.346874      5.839979     5.347419
  -12.320265      4.047094     6.283236
  -14.036540      0.665526     6.407247
  -13.485945     -5.406414     5.329709
  -10.939596    -12.332843     2.550118
   -7.484860    -16.949851    -1.386823
   -5.164441    -16.508775    -4.994330
   -5.572158    -11.718730    -7.415709
   -8.250395     -5.298893    -8.857894
  -11.540591     -0.121184    -9.476752
  -13.300451      2.563478    -8.643701
  -12.516971      2.477860    -6.238526
   -9.406751      1.186210    -2.804474
   -5.833875      0.879036     1.153395
   -3.643163      1.346445     4.685853
   -2.549218      0.907318     6.628149
   -1.738098     -0.689968     6.327180
   -0.186158     -1.290831     4.435903
    3.216163     -0.155096     1.911901
    7.400606      2.041801    -1.135588
   10.217354      4.575523    -4.786136
   10.268026      7.286569    -8.048832
    7.293316     10.828685    -9.891516
    3.606451     15.298535    -9.438826
    1.695487     19.717606    -6.818939
    2.591156     21.811424    -2.720671
    5.234031     19.751946     2.324783
    7.629054     13.833334     7.761091
    7.898173      5.535834    11.930530
    5.815350     -2.096319    12.610701
    3.072018     -6.891758     9.694276
    1.089910     -8.583619     4.845709
    0.151103     -9.020594     0.005211
    0.806323     -9.202020    -3.941749
    2.284717     -8.188922    -6.506175
    3.328011     -4.173832    -7.291520
    4.057619      2.536152    -5.984355
    4.342664      8.151855    -3.408604
    4.840487      9.137922    -0.889174
    4.992072      4.475465     1.311668
    4.676648     -1.766999     3.357843
    4.387475     -5.739882     4.630732
    4.047323     -6.526618     4.858381
    2.828119     -6.211302     4.880024
   -0.222353     -6.250240     4.796995
   -3.403649     -6.106374     4.372814
   -5.852916     -5.603038     4.067766
   -8.366757     -4.109262     4.333158
   -9.546561     -2.108655     4.531052
   -8.434499     -0.223599     4.990094
   -6.263738     -0.688193     5.215089
   -4.955021     -5.008856     3.983109
   -6.342981    -11.947561     1.817560
  -10.356428    -18.126225     0.222597
  -16.039418    -19.821130     0.106402
  -21.105993    -16.183755     1.022871
  -23.280288     -9.299749     2.917280
  -22.321292     -3.129860     4.909571
  -19.371355     -0.065219     5.950039
  -15.396604     -0.209045     5.648012
  -10.392994     -1.240653     4.733722
   -5.042392     -1.481385     3.214335
    0.257158      0.142698     0.620107
    6.141940      4.021385    -2.169139
   12.326643      8.119480    -4.893489
   17.333178     10.364863    -7.551705
   19.991554     10.135116    -9.734495
   19.924046      8.626922   -10.582233
   17.010943      6.789022   -10.427213
   12.544145      6.173509    -9.699534
    9.642455      7.889922    -7.124856
   10.310957     10.721242    -3.028448
   14.182288     11.410541     1.792044
   18.382199      8.177833     6.746971
   19.891621      1.721952    10.207594
   17.621004     -6.469621    10.904180
   13.526963    -12.681940     8.669991
   10.143286    -15.015608     4.332189
    6.870400    -13.029363    -0.923392
    2.742619     -7.360686    -5.243810
   -2.076137     -1.189029    -7.983108
   -6.239902      3.441890    -9.323397
   -7.799412      7.560259    -9.794947
   -6.309982     14.103928    -9.375662
   -3.490089     22.017533    -8.547189
   -1.572303     27.634887    -7.209779
   -1.686931     28.704651    -4.723826
   -3.355496     23.844887    -1.432548
   -5.581126     13.731549     2.111824
   -7.872160      1.231278     4.881405
  -10.181907    -10.425166     6.075261
  -12.653154    -20.007267     5.234723
  -15.008455    -26.647202     3.476318
  -16.238794    -30.750531     1.663489
  -15.191517    -32.091145     0.567259
  -10.806000    -30.229933     0.926196
   -4.170957    -26.554853     1.939072
    2.238198    -20.657731     3.105590
    6.972783    -13.923281     4.640648
    9.535616     -7.005859     5.919761
   10.801397      0.344681     7.114849
   11.306454      8.079028     7.782813
   11.145861     14.401657     7.293355
   10.909336     18.640737     5.907609
   10.527888     19.396348     3.529702
    9.285852     16.250323     0.360664
    6.973512     12.973464    -2.939536
    3.998432     10.745735    -6.556450
    0.704405     11.250638    -9.901365
   -3.061451     12.986019   -11.159221
   -6.607072     13.756165    -9.459727
   -9.775981     11.051853    -5.711712
  -11.837780      4.972179    -1.224679
  -12.360136     -1.994580     3.056608
  -11.517015     -7.268304     5.235480
   -9.704886     -8.349035     4.880371
   -8.705651     -5.438297     2.557483
   -7.912731     -0.677583     0.295472
   -6.523486      2.127043    -0.708129
   -4.157765      0.957169    -0.059769
   -1.374473     -2.482150     1.281926
    0.770917     -5.061660     2.105490
    2.589761     -6.083570     2.301348
    4.814164     -6.044812     2.151150
    7.570689     -5.058623     2.350840
   10.451908     -3.223996     3.025001
   13.710759     -1.903422     4.255773
   16.674599     -1.168658     4.219230
   18.414674     -0.768105     2.868770
   18.175798     -0.669581     1.349491
   15.550405     -1.030544    -0.220664
   10.976869     -0.455194    -2.213171
    5.800864      2.537937    -4.271835
    0.747488      7.020798    -5.288779
   -5.389775     11.152397    -6.013936
  -13.124693     13.293760    -6.677112
  -22.618617     12.747345    -6.293656
  -32.116654     10.490434    -5.398922
  -38.556601      7.977078    -4.985110
  -39.994448      6.368397    -5.280028
  -36.375473      6.001623    -5.133274
  -29.341945      5.752192    -4.160220
  -20.338090      4.289658    -3.349605
  -10.387427      0.894323    -3.129313
    0.269408     -4.468637    -3.494870
    9.407482    -11.923768    -4.353151
   16.214564    -17.533392    -5.240549
   20.714035    -18.667369    -4.506287
   22.829824    -15.943929    -1.437257
   23.636021    -10.964094     2.633697
   23.384131     -6.571451     5.959115
   22.002807     -3.416319     7.082022
   19.744762     -0.373136     5.281629
   16.956580      3.481911     0.856776
   12.526177      8.176517    -4.186857
    6.448893     12.478778    -7.294311
   -0.191849     14.789414    -8.426528
   -6.202146     15.200864    -8.158444
  -10.665700     14.188689    -6.807388
  -13.451092     11.559792    -4.613978
  -15.864983      7.083832    -1.900123
  -18.496247      1.473678     0.513754
  -21.104359     -3.451196     1.934934
  -22.185904     -6.467632     1.818770
  -19.617087     -7.868817     0.538110
  -13.300852     -9.664462    -0.727260
   -4.618572    -13.226136    -0.822361
    3.500561    -17.721082     0.626944
    9.511803    -20.265231     2.569197
   12.922046    -18.640921     4.036869
   13.483355    -13.549293     4.555424
   12.106542     -7.516224     4.207126
   10.588341     -3.472078     3.671811
    9.927584     -1.809179     3.288354
    9.512898     -1.263417     3.005193
    8.957685      0.948063     2.658810
    7.579713      5.140881     2.472174
    5.032824      8.585883     2.303724
    1.364697      9.095656     2.146159
   -3.138248      7.326016     1.682082
   -6.915749      5.286060     1.172772
   -8.586481      3.856459     0.430566
   -8.066964      4.844219    -0.774444
   -6.322328      8.284246    -1.951185
   -4.673133     12.137328    -3.045631
   -3.353589     14.083053    -3.409294
   -1.230827     13.951336    -2.824156
    1.811762     12.705203    -1.101249
    5.282681     10.777205     2.070182
    7.300871      8.658841     6.316038
    6.298341      5.984720    10.334191
    2.365756      1.672198    12.489939
   -2.791686     -4.145491    12.211078
   -6.921554     -9.382314    10.186946
   -8.230096    -12.359737     7.249468
   -6.647181    -12.639162     4.433657
   -4.682717    -11.018132     2.680023
   -4.056298    -10.038417     2.126422
   -5.119996    -11.149990     2.372125
   -5.556387    -13.159815     2.580932
   -3.346608    -13.414895     2.475661
    1.187249    -11.789001     1.620367
    6.671086     -9.356880    -0.316110
   11.206796     -6.549608    -2.325914
   13.245496     -3.376872    -3.633515
   12.678196      1.693382    -4.046465
   10.843982      8.408133    -3.867433
    9.186641     14.864189    -2.570636
    7.493865     17.474708    -0.397687
    5.891811     15.277230     0.852908
    4.852377      9.835693     0.603044
    4.346835      3.774702    -0.950096
    4.962512      0.571720    -3.145480
    6.592350      1.030575    -5.647370
    8.638722      3.423353    -7.627674
   10.224339      4.284243    -7.188930
   10.375832      1.465858    -4.339920
    9.078736     -3.119431    -0.772052
    6.723727     -5.465884     2.399972
    3.635159     -3.467891     5.102230
    1.060459      1.082616     7.291071
   -0.692363      4.597252     8.235506
   -1.624985      4.695912     7.403183
   -2.646597      1.281270     4.768014
   -5.222475     -2.629136     1.190112
   -8.752552     -4.490870    -2.230077
  -11.947385     -3.511336    -4.784004
  -13.658640     -0.381415    -6.141116
  -13.390228      2.939500    -5.846419
  -11.922367      4.325636    -3.861443
  -10.196238      2.589374    -1.200530
   -8.956168     -0.900126     1.204771
   -8.369008     -3.318710     2.767922
   -8.179425     -3.151944     3.235511
   -7.886706     -0.259562     2.557113
   -7.038815      4.077789     1.266455
   -4.705753      7.701503     0.879697
   -0.090449      8.857725     2.392138
    5.736391      6.766007     4.983546
   11.196562      2.257051     6.824597
   15.384108     -2.390867     6.688003
   18.181839     -5.912557     5.139827
   19.391329     -7.569569     2.746956
   19.074246     -6.724661     0.255648
   16.724566     -3.925054    -1.156715
   12.503543      0.743124    -0.874702
    7.865697      5.425305     0.890695
    4.551212      8.953665     2.596792
    3.425902     11.018912     3.084691
    3.732691     10.951408     2.336831
    4.247346      8.128021     0.915657
    4.067453      4.560113    -0.827670
    3.275170      3.553167    -2.120124
    2.534087      5.523394    -2.192309
    1.719851      8.332248    -1.349424
    0.333577     10.041648    -0.425916
   -1.625303     10.373558     0.203846
   -4.404004      9.186698     0.851334
   -7.110274      6.830738     1.694685
   -9.261183      2.949514     2.717508
  -11.257430     -1.381833     3.701741
  -13.680624     -3.714625     4.349270
  -16.269117     -2.902984     4.335547
  -18.532257     -1.487884     2.984592
  -20.732719     -2.212446     0.320156
  -22.465307     -4.500769    -2.414810
  -23.148911     -6.170233    -3.918052
  -21.781702     -5.625286    -3.440117
  -17.835239     -2.884199    -1.237024
  -12.118880     -0.035027     1.733143
   -7.138602      0.230535     4.079519
   -4.625248     -2.708850     5.092611
   -4.043395     -7.548845     4.839824
   -3.117098    -11.824675     3.666635
    0.148740    -13.367498     2.411779
    5.550296    -12.004749     1.747034
   11.141043     -9.808431     1.586815
   14.348482     -8.491686     1.078010
   14.740601     -8.104072    -0.255329
   14.135937     -7.351875    -1.923737
